{"version": 0.6, "generator": "Overpass API 0.7.62.5 1bd436f1", "osm3s": {"timestamp_osm_base": "2025-03-11T03:24:41Z", "copyright": "The data included in this document is from www.openstreetmap.org. The data is made available under ODbL."}, "elements": [{"type": "node", "id": 584125647, "lat": 40.7347925, "lon": -73.9913589, "tags": {"addr:city": "New York", "addr:housenumber": "4", "addr:postcode": "10003", "addr:state": "NY", "addr:street": "Union Square South", "branch": "Union Square", "brand": "Whole Foods Market", "brand:wikidata": "Q1809448", "check_date": "2024-10-03", "check_date:opening_hours": "2024-10-03", "name": "Whole Foods Market", "opening_hours": "Mo-Su 07:00-22:00", "organic": "yes", "phone": "+1 212-673-5388", "ref": "unionsquare", "shop": "supermarket", "website": "https://www.wholefoodsmarket.com/stores/unionsquare"}}, {"type": "node", "id": 725335343, "lat": 40.8555109, "lon": -73.9294503, "tags": {"addr:housenumber": "1617", "addr:street": "St. Nicholas Avenue", "name": "Fine Fare", "shop": "supermarket"}}, {"type": "node", "id": 752186044, "lat": 40.7317446, "lon": -73.9885326, "tags": {"addr:city": "New York", "addr:housenumber": "84", "addr:postcode": "10003", "addr:state": "NY", "addr:street": "3rd Avenue", "name": "Westside Market", "opening_hours": "Mo-Su 00:00-24:00", "payment:cash": "yes", "payment:credit_cards": "yes", "phone": "+1-212-253-8400", "shop": "supermarket"}}, {"type": "node", "id": 889585036, "lat": 40.7156112, "lon": -74.0117376, "tags": {"addr:city": "New York", "addr:housenumber": "270", "addr:postcode": "10007", "addr:state": "NY", "addr:street": "Greenwich Street", "branch": "Tribeca", "brand": "Whole Foods Market", "brand:wikidata": "Q1809448", "check_date": "2024-10-03", "check_date:opening_hours": "2024-10-03", "name": "Whole Foods Market", "opening_hours": "Mo-Su 07:00-22:00", "phone": "+1 212-349-6555", "ref": "tribeca", "shop": "supermarket", "website": "https://www.wholefoodsmarket.com/stores/tribeca", "wheelchair": "yes"}}, {"type": "node", "id": 999526102, "lat": 40.7683962, "lon": -73.9826745, "tags": {"addr:city": "New York", "addr:housenumber": "10", "addr:postcode": "10019", "addr:state": "NY", "addr:street": "Columbus Circle", "air_conditioning": "yes", "branch": "Columbus Circle", "brand": "Whole Foods Market", "brand:wikidata": "Q1809448", "check_date": "2024-10-03", "check_date:opening_hours": "2024-10-03", "currency:USD": "yes", "diet:lactose_free": "yes", "diet:organic": "yes", "diet:vegan": "yes", "diet:vegetarian": "yes", "name": "Whole Foods Market", "opening_hours": "Mo-Su 07:00-22:00", "phone": "+1 212-823-9600", "ref": "columbuscircle", "shop": "supermarket", "website": "https://www.wholefoodsmarket.com/stores/columbuscircle"}}, {"type": "node", "id": 1000798085, "lat": 40.7617166, "lon": -73.9862921, "tags": {"addr:city": "New York", "addr:housenumber": "810", "addr:postcode": "10019", "addr:state": "NY", "addr:street": "8th Avenue", "brand": "Key Food", "brand:wikidata": "Q6398037", "name": "Key Food", "opening_hours": "07:00-24:00", "operator": "Key Food", "phone": "+1 212-977-1710", "ref": "1980", "shop": "supermarket"}}, {"type": "node", "id": 1011407273, "lat": 40.780745, "lon": -73.9817611, "tags": {"addr:city": "New York", "addr:country": "US", "addr:housenumber": "2131", "addr:postcode": "10023", "addr:state": "NY", "addr:street": "Broadway", "branch": "Upper West Side", "brand:wikidata": "Q5430910", "brand:wikipedia": "en:Fairway Market", "name": "Fairway Market", "opening_hours": "Mo-Su 06:00-01:00", "phone": "+1-212-595-1888", "shop": "supermarket", "toilets:wheelchair": "yes", "website": "https://www.fairwaymarket.com/", "wheelchair": "yes", "wheelchair:description": "bathroom is upstairs but there is an elevator."}}, {"type": "node", "id": 1038205809, "lat": 40.7785925, "lon": -73.9822755, "tags": {"addr:city": "New York", "addr:housenumber": "2073", "addr:postcode": "10023", "addr:state": "NY", "addr:street": "Broadway", "air_conditioning": "yes", "branch": "72nd & Broadway", "brand": "Trader Joe's", "brand:wikidata": "Q688825", "currency:USD": "yes", "drink:beer": "yes", "level": "-1,-2", "name": "Trader Joe's", "opening_hours": "Mo-Su 08:00-22:00", "payment:american_express": "yes", "payment:apple_pay": "yes", "payment:cash": "yes", "payment:contactless": "yes", "payment:credit_cards": "yes", "payment:discover_card": "yes", "payment:mastercard": "yes", "payment:mastercard_contactless": "yes", "payment:visa": "yes", "phone": "+1 212-799-0028", "ref": "542", "shop": "supermarket", "website": "https://locations.traderjoes.com/ny/new-york/542/", "wheelchair": "yes"}}, {"type": "node", "id": 1314522027, "lat": 40.7371928, "lon": -74.0066439, "tags": {"addr:city": "New York", "addr:country": "US", "addr:housenumber": "790", "addr:postcode": "10014", "addr:state": "NY", "addr:street": "Greenwich Street", "brand": "D'Agostino", "brand:wikidata": "Q20656844", "name": "D'Agostino", "opening_hours": "Mo-Su 08:00-22:00", "phone": "+1 212 691 9198", "shop": "supermarket"}}, {"type": "node", "id": 1329106759, "lat": 40.7026168, "lon": -73.9894421, "tags": {"addr:housenumber": "55", "addr:postcode": "11201", "addr:street": "Washington Street", "atm": "yes", "cuisine": "sandwich", "drink:beer": "yes", "drink:coffee": "yes", "drink:wine": "yes", "fax": "+1-718-488-7658", "name": "Peas & Pickles", "opening_hours": "24/7", "phone": "+1-718-488-8336", "shop": "supermarket"}}, {"type": "node", "id": 1383933476, "lat": 40.7688846, "lon": -73.9852324, "tags": {"addr:city": "New York", "addr:housenumber": "917", "addr:state": "NY", "addr:street": "9th Avenue", "air_conditioning": "yes", "brand": "Morton Williams", "brand:wikidata": "Q28227933", "check_date": "2024-01-09", "name": "Morton Williams", "opening_hours": "24/7", "payment:american_express": "yes", "payment:cash": "yes", "payment:contactless": "yes", "payment:debit_cards": "yes", "payment:discover_card": "yes", "payment:mastercard": "yes", "payment:visa": "yes", "phone": "+1-212-586-8784", "shop": "supermarket", "smoking": "no", "website": "https://www.mortonwilliams.com/", "wheelchair": "yes"}}, {"type": "node", "id": 1493005669, "lat": 40.7240812, "lon": -73.975958, "tags": {"name": "Pioneer Market Place", "opening_hours": "Mo-Sa 07:00-22:00; Su 07:30-21:00", "shop": "supermarket"}}, {"type": "node", "id": 1667353975, "lat": 40.8061134, "lon": -73.9543707, "tags": {"addr:city": "New York", "addr:housenumber": "2187", "addr:postcode": "10026", "addr:state": "NY", "addr:street": "Frederick Douglass Boulevard", "brand": "Lidl", "brand:wikidata": "Q151954", "name": "Lidl", "opening_hours": "Mo-Su 07:00-22:00", "phone": "+1 844-747-5435", "ref": "8011", "shop": "supermarket", "website": "https://www.lidl.com/stores/US08011"}}, {"type": "node", "id": 1682930317, "lat": 40.7814879, "lon": -73.9538705, "tags": {"addr:country": "US", "addr:housenumber": "1343", "addr:postcode": "10128", "addr:state": "NY", "addr:street": "Lexington Avenue", "fax": "+1 212-831-9215", "name": "Gristedes", "opening_hours": "Mo-Su 07:00-23:00", "phone": "+1 212-831-0978", "ref": "437", "shop": "supermarket", "website": "https://www.gristedessupermarkets.com"}}, {"type": "node", "id": 1802299466, "lat": 40.8076459, "lon": -73.9645252, "tags": {"addr:city": "New York", "addr:housenumber": "2941", "addr:state": "NY", "addr:street": "Broadway", "brand": "Morton Williams", "brand:wikidata": "Q28227933", "name": "Morton Williams", "opening_hours": "24/7", "phone": "+1-212-666-4190", "shop": "supermarket", "website": "https://www.mortonwilliams.com/"}}, {"type": "node", "id": 1809517501, "lat": 40.7941324, "lon": -73.9668837, "tags": {"addr:city": "New York", "addr:housenumber": "808", "addr:postcode": "10025", "addr:state": "NY", "addr:street": "Columbus Avenue", "branch": "Upper West Side", "brand": "Whole Foods Market", "brand:wikidata": "Q1809448", "check_date": "2024-10-03", "check_date:opening_hours": "2024-10-03", "delivery": "yes", "drink:beer": "yes", "drink:wine": "yes", "internet_access": "wlan", "name": "Whole Foods Market", "opening_hours": "Mo-Su 07:00-22:00", "phone": "+1 212-222-6160", "ref": "upperwestside", "shop": "supermarket", "website": "https://www.wholefoodsmarket.com/stores/upperwestside"}}, {"type": "node", "id": 1825848807, "lat": 40.7964686, "lon": -73.9708267, "tags": {"addr:city": "New York", "addr:country": "US", "addr:housenumber": "2611", "addr:postcode": "10025", "addr:state": "NY", "addr:street": "Broadway", "name": "The Health Nuts", "shop": "supermarket", "website": "https://www.manhattanhealthfoodstore.com/"}}, {"type": "node", "id": 1825848809, "lat": 40.7958418, "lon": -73.9712857, "tags": {"addr:city": "New York", "addr:country": "US", "addr:housenumber": "2589", "addr:postcode": "10025", "addr:state": "NY", "addr:street": "Broadway", "fax": "+1 212 316 0111", "name": "Westside Market", "opening_hours": "24/7", "phone": "+1 212 316 0222", "shop": "supermarket", "website": "https://www.wmarketnyc.com/"}}, {"type": "node", "id": 1825853221, "lat": 40.7937062, "lon": -73.9703785, "tags": {"addr:city": "New York", "addr:housenumber": "733", "addr:postcode": "10025", "addr:state": "NY", "addr:street": "Amsterdam Avenue", "atm": "yes", "brand": "Key Food", "brand:wikidata": "Q6398037", "name": "Key Food", "opening_hours": "24/7", "phone": "+1 212-665-9900", "ref": "2514", "shop": "supermarket", "website": "https://www.keyfood.com/store/store/2514", "wheelchair": "yes"}}, {"type": "node", "id": 1827758746, "lat": 40.7138971, "lon": -73.9806102, "tags": {"name": "Fine Fare", "opening_hours": "Mo-Sa 07:00-22:00, Su 07:00-21:00", "shop": "supermarket", "wheelchair": "yes"}}, {"type": "node", "id": 1974440545, "lat": 40.697852, "lon": -73.9925808, "tags": {"addr:city": "Brooklyn", "addr:country": "US", "addr:housenumber": "101", "addr:postcode": "11201", "addr:state": "NY", "addr:street": "Clark Street", "drink:beer": "yes", "drink:wine": "low_alcohol", "name": "Gristedes", "opening_hours": "Mo-Su 07:00-22:00", "shop": "supermarket"}}, {"type": "node", "id": 1994680557, "lat": 40.8038856, "lon": -73.9665484, "tags": {"addr:city": "New York", "addr:country": "US", "addr:housenumber": "2828", "addr:postcode": "10025", "addr:state": "NY", "addr:street": "Broadway", "alt_name:ko": "H \ub9c8\ud2b8", "brand": "H Mart", "brand:wikidata": "Q5636306", "cuisine": "asian", "name": "H Mart", "name:en": "H Mart", "name:ko": "\ud55c\uc544\ub984", "name:zh-Hans": "\u97e9\u4e9a\u9f99", "name:zh-Hant": "\u97d3\u4e9e\u9f8d", "opening_hours": "Mo-Su 07:30-23:00", "payment:cash": "yes", "payment:credit_cards": "yes", "payment:debit_cards": "yes", "phone": "+16469520442", "shop": "supermarket"}}, {"type": "node", "id": 2015476115, "lat": 40.7307676, "lon": -73.9545749, "tags": {"name": "Market on Kent", "shop": "supermarket", "website": "https://marketonkent.com/"}}, {"type": "node", "id": 2053820223, "lat": 40.7455301, "lon": -73.9563514, "tags": {"addr:city": "Long Island City", "addr:country": "US", "addr:housenumber": "4-85", "addr:postcode": "11101", "addr:state": "NY", "addr:street": "47th Road", "name": "Food Cellar & Co Market", "opening_hours": "Mo-Su 07:30-22:00", "shop": "supermarket", "website": "http://foodcellarandco.com/", "wheelchair": "yes"}}, {"type": "node", "id": 2070158858, "lat": 40.7674922, "lon": -73.9862892, "tags": {"amenity:1985-2017": "restaurant", "cuisine:1985-2017": "italian", "email:1985-2017": "info@bellorestaurant.com", "fax:1985-2017": "+1-212-977-3857", "name": "Kitchen Valley Marketplace", "shop": "supermarket"}}, {"type": "node", "id": 2091641955, "lat": 40.7894351, "lon": -73.9696844, "tags": {"addr:city": "New York", "addr:country": "US", "addr:housenumber": "633", "addr:postcode": "10025", "addr:state": "NY", "addr:street": "Columbus Avenue", "brand": "D'Agostino", "brand:wikidata": "Q20656844", "name": "D'Agostino", "opening_hours": "Mo-Su 08:00-22:00", "shop": "supermarket"}}, {"type": "node", "id": 2123313752, "lat": 40.7874676, "lon": -73.9754343, "tags": {"addr:city": "New York", "addr:housenumber": "530", "addr:postcode": "10024-3904", "addr:state": "NY", "addr:street": "Amsterdam Avenue", "atm": "yes", "brand": "Key Food", "brand:wikidata": "Q6398037", "name": "Key Food", "name:fa": "\u06a9\u06cc \u0641\u0648\u062f", "opening_hours": "Mo-Fr 07:00-21:45; Sa-Su 08:00-21:45", "phone": "+1 212-799-8600", "ref": "1584", "shop": "supermarket", "website": "https://www.keyfood.com/store/store/1584"}}, {"type": "node", "id": 2183010493, "lat": 40.7071196, "lon": -74.0094839, "tags": {"name": "Up Market", "shop": "supermarket", "wheelchair": "limited"}}, {"type": "node", "id": 2184803604, "lat": 40.7232585, "lon": -74.0025757, "tags": {"addr:city": "New York", "addr:country": "US", "addr:housenumber": "494", "addr:postcode": "10013", "addr:state": "NY", "addr:street": "Broome Street", "branch": "soho", "cuisine": "japanese", "name": "Sunrise Mart", "opening_hours": "Mo-Su 11:00-20:00", "opening_hours:kitchen": "12:00-17:30", "phone": "+1 212-219-0033", "shop": "supermarket", "toilets:wheelchair": "no", "website": "https://sunrisemart.com/", "wheelchair": "no"}}, {"type": "node", "id": 2275557546, "lat": 40.73193, "lon": -73.9547275, "tags": {"addr:city": "Brooklyn", "addr:housenumber": "953", "addr:postcode": "11222", "addr:state": "NY", "addr:street": "Manhattan Avenue", "brand": "C-Town Supermarkets", "brand:wikidata": "Q5005929", "name": "C-Town", "opening_hours": "08:00-21:00", "phone": "+1-718-349-3000", "shop": "supermarket", "website": "https://locations.ctownsupermarkets.com/ctown-supermarkets-4b18445a0f90"}}, {"type": "node", "id": 2276382991, "lat": 40.7946199, "lon": -73.9634458, "tags": {"addr:housenumber": "13-15", "addr:street": "West 100th Street", "brand": "Associated Supermarkets", "name": "Associated Supermarket", "phone": "+1-212-531-4571", "shop": "supermarket", "website": "https://www.shopassociated.com/"}}, {"type": "node", "id": 2279562464, "lat": 40.7334209, "lon": -73.987875, "tags": {"addr:city": "New York", "addr:housenumber": "142", "addr:postcode": "10003", "addr:state": "NY", "addr:street": "East 14th Street", "branch": "Union Square", "brand": "Trader Joe's", "brand:wikidata": "Q688825", "drink:beer": "yes", "name": "Trader Joe's", "opening_hours": "Mo-Su 08:00-21:00", "phone": "+1 212-529-4612", "ref": "540", "shop": "supermarket", "website": "https://locations.traderjoes.com/ny/new-york/540/"}}, {"type": "node", "id": 2279562480, "lat": 40.7335574, "lon": -73.988259, "tags": {"addr:city": "New York", "addr:housenumber": "138", "addr:postcode": "10003", "addr:state": "NY", "addr:street": "East 14th Street", "check_date": "2022-08-12", "name": "Trader Joe's Pronto", "not:brand:wikidata": "Q688825", "opening_hours": "Mo-Sa 09:00-21:00; Su 12:00-21:00", "phone": "+1-212-529-6326", "shop": "supermarket", "website": "https://locations.traderjoes.com/ny/new-york/541/"}}, {"type": "node", "id": 2297545261, "lat": 40.791524, "lon": -73.9719473, "tags": {"name": "Seasons", "shop": "supermarket", "website": "https://www.seasonsnyc.com/"}}, {"type": "node", "id": 2302043640, "lat": 40.8757465, "lon": -73.9085991, "tags": {"addr:city": "Bronx", "addr:country": "US", "addr:housenumber": "5249", "addr:postcode": "10463", "addr:state": "NY", "addr:street": "Broadway", "brand": "C-Town Supermarkets", "brand:wikidata": "Q5005929", "name": "C-Town", "opening_hours": "Mo-Sa 08:00-21:00; Su 08:00-19:00", "phone": "+1-718-562-9090", "shop": "supermarket", "website": "https://locations.ctownsupermarkets.com/ctown-supermarkets-c5543c627b42"}}, {"type": "node", "id": 2312065721, "lat": 40.7913829, "lon": -73.9745138, "tags": {"name": "Barzini's", "shop": "supermarket"}}, {"type": "node", "id": 2312065723, "lat": 40.7879142, "lon": -73.9771918, "tags": {"addr:city": "New York", "addr:housenumber": "2341", "addr:postcode": "10024", "addr:state": "NY", "addr:street": "Broadway", "name": "Broadway Farm", "shop": "supermarket"}}, {"type": "node", "id": 2348610308, "lat": 40.8548743, "lon": -73.9367816, "tags": {"addr:city": "New York", "addr:country": "US", "addr:housenumber": "592", "addr:postcode": "10033", "addr:state": "NY", "addr:street": "Fort Washington Avenue", "check_date:opening_hours": "2024-10-04", "delivery": "yes", "name": "Ozzie's Fresh Market", "opening_hours": "Mo-Fr 07:00-22:00; Sa 08:00-22:00; Su 08:00-21:00", "operator": "Associated Supermarkets", "payment:cash": "yes", "payment:contactless": "yes", "payment:credit_cards": "yes", "phone": "+1-212-543-0721", "shop": "supermarket", "website": "https://www.shopassociated.com/locations/", "wheelchair": "limited"}}, {"type": "node", "id": 2357937167, "lat": 40.7857835, "lon": -73.9512112, "tags": {"addr:city": "New York", "addr:housenumber": "1486", "addr:postcode": "10029", "addr:state": "NY", "addr:street": "Lexington Avenue", "atm": "yes", "brand": "Food Universe", "delivery": "yes", "dog": "no", "drink:beer": "yes", "drink:wine": "yes", "name": "Food Universe Marketplace", "opening_hours": "Mo-Fr 07:00-21:00; Sa 08:00-21:00; Su 09:00-20:30", "payment:american_express": "yes", "payment:apple_pay": "yes", "payment:cash": "yes", "payment:discover_card": "yes", "payment:mastercard": "yes", "payment:union_pay": "yes", "payment:visa": "yes", "phone": "+1 212-348-3560", "ref": "1826", "shop": "supermarket"}}, {"type": "node", "id": 2358048502, "lat": 40.7320918, "lon": -74.0079219, "tags": {"addr:city": "New York", "addr:country": "US", "addr:housenumber": "666", "addr:postcode": "10014", "addr:state": "NY", "addr:street": "Greenwich Street", "name": "Brooklyn Fare", "opening_hours": "07:00-22:00", "organic": "yes", "phone": "+1 212-706-0623", "shop": "supermarket", "website": "https://www.brooklynfare.com/"}}, {"type": "node", "id": 2359580602, "lat": 40.7388292, "lon": -73.9992011, "tags": {"addr:housenumber": "77", "addr:street": "7th Avenue", "check_date": "2024-09-12", "fax": "+1 212-807-7774", "name": "Westside Market", "opening_hours": "Mo-Su 07:00-24:00", "phone": "+1 212-907-7771", "shop": "supermarket", "website": "http://new.wmarketnyc.com/77-seventh-avenue/"}}, {"type": "node", "id": 2377128155, "lat": 40.7444176, "lon": -73.9994014, "tags": {"addr:city": "New York", "addr:country": "US", "addr:housenumber": "225", "addr:postcode": "10011", "addr:state": "NY", "addr:street": "8th Avenue", "check_date": "2024-04-28", "delivery": "yes", "fax": "+1 212-994-8992", "name": "Gristedes", "opening_hours": "Mo-Sa 06:00-24:00; Su 06:00-23:00", "phone": "+1 646-486-7311", "ref": "597", "shop": "supermarket", "website": "https://www.gristedessupermarkets.com/", "wheelchair": "yes"}}, {"type": "node", "id": 2377128156, "lat": 40.7475657, "lon": -73.9975067, "tags": {"addr:city": "New York", "addr:country": "US", "addr:housenumber": "307", "addr:postcode": "10001", "addr:state": "NY", "addr:street": "West 26th Street", "delivery": "yes", "fax": "+1 243-8328", "name": "Gristedes", "opening_hours": "Mo-Sa 06:00-24:00; Su 06:00-23:00", "phone": "+1 212-243-8644", "ref": "562", "shop": "supermarket", "website": "https://www.gristedessupermarkets.com/"}}, {"type": "node", "id": 2391924569, "lat": 40.6981172, "lon": -73.9924718, "tags": {"addr:housenumber": "79", "addr:postcode": "11201", "addr:street": "Pineapple Street", "alt_name": "79 Green Apple", "drink:beer": "yes", "drink:wine": "low_alcohol", "name": "All in One Deli Mart", "opening_hours": "Mo-Sa 06:00-01:00; Su 07:00-23:00", "phone": "+1-718-596-8219", "shop": "supermarket"}}, {"type": "node", "id": 2443892164, "lat": 40.7899067, "lon": -73.9756025, "tags": {"addr:city": "New York", "addr:housenumber": "2401", "addr:postcode": "10025", "addr:state": "NY", "addr:street": "Broadway", "brand": "Key Food", "brand:wikidata": "Q6398037", "name": "Key Food", "opening_hours": "Mo-Fr 07:00-21:45; Sa-Su 08:00-21:45", "operator": "Chase", "operator:wikipedia": "en:Chase Bank", "phone": "+1 212-580-6000", "ref": "2640", "shop": "supermarket", "website": "https://keyfoodstores.keyfood.com/store/keyFood/en/store/2640"}}, {"type": "node", "id": 2486570146, "lat": 40.7238482, "lon": -73.9923711, "tags": {"addr:city": "New York", "addr:housenumber": "95", "addr:postcode": "10002", "addr:state": "NY", "addr:street": "East Houston Street", "branch": "Bowery", "brand": "Whole Foods Market", "brand:wikidata": "Q1809448", "check_date": "2024-10-03", "check_date:opening_hours": "2024-10-03", "delivery": "yes", "drink:beer": "yes", "fax": "+1 212-420-1360", "internet_access": "wlan", "name": "Whole Foods Market", "opening_hours": "Mo-Su 07:00-22:00", "phone": "+1 212-420-1320", "ref": "bowery", "shop": "supermarket", "toilets": "yes", "toilets:access": "customers", "toilets:unisex": "no", "website": "https://www.wholefoodsmarket.com/stores/bowery"}}, {"type": "node", "id": 2494152884, "lat": 40.6947099, "lon": -73.9953902}, {"type": "node", "id": 2494153788, "lat": 40.6947267, "lon": -73.9953822}, {"type": "node", "id": 2494153816, "lat": 40.6947815, "lon": -73.99565}, {"type": "node", "id": 2494153899, "lat": 40.6949482, "lon": -73.9952759}, {"type": "node", "id": 2494153936, "lat": 40.6950198, "lon": -73.9955357}, {"type": "node", "id": 2554917284, "lat": 40.8320798, "lon": -73.9356434, "tags": {"addr:housenumber": "159-04", "addr:postcode": "10039", "addr:street": "Harlem River Drive", "name": "Shop Fair", "phone": "+1-212-283-4731", "shop": "supermarket"}}, {"type": "node", "id": 2555098982, "lat": 40.7184953, "lon": -73.9966034, "tags": {"addr:housenumber": "128", "addr:postcode": "10013", "addr:street": "Mott Street", "alt_name": "New York Mart", "name": "iFresh Market", "opening_hours": "Mo-Su 07:30-21:00", "phone": "+1-212-680-0178", "shop": "supermarket", "website": "https://www.ifreshmarket.com/en/stores/mott-store/"}}, {"type": "node", "id": 2555128947, "lat": 40.7223696, "lon": -73.9859805, "tags": {"addr:housenumber": "240", "addr:postcode": "10009", "addr:street": "East Houston Street", "check_date": "2024-03-10", "name": "Union Market", "name:fa": "\u06cc\u0648\u0646\u06cc\u0648\u0646 \u0645\u0627\u0631\u06a9\u062a", "opening_hours": "Mo-Su 08:00-22:00", "phone": "+1-212-677-2441", "shop": "supermarket", "website": "https://unionmarket.com"}}, {"type": "node", "id": 2562438629, "lat": 40.8123399, "lon": -73.9417629, "tags": {"addr:city": "New York", "addr:country": "US", "addr:housenumber": "448", "addr:postcode": "10030", "addr:state": "NY", "addr:street": "Lenox Avenue", "name": "Associated Supermarket", "operator": "Associated Supermarkets", "shop": "supermarket"}}, {"type": "node", "id": 2563985418, "lat": 40.71761, "lon": -73.996022, "tags": {"addr:housenumber": "157", "addr:postcode": "10013", "addr:street": "Hester Street", "cuisine": "asian", "level": "0;-1", "name": "Hong Kong Supermarket", "opening_hours": "09:00-19:00", "phone": "+1 212-966-4943", "shop": "supermarket", "wheelchair": "yes"}}, {"type": "node", "id": 2563985420, "lat": 40.7171212, "lon": -73.9967759, "tags": {"addr:city": "New York", "addr:housenumber": "49", "addr:postcode": "10013", "addr:state": "NY", "addr:street": "Elizabeth Street", "name": "\u5bf6\u69ae\u884c\u98df\u54c1\u4e2d\u5fc3", "name:en": "Po Wing Hong Food Market", "name:zh": "\u5bf6\u69ae\u884c\u98df\u54c1\u4e2d\u5fc3", "opening_hours": "Mo-Su 08:30-17:45", "origin": "chinese", "phone": "+1-212-966-1080", "shop": "supermarket"}}, {"type": "node", "id": 2567527084, "lat": 40.7265685, "lon": -73.9763402}, {"type": "node", "id": 2567527086, "lat": 40.726673, "lon": -73.9765874}, {"type": "node", "id": 2567527087, "lat": 40.7266849, "lon": -73.9762552}, {"type": "node", "id": 2567527088, "lat": 40.7267073, "lon": -73.9763083}, {"type": "node", "id": 2567527089, "lat": 40.7268257, "lon": -73.9762219}, {"type": "node", "id": 2567527091, "lat": 40.7269077, "lon": -73.9764161}, {"type": "node", "id": 2568494522, "lat": 40.7015331, "lon": -73.9843229, "tags": {"addr:housenumber": "165", "addr:postcode": "11201", "addr:street": "York Street", "name": "Fine Food", "phone": "+1-718-858-5900", "shop": "supermarket"}}, {"type": "node", "id": 2603955334, "lat": 40.835077, "lon": -73.9395759, "tags": {"addr:city": "New York", "addr:housenumber": "1016", "addr:postcode": "10032", "addr:state": "NY", "addr:street": "Saint Nicholas Avenue", "brand": "C-Town Supermarkets", "brand:wikidata": "Q5005929", "drink:beer": "yes", "name": "C-Town", "opening_hours": "Mo-Sa 07:00-22:00; Su 08:00-21:00", "payment:american_express": "yes", "payment:apple_pay": "yes", "payment:cash": "yes", "payment:discover_card": "yes", "payment:google_pay": "yes", "payment:mastercard": "yes", "payment:visa": "yes", "phone": "+1-212-795-2877", "shop": "supermarket", "website": "https://locations.ctownsupermarkets.com/ctown-supermarkets-c54f0c37bc42"}}, {"type": "node", "id": 2603955336, "lat": 40.8219224, "lon": -73.9531711, "tags": {"addr:city": "New York", "addr:housenumber": "538", "addr:postcode": "10031", "addr:state": "NY", "addr:street": "West 138th Street", "brand": "Food Universe", "email": "138th@comparsupermarkets.com", "name": "Food Universe Marketplace", "opening_hours": "Mo-Su 07:30-24:00", "phone": "+1 212-234-0128", "ref": "1908", "shop": "supermarket", "website": "http://comparesupermarkets.com/538-w-138th-st"}}, {"type": "node", "id": 2620513862, "lat": 40.7764703, "lon": -73.9559474, "tags": {"addr:city": "New York", "addr:country": "US", "addr:housenumber": "1450", "addr:postcode": "10028", "addr:state": "NY", "addr:street": "3rd Avenue", "atm": "yes", "name": "Gristedes", "opening_hours": "Mo-Sa 07:00-22:00;Su 08:00-22:00", "phone": "+1 212-484-9105", "ref": "777", "shop": "supermarket", "website": "https://www.gristedessupermarkets.com"}}, {"type": "node", "id": 2621577430, "lat": 40.7443827, "lon": -73.9914762, "tags": {"addr:city": "New York", "addr:housenumber": "766", "addr:postcode": "10010", "addr:state": "NY", "addr:street": "6th Avenue", "branch": "Chelsea", "name": "Fairway Market", "opening_hours": "Mo-Su 07:00-21:00", "operator": "Fairway", "phone": "+1 646-676-4550", "shop": "supermarket", "website": "https://fairwaymarket.com/", "wheelchair": "yes"}}, {"type": "node", "id": 2623615613, "lat": 40.7905257, "lon": -73.9473484, "tags": {"addr:city": "New York", "addr:housenumber": "1635", "addr:postcode": "10029", "addr:state": "NY", "addr:street": "Lexington Avenue", "brand": "Ideal Food Basket", "brand:wikidata": "Q111908729", "delivery": "yes", "drink:beer": "yes", "level": "0", "name": "Ideal Food Basket", "opening_hours": "Mo-Sa 07:00-22:00; Su 08:00-21:00; Dec 24 07:00-21:00; Dec 25 08:00-17:00", "operator": "Ideal Food Basket", "payment:apple_pay": "yes", "payment:cash": "yes", "payment:credit_cards": "yes", "payment:debit_cards": "yes", "payment:ebt": "yes", "payment:google_pay": "yes", "phone": "+1 212-410-6733", "shop": "supermarket", "website": "https://www.idealfoodbaskets.com/", "wheelchair": "yes"}}, {"type": "node", "id": 2629371827, "lat": 40.7579582, "lon": -73.9704396, "tags": {"name": "Amazon Go", "shop": "supermarket"}}, {"type": "node", "id": 2629371829, "lat": 40.7673529, "lon": -73.9565664, "tags": {"addr:city": "New York", "addr:country": "US", "addr:housenumber": "1331", "addr:postcode": "10021", "addr:state": "NY", "addr:street": "1st Avenue", "air_conditioning": "yes", "brand": "Morton Williams", "brand:wikidata": "Q28227933", "check_date": "2024-09-22", "name": "Morton Williams", "opening_hours": "PH,Mo-Su 00:00-23:59", "payment:american_express": "yes", "payment:cash": "yes", "payment:credit_cards": "yes", "payment:debit_cards": "yes", "payment:discover_card": "yes", "payment:mastercard": "yes", "payment:visa": "yes", "phone": "+1 212-139-0636", "shop": "supermarket", "website": "https://www.mortonwilliams.com", "wheelchair": "yes"}}, {"type": "node", "id": 2702788207, "lat": 40.7171763, "lon": -73.9804277, "tags": {"addr:city": "New York", "addr:housenumber": "43", "addr:postcode": "10002", "addr:state": "NY", "addr:street": "Columbia Street", "brand": "Key Food", "brand:wikidata": "Q6398037", "name": "Key Food", "opening_hours": "Mo-Sa 08:00-22:00; Su 08:00-20:00", "opening_hours:signed": "no", "phone": "+1 212-598-9184", "ref": "1436", "shop": "supermarket", "website": "https://www.keyfood.com/store/store/1436"}}, {"type": "node", "id": 2703228134, "lat": 40.7499612, "lon": -73.9990723, "tags": {"addr:city": "New York", "addr:housenumber": "317", "addr:postcode": "10001", "addr:state": "NY", "addr:street": "9th Avenue", "brand": "Ideal Food Basket", "brand:wikidata": "Q111908729", "delivery": "yes", "name": "Ideal Food Basket", "opening_hours": "07:00-22:00; Jan 01,Dec 25 10:00-19:00; Dec 24 07:00-18:00; Dec 31 07:00-22:00", "phone": "+1 212-714-1522", "shop": "supermarket", "website": "https://www.idealfoodbaskets.com/locations/"}}, {"type": "node", "id": 2704023645, "lat": 40.7350176, "lon": -73.9861522, "tags": {"addr:housenumber": "180", "addr:postcode": "10003", "addr:street": "3rd Avenue", "name": "Westside Market", "opening_hours": "Mo-Su 06:00-23:00", "phone": "+1-212-254-0017", "shop": "supermarket", "website": "https://locations.wmarketnyc.com/westside-market-nyc-868e9f277a1b"}}, {"type": "node", "id": 2704045699, "lat": 40.7353388, "lon": -73.9799132, "tags": {"addr:housenumber": "355", "addr:postcode": "10010", "addr:street": "1st Avenue", "brand": "D'Agostino", "brand:wikidata": "Q20656844", "name": "D'Agostino", "shop": "supermarket"}}, {"type": "node", "id": 2704110108, "lat": 40.74026, "lon": -73.981871, "tags": {"addr:city": "New York", "addr:housenumber": "341", "addr:postcode": "10010", "addr:state": "NY", "addr:street": "3rd Avenue", "brand": "D'Agostino", "brand:wikidata": "Q20656844", "name": "D'Agostino", "opening_hours": "Mo-Su 07:00-22:00; Dec 31 07:00-21:00; Jan 1 08:00-22:00", "phone": "+1-212-686-0619", "shop": "supermarket", "website": "https://www.dagnyc.com/stores/dagostino-at-25th-street"}}, {"type": "node", "id": 2708202186, "lat": 40.7647429, "lon": -73.9845408, "tags": {"addr:housenumber": "907", "addr:postcode": "10019", "addr:street": "8th Avenue", "name": "Gristedes", "shop": "supermarket"}}, {"type": "node", "id": 2709306699, "lat": 40.7478373, "lon": -73.9874388, "tags": {"addr:country": "US", "addr:housenumber": "38", "addr:postcode": "10001", "addr:state": "NY", "addr:street": "West 32nd Street", "alt_name:ko": "H \ub9c8\ud2b8", "brand": "H Mart", "brand:wikidata": "Q5636306", "cuisine": "asian", "dog": "no", "drink:beer": "yes", "drink:soju": "yes", "level": "0", "name": "H Mart", "name:en": "H Mart", "name:ko": "\ud55c\uc544\ub984", "name:zh-Hans": "\u97e9\u4e9a\u9f99", "name:zh-Hant": "\u97d3\u4e9e\u9f8d", "opening_hours": "08:00-23:00", "operator": "Hanahreum Group", "payment:american_express": "yes", "payment:cash": "yes", "payment:discover_card": "yes", "payment:jcb": "yes", "payment:mastercard": "yes", "payment:visa": "yes", "phone": "+1 212-695-3283", "shop": "supermarket", "website": "https://www.hmart.com", "wheelchair": "yes"}}, {"type": "node", "id": 2709892569, "lat": 40.7603302, "lon": -73.9914739, "tags": {"addr:housenumber": "639", "addr:postcode": "10036", "addr:street": "9th Avenue", "check_date": "2024-10-11", "name": "Smiler Gourmet Deli", "shop": "supermarket"}}, {"type": "node", "id": 2714217135, "lat": 40.7988263, "lon": -73.941727}, {"type": "node", "id": 2714217215, "lat": 40.7989603, "lon": -73.9420444}, {"type": "node", "id": 2714217224, "lat": 40.7990088, "lon": -73.9420089}, {"type": "node", "id": 2714217245, "lat": 40.7990665, "lon": -73.9415514}, {"type": "node", "id": 2714217302, "lat": 40.7992005, "lon": -73.9418689}, {"type": "node", "id": 2724083580, "lat": 40.7777079, "lon": -73.9524846}, {"type": "node", "id": 2724083588, "lat": 40.777752, "lon": -73.9524519}, {"type": "node", "id": 2724083596, "lat": 40.7777993, "lon": -73.9523884}, {"type": "node", "id": 2724083599, "lat": 40.7778085, "lon": -73.9524099}, {"type": "node", "id": 2724083611, "lat": 40.7778882, "lon": -73.9523225}, {"type": "node", "id": 2724083612, "lat": 40.7778891, "lon": -73.9529075}, {"type": "node", "id": 2724083613, "lat": 40.7778907, "lon": -73.9523283}, {"type": "node", "id": 2724083623, "lat": 40.777923, "lon": -73.9523044}, {"type": "node", "id": 2724083624, "lat": 40.777923, "lon": -73.9529867}, {"type": "node", "id": 2724083626, "lat": 40.7779314, "lon": -73.9523239}, {"type": "node", "id": 2724083637, "lat": 40.7779501, "lon": -73.95231}, {"type": "node", "id": 2724083673, "lat": 40.7780436, "lon": -73.9525469}, {"type": "node", "id": 2724083675, "lat": 40.7780497, "lon": -73.9525424}, {"type": "node", "id": 2724083677, "lat": 40.7780579, "lon": -73.9525803}, {"type": "node", "id": 2724083683, "lat": 40.778064, "lon": -73.9525758}, {"type": "node", "id": 2724083688, "lat": 40.778077, "lon": -73.952625}, {"type": "node", "id": 2724083690, "lat": 40.7780831, "lon": -73.9526204}, {"type": "node", "id": 2724083695, "lat": 40.7780904, "lon": -73.9526561}, {"type": "node", "id": 2724083700, "lat": 40.7780965, "lon": -73.9526516}, {"type": "node", "id": 2724083714, "lat": 40.7781636, "lon": -73.9528083}, {"type": "node", "id": 2745018040, "lat": 40.7760315, "lon": -73.982458, "tags": {"addr:city": "New York", "addr:housenumber": "2015", "addr:postcode": "10023", "addr:state": "NY", "addr:street": "Broadway", "brand": "Morton Williams", "brand:wikidata": "Q28227933", "name": "Morton Williams", "opening_hours": "Mo-Su 07:00-23:00", "phone": "+1-917-388-2280", "shop": "supermarket", "website": "https://www.mortonwilliams.com"}}, {"type": "node", "id": 2745620978, "lat": 40.7848204, "lon": -73.9795674}, {"type": "node", "id": 2745620981, "lat": 40.7848815, "lon": -73.9795227}, {"type": "node", "id": 2745620984, "lat": 40.7849233, "lon": -73.979811}, {"type": "node", "id": 2745620989, "lat": 40.7849844, "lon": -73.9797663}, {"type": "node", "id": 2761578462, "lat": 40.7978757, "lon": -73.9633952, "tags": {"addr:city": "New York", "addr:housenumber": "81", "addr:postcode": "10025", "addr:state": "NY", "addr:street": "West 104th Street", "name": "Columbus Food Market", "phone": "+1-212 864-3770", "shop": "supermarket"}}, {"type": "node", "id": 2761716799, "lat": 40.7873404, "lon": -73.9443145}, {"type": "node", "id": 2761716826, "lat": 40.7874404, "lon": -73.9445519}, {"type": "node", "id": 2761716851, "lat": 40.7875156, "lon": -73.9441867}, {"type": "node", "id": 2761716871, "lat": 40.7876157, "lon": -73.9444241}, {"type": "node", "id": 2761809236, "lat": 40.7906288, "lon": -73.9451351, "tags": {"addr:city": "New York", "addr:housenumber": "1891", "addr:postcode": "10029", "addr:state": "NY", "addr:street": "3rd Avenue", "check_date": "2023-12-16", "delivery": "yes", "facebook": "finefarebarrio", "level": "0", "name": "Fine Fare", "opening_hours": "Mo-Sa 07:00-23:00; Su 08:00-22:00", "payment:american_express": "yes", "payment:cash": "yes", "payment:ebt": "yes", "payment:mastercard": "yes", "payment:visa": "yes", "phone": "+1 212-987-8059", "shop": "supermarket", "website": "http://www.finefaresupermarkets.com", "wheelchair": "yes"}}, {"type": "node", "id": 2762513256, "lat": 40.8037936, "lon": -73.9543191, "tags": {"addr:housenumber": "238", "addr:postcode": "10026", "addr:street": "West 116th Street", "brand": "C-Town Supermarkets", "brand:wikidata": "Q5005929", "delivery": "yes", "level": "0", "name": "C-Town", "opening_hours": "07:00-21:00", "phone": "+1-212-222-1379", "shop": "supermarket", "website": "https://locations.ctownsupermarkets.com/ctown-supermarkets-401207a1fb78"}}, {"type": "node", "id": 2765266922, "lat": 40.8042614, "lon": -73.9662829, "tags": {"addr:city": "New York", "addr:housenumber": "2840", "addr:postcode": "10025", "addr:state": "NY", "addr:street": "Broadway", "name": "Westside Market", "opening_hours": "24/7", "payment:cash": "yes", "payment:credit_cards": "yes", "payment:debit_cards": "yes", "phone": "+1-212-222-3367", "shop": "supermarket", "website": "https://www.wmarketnyc.com/", "wheelchair": "yes"}}, {"type": "node", "id": 2765492499, "lat": 40.7980485, "lon": -73.9332986}, {"type": "node", "id": 2765492505, "lat": 40.7980625, "lon": -73.9333317}, {"type": "node", "id": 2765492587, "lat": 40.7981739, "lon": -73.9332067}, {"type": "node", "id": 2765492597, "lat": 40.798182, "lon": -73.9336141}, {"type": "node", "id": 2765492666, "lat": 40.7982456, "lon": -73.9333761}, {"type": "node", "id": 2765492675, "lat": 40.7982594, "lon": -73.9334089}, {"type": "node", "id": 2765492700, "lat": 40.7982776, "lon": -73.9334518}, {"type": "node", "id": 2765492720, "lat": 40.7983074, "lon": -73.9335222}, {"type": "node", "id": 2767532086, "lat": 40.8145871, "lon": -73.9481498}, {"type": "node", "id": 2767532135, "lat": 40.8146748, "lon": -73.9483567}, {"type": "node", "id": 2767532160, "lat": 40.8147166, "lon": -73.9480546}, {"type": "node", "id": 2767532162, "lat": 40.8147198, "lon": -73.9484628}, {"type": "node", "id": 2767532199, "lat": 40.814804, "lon": -73.9482607}, {"type": "node", "id": 2767532232, "lat": 40.8148493, "lon": -73.9483676}, {"type": "node", "id": 2768086327, "lat": 40.8199553, "lon": -73.9406341, "tags": {"addr:housenumber": "2444", "addr:postcode": "10030", "addr:street": "Adam Clayton Powell Jr. Boulevard", "name": "Associated", "shop": "supermarket"}}, {"type": "node", "id": 2768125910, "lat": 40.8257355, "lon": -73.9428415}, {"type": "node", "id": 2768125912, "lat": 40.8257551, "lon": -73.9428883}, {"type": "node", "id": 2768125946, "lat": 40.8258603, "lon": -73.9427506}, {"type": "node", "id": 2768125950, "lat": 40.8258877, "lon": -73.9432037}, {"type": "node", "id": 2768125953, "lat": 40.8259254, "lon": -73.9429054}, {"type": "node", "id": 2768125994, "lat": 40.8260064, "lon": -73.9430982}, {"type": "node", "id": 2768126001, "lat": 40.8260126, "lon": -73.9431128}, {"type": "node", "id": 2768245943, "lat": 40.8119643, "lon": -73.9548132}, {"type": "node", "id": 2768245951, "lat": 40.8119872, "lon": -73.9547684}, {"type": "node", "id": 2768245954, "lat": 40.8119994, "lon": -73.9547673}, {"type": "node", "id": 2768245956, "lat": 40.8120107, "lon": -73.9547221}, {"type": "node", "id": 2768245960, "lat": 40.8120139, "lon": -73.9547389}, {"type": "node", "id": 2768245964, "lat": 40.8120191, "lon": -73.9547058}, {"type": "node", "id": 2768245968, "lat": 40.8120233, "lon": -73.9548653}, {"type": "node", "id": 2768245995, "lat": 40.8120329, "lon": -73.9547016}, {"type": "node", "id": 2768245998, "lat": 40.8120429, "lon": -73.9548266}, {"type": "node", "id": 2768246001, "lat": 40.8120436, "lon": -73.9548057}, {"type": "node", "id": 2768246004, "lat": 40.8120461, "lon": -73.9548204}, {"type": "node", "id": 2768246010, "lat": 40.8120566, "lon": -73.9547801}, {"type": "node", "id": 2768246023, "lat": 40.8120692, "lon": -73.9547751}, {"type": "node", "id": 2768246032, "lat": 40.8120782, "lon": -73.9547417}, {"type": "node", "id": 2768246035, "lat": 40.8120784, "lon": -73.954757}, {"type": "node", "id": 2768246050, "lat": 40.8121003, "lon": -73.9545694}, {"type": "node", "id": 2768246078, "lat": 40.8121456, "lon": -73.9546094}, {"type": "node", "id": 2797469919, "lat": 40.8484141, "lon": -73.9327469}, {"type": "node", "id": 2797469938, "lat": 40.8485439, "lon": -73.9330633}, {"type": "node", "id": 2797527517, "lat": 40.8506814, "lon": -73.9379401, "tags": {"addr:housenumber": "758", "addr:postcode": "10033", "addr:street": "West 181st Street", "delivery": "yes", "name": "Smile Deli", "opening_hours": "24/7", "payment:cash": "yes", "payment:credit_cards": "yes", "payment:debit_cards": "yes", "phone": "(212) 923-8924", "shop": "supermarket"}}, {"type": "node", "id": 2797563217, "lat": 40.8505147, "lon": -73.9364169, "tags": {"addr:city": "New York", "addr:housenumber": "717", "addr:postcode": "10033", "addr:state": "NY", "addr:street": "West 181st Street", "name": "Tejada Grocery", "phone": "+1-212-928-8061", "shop": "supermarket"}}, {"type": "node", "id": 2797589496, "lat": 40.8511129, "lon": -73.9385411, "tags": {"addr:city": "New York", "addr:housenumber": "801", "addr:postcode": "10033", "addr:state": "NY", "addr:street": "West 181st Street", "description": "Russian grocery store with a deli, baked goods & imported personal care & specialty products.", "name": "Moscow On The Hudson", "opening_hours": "Mo-Sa 09:00-21:00; Su 09:00-20:00", "payment:cash": "yes", "payment:credit_cards": "yes", "phone": "+1-212-740-7397", "shop": "supermarket", "website": "https://www.moscowonhudson.com/"}}, {"type": "node", "id": 2797604475, "lat": 40.8540162, "lon": -73.9339891, "tags": {"addr:city": "New York", "addr:housenumber": "4365", "addr:postcode": "10033", "addr:state": "NY", "addr:street": "Broadway", "brand": "Key Food", "brand:wikidata": "Q6398037", "name": "Key Food", "opening_hours": "Fr-Tu 08:00-21:00, We-Th 08:00-22:00", "phone": "+1 212-740-3695", "ref": "790", "shop": "supermarket"}}, {"type": "node", "id": 2797803011, "lat": 40.8705273, "lon": -73.9152502}, {"type": "node", "id": 2797803025, "lat": 40.8706102, "lon": -73.9153597}, {"type": "node", "id": 2797803026, "lat": 40.8706208, "lon": -73.9153738}, {"type": "node", "id": 2797803027, "lat": 40.8706255, "lon": -73.9151212}, {"type": "node", "id": 2797803028, "lat": 40.8706286, "lon": -73.9151254}, {"type": "node", "id": 2797803034, "lat": 40.8707177, "lon": -73.9155019}, {"type": "node", "id": 2797803036, "lat": 40.8707205, "lon": -73.9155056}, {"type": "node", "id": 2797803046, "lat": 40.8708187, "lon": -73.9153766}, {"type": "node", "id": 2799049872, "lat": 40.8120059, "lon": -73.9269541}, {"type": "node", "id": 2799049873, "lat": 40.8120166, "lon": -73.9267053}, {"type": "node", "id": 2799049874, "lat": 40.8120718, "lon": -73.9270448}, {"type": "node", "id": 2799049877, "lat": 40.8118881, "lon": -73.9267944}, {"type": "node", "id": 2799049881, "lat": 40.8121787, "lon": -73.9269705}, {"type": "node", "id": 2799050201, "lat": 40.8125775, "lon": -73.9266933}, {"type": "node", "id": 2799050212, "lat": 40.8126904, "lon": -73.9262281}, {"type": "node", "id": 2799050220, "lat": 40.8128278, "lon": -73.9265141}, {"type": "node", "id": 2799551521, "lat": 40.8253711, "lon": -73.919787, "tags": {"addr:city": "Bronx", "addr:housenumber": "238", "addr:postcode": "10451", "addr:state": "NY", "addr:street": "East 161st Street", "branch": "Bronx - East 161st Street", "name": "Food Bazaar", "opening_hours": "Mo-Su 07:00-22:30", "phone": "+1-718-538-3720", "shop": "supermarket", "website": "https://www.foodbazaar.com/"}}, {"type": "node", "id": 2799684000, "lat": 40.8299014, "lon": -73.9176552}, {"type": "node", "id": 2799684202, "lat": 40.8299277, "lon": -73.9177114}, {"type": "node", "id": 2799684207, "lat": 40.8300555, "lon": -73.9175644}, {"type": "node", "id": 2799684216, "lat": 40.8301078, "lon": -73.9179266}, {"type": "node", "id": 2799684223, "lat": 40.8301556, "lon": -73.9175054}, {"type": "node", "id": 2799684227, "lat": 40.83018, "lon": -73.9174911}, {"type": "node", "id": 2799684244, "lat": 40.8302913, "lon": -73.9178185}, {"type": "node", "id": 2806616188, "lat": 40.8369229, "lon": -73.9102285}, {"type": "node", "id": 2806616238, "lat": 40.8370314, "lon": -73.9105524}, {"type": "node", "id": 2806616249, "lat": 40.8370588, "lon": -73.9105365}, {"type": "node", "id": 2806616266, "lat": 40.8371182, "lon": -73.910502}, {"type": "node", "id": 2806616274, "lat": 40.8371837, "lon": -73.9100771}, {"type": "node", "id": 2806616276, "lat": 40.8372048, "lon": -73.9104517}, {"type": "node", "id": 2806616286, "lat": 40.8373049, "lon": -73.9103936}, {"type": "node", "id": 2826581769, "lat": 40.7155895, "lon": -73.9871819, "tags": {"addr:city": "New York", "addr:housenumber": "175", "addr:postcode": "10002", "addr:state": "NY", "addr:street": "Clinton Street", "name": "Fine Fare Supermarket", "opening_hours": "Mo-Su 07:00-22:00", "shop": "supermarket"}}, {"type": "node", "id": 2827035680, "lat": 40.7341009, "lon": -73.9801603, "tags": {"addr:housenumber": "320", "addr:postcode": "10009", "addr:street": "1st Avenue", "check_date": "2024-09-22", "name": "Gracefully", "opening_hours": "Mo-Fr 06:00-21:00; Sa-Su 07:00-21:00", "shop": "supermarket"}}, {"type": "node", "id": 2847034455, "lat": 40.7713493, "lon": -73.9250626, "tags": {"addr:city": "Astoria", "addr:housenumber": "21-30", "addr:postcode": "11102", "addr:state": "NY", "addr:street": "Newtown Avenue", "atm": "yes", "brand": "C-Town Supermarkets", "brand:wikidata": "Q5005929", "delivery": "yes", "name": "C-Town", "opening_hours": "7:30-23:00", "payment:discover_card": "yes", "phone": "+1-718-278-4444", "shop": "supermarket", "website": "http://location.ctownsupermarkets.com/ny/astoria/41-131/"}}, {"type": "node", "id": 2977408619, "lat": 40.7709044, "lon": -73.9566042, "tags": {"addr:housenumber": "1446", "addr:postcode": "10021", "addr:street": "2nd Avenue", "check_date": "2024-09-01", "check_date:opening_hours": "2023-10-05", "delivery": "yes", "fax": "+1 646-352-4607", "level": "0", "name": "Gristedes", "opening_hours": "07:00-22:00", "phone": "+1 212-535-4925", "ref": "059", "shop": "supermarket", "website": "https://www.gristedessupermarkets.com"}}, {"type": "node", "id": 2977408620, "lat": 40.7733511, "lon": -73.9577457, "tags": {"addr:housenumber": "1365", "addr:postcode": "10075", "addr:street": "3rd Avenue", "fax": "+1 212-535-1866", "name": "Gristedes", "opening_hours": "Mo-Sa 06:00-24:00; Su 07:00-23:00", "opening_hours:covid19": "07:00-22:00", "phone": "+1 212-535-8449", "ref": "413", "shop": "supermarket", "website": "https://www.gristedessupermarkets.com", "wheelchair": "yes"}}, {"type": "node", "id": 3041500233, "lat": 40.7343134, "lon": -73.9988298, "tags": {"name": "Citarella", "opening_hours": "Mo-Su 08:00-20:00", "shop": "supermarket"}}, {"type": "node", "id": 3094612698, "lat": 40.7087325, "lon": -74.0046656, "tags": {"addr:city": "New York", "addr:housenumber": "55", "addr:postcode": "10038", "addr:state": "NY", "addr:street": "Fulton Street", "brand": "Key Food", "name": "55 Fulton Market", "not:brand:wikidata": "Q6398037", "opening_hours": "Su-Th 06:00-00:00; Fr-Sa 06:00-01:00", "operator": "Key Food", "phone": "+1-646-581-9261", "shop": "supermarket", "wheelchair": "yes"}}, {"type": "node", "id": 3142915341, "lat": 40.7718642, "lon": -73.950313, "tags": {"brand": "D'Agostino", "brand:wikidata": "Q20656844", "name": "D'Agostino", "shop": "supermarket"}}, {"type": "node", "id": 3236324377, "lat": 40.7430028, "lon": -74.0057335, "tags": {"addr:city": "New York", "addr:country": "US", "addr:housenumber": "431", "addr:postcode": "10011", "addr:state": "NY", "addr:street": "West 16th Street", "check_date": "2024-04-28", "delivery": "yes", "name": "Western Beef", "opening_hours": "Mo-Th 07:00-22:00; Fr,Sa 06:30-22:00; Su 06:30-21:00", "payment:american_express": "yes", "payment:discover_card": "yes", "payment:mastercard": "yes", "payment:visa": "yes", "phone": "+1 212-924-1401", "shop": "supermarket", "website": "http://www.westernbeef.com/western-beef---16-st.html", "wheelchair": "yes"}}, {"type": "node", "id": 3248774693, "lat": 40.7784303, "lon": -73.9778128, "tags": {"addr:city": "New York", "addr:housenumber": "289", "addr:postcode": "10023", "addr:state": "NY", "addr:street": "Columbus Avenue", "name": "Pioneer Supermarket", "shop": "supermarket"}}, {"type": "node", "id": 3356089623, "lat": 40.7453997, "lon": -73.984887, "tags": {"name": "Mrs. K's", "operator": "Market and restaurant", "shop": "supermarket"}}, {"type": "node", "id": 3421054403, "lat": 40.7304151, "lon": -73.9910411, "tags": {"addr:city": "New York", "addr:housenumber": "770", "addr:postcode": "10003", "addr:state": "NY", "addr:street": "Broadway", "branch": "Astor Place", "brand": "Wegmans", "brand:wikidata": "Q11288478", "name": "Wegmans", "opening_hours": "Mo-Su 07:00-22:00", "phone": "+1 646-225-9300", "ref": "156", "shop": "supermarket", "website": "https://www.wegmans.com/stores/astor-place-ny/"}}, {"type": "node", "id": 3495902735, "lat": 40.7518577, "lon": -73.9714496, "tags": {"addr:city": "New York", "addr:housenumber": "240", "addr:postcode": "10017", "addr:street": "East 45th Street", "delivery": "yes", "email": "customers@eastamish.com", "fax": "+1 212-370-1827", "name": "Amish Market East", "opening_hours": "Mo-Fr 07:00-21:30; Sa,Su 08:00-21:30", "organic": "yes", "phone": "+1 212-370-1761", "shop": "supermarket", "website": "http://www.eastamish.com"}}, {"type": "node", "id": 3497534429, "lat": 40.7330833, "lon": -73.9937129, "tags": {"addr:city": "New York", "addr:housenumber": "64", "addr:postcode": "10003", "addr:state": "NY", "addr:street": "University Place", "name": "Agata & Valentina", "opening_hours": "Mo-Sa 08:00-21:00; Su 09:00-21:00", "shop": "supermarket"}}, {"type": "node", "id": 3502137815, "lat": 40.7318147, "lon": -73.9943928, "tags": {"addr:city": "New York", "addr:housenumber": "25", "addr:postcode": "10003", "addr:state": "NY", "addr:street": "University Place", "drink:beer": "yes", "fax": "+1-212-353-1332", "fixme": "website shows opening time 7 every day including Sunday, survey to check", "name": "Gristedes", "opening_hours": "Mo-Sa 07:00-22:00; Su 08:00-22:00", "phone": "+1-212-353-1330", "shop": "supermarket", "website": "https://www.gristedessupermarkets.com"}}, {"type": "node", "id": 3569401287, "lat": 40.7646858, "lon": -73.9469464, "tags": {"brand": "Foodtown", "brand:wikidata": "Q5465575", "name": "Foodtown", "opening_hours": "Mo-Sa 07:00-24:00; Su 07:00-23:00", "shop": "supermarket"}}, {"type": "node", "id": 3569401895, "lat": 40.7590707, "lon": -73.9354641, "tags": {"addr:housenumber": "22-20", "addr:postcode": "11106", "addr:street": "36th Avenue", "delivery": "yes", "name": "Trade Fair", "opening_hours": "24/7", "phone": "+1 718-472-4788", "shop": "supermarket"}}, {"type": "node", "id": 3574313393, "lat": 40.7598592, "lon": -73.9943408, "tags": {"addr:city": "New York", "addr:country": "US", "addr:housenumber": "452", "addr:postcode": "10036", "addr:state": "NY", "addr:street": "West 43rd Street", "brand": "The Food Emporium", "name": "The Food Emporium", "not:brand:wikidata": "Q6398037", "opening_hours": "Mo-Su 07:00-11:00", "operator": "Key Food", "phone": "+1 212-714-1414", "shop": "supermarket", "website": "https://www.shopfoodemporium.com"}}, {"type": "node", "id": 3575305296, "lat": 40.7109861, "lon": -73.968269, "tags": {"addr:housenumber": "11", "addr:street": "Broadway", "name": "City Acres Market", "opening_hours": "Mo-Su 07:00-23:00", "phone": "0013479873740", "shop": "supermarket", "website": "https://cityacresmarket.com/", "wheelchair": "yes"}}, {"type": "node", "id": 3618226654, "lat": 40.7485791, "lon": -73.9728213, "tags": {"name": "Gristedes", "opening_hours": "Mo-Su 07:00-22:00", "shop": "supermarket", "wheelchair": "yes"}}, {"type": "node", "id": 3620495291, "lat": 40.7484684, "lon": -73.9763928, "tags": {"brand": "D'Agostino", "brand:wikidata": "Q20656844", "name": "D'Agostino", "shop": "supermarket"}}, {"type": "node", "id": 3661038146, "lat": 40.8060888, "lon": -73.9418784, "tags": {"name": "Wild Olive Market", "shop": "supermarket"}}, {"type": "node", "id": 3775446805, "lat": 40.7423053, "lon": -73.977245, "tags": {"addr:housenumber": "550", "addr:postcode": "10016", "addr:street": "2nd Avenue", "branch": "Kips Bay", "name": "Fairway Market", "opening_hours": "Mo-Su 07:00-22:00", "phone": "+1 718-569-4522", "shop": "supermarket", "website": "https://www.fairwaymarket.com"}}, {"type": "node", "id": 3819620506, "lat": 40.7231548, "lon": -73.9826986, "tags": {"name": "4th Street Deli", "opening_hours:signed": "no", "shop": "supermarket"}}, {"type": "node", "id": 3859051755, "lat": 40.7418779, "lon": -73.9938343, "tags": {"addr:city": "New York", "addr:housenumber": "675", "addr:postcode": "10010", "addr:state": "NY", "addr:street": "6th Avenue", "branch": "Chelsea", "brand": "Trader Joe's", "brand:wikidata": "Q688825", "drink:beer": "yes", "name": "Trader Joe's", "opening_hours": "Mo-Su 08:00-22:00", "phone": "+1 212-255-2106", "ref": "543", "shop": "supermarket", "website": "https://locations.traderjoes.com/ny/new-york/543/"}}, {"type": "node", "id": 3865170364, "lat": 40.7478847, "lon": -73.9472019, "tags": {"addr:city": "Long Island City", "addr:housenumber": "44-65", "addr:postcode": "11101-5112", "addr:state": "NY", "addr:street": "21st Street", "brand": "Key Food", "brand:wikidata": "Q6398037", "name": "Key Food", "opening_hours": "Mo-Su 07:00-21:00", "phone": "+1 718-361-7471", "ref": "1682", "shop": "supermarket", "website": "https://www.keyfood.com/store/store/1682"}}, {"type": "node", "id": 3913515756, "lat": 40.7394797, "lon": -73.9871968, "tags": {"addr:city": "New York", "addr:housenumber": "280", "addr:postcode": "10010", "addr:state": "NY", "addr:street": "Park Avenue South", "brand": "Morton Williams", "brand:wikidata": "Q28227933", "name": "Morton Williams", "opening_hours": "24/7", "phone": "+1-212-982-7326", "shop": "supermarket", "website": "https://www.mortonwilliams.com/"}}, {"type": "node", "id": 3938658657, "lat": 40.72665, "lon": -73.9907961, "tags": {"addr:city": "New York", "addr:housenumber": "58", "addr:postcode": "10003", "addr:state": "NY", "addr:street": "East 4th Street", "name": "4th Street Food Co-Op", "note": "Organic Food; Fair Trade", "opening_hours": "Mo-Th 10:00-21:30; Fr 10:00-20:30; Sa 11:00-18:30; Su 12:00-20:30; Jul 4, May 1, Dec 25, Dec 31, Jan 01 off", "operator": "4th Street Food Co-op", "shop": "supermarket", "source": "http://www.4thstreetfoodcoop.org", "website": "https://www.4thstreetfoodcoop.org/", "wheelchair": "limited", "wikidata": "Q4639461", "wikipedia": "en:4th Street Food Co-op"}}, {"type": "node", "id": 3991220674, "lat": 40.7155467, "lon": -73.9979578, "tags": {"addr:city": "New York", "addr:housenumber": "64A", "addr:postcode": "10013", "addr:state": "NY", "addr:street": "Bayard Street", "name": "Lucky Star Bamboo Depot", "name:zh": "\u7687\u51a0\u516c\u53f8", "not:brand:wikidata": "Q6698032", "shop": "supermarket"}}, {"type": "node", "id": 4108495532, "lat": 40.7109067, "lon": -74.0002433, "tags": {"addr:city": "New York", "addr:housenumber": "5", "addr:postcode": "10038", "addr:state": "NY", "addr:street": "Saint James Place", "brand:wikidata": "Q7642360", "name": "Superfresh", "opening_hours": "Mo-Fr 07:00-20:45; Sa 08:00-20:45; Su 09:00-18:45", "shop": "supermarket"}}, {"type": "node", "id": 4111168787, "lat": 40.8212432, "lon": -73.9387526, "tags": {"name": "Fine Fare Supermarket", "opening_hours": "Mo-Sa 07:00-00:00; Su 07:00-22:00", "shop": "supermarket"}}, {"type": "node", "id": 4113143111, "lat": 40.7653907, "lon": -73.9305232, "tags": {"addr:city": "Astoria", "addr:housenumber": "2115", "addr:postcode": "11106", "addr:state": "NY", "addr:street": "Broadway", "name": "City Fresh Market", "opening_hours": "24/7", "shop": "supermarket", "wheelchair": "yes"}}, {"type": "node", "id": 4178936435, "lat": 40.7433981, "lon": -73.9582566, "tags": {"addr:housenumber": "50-01", "addr:postcode": "11101", "addr:street": "2nd Street", "name": "Urban market", "opening_hours": "Mo-Sa 07:00-22:00; Su 06:30-22:00", "shop": "supermarket"}}, {"type": "node", "id": 4316095903, "lat": 40.7428294, "lon": -73.9821376, "tags": {"addr:housenumber": "123", "addr:postcode": "10016", "addr:street": "Lexington Avenue", "delivery": "yes", "email": "info@kalustyans.com", "fax": "+1 212-683-8458", "name": "Kalustyan's", "opening_hours": "Mo-Sa 10:00-20:00; Su 11:00-19:00", "phone": "+1 212-685-3451", "shop": "supermarket", "website": "http://www.kalustyans.com", "wikidata": "Q23091325", "wikipedia": "en:Kalustyan's"}}, {"type": "node", "id": 4351548458, "lat": 40.743901, "lon": -73.9791696, "tags": {"addr:city": "New York", "addr:housenumber": "200", "addr:postcode": "10016", "addr:state": "NY", "addr:street": "East 32nd Street", "branch": "Murray Hill", "brand": "Trader Joe's", "brand:wikidata": "Q688825", "drink:beer": "yes", "level": "0", "name": "Trader Joe's", "opening_hours": "Mo-Su 08:00-21:00", "phone": "+1 212-889-3279", "ref": "544", "shop": "supermarket", "website": "https://locations.traderjoes.com/ny/new-york/544/", "wheelchair": "yes"}}, {"type": "node", "id": 4363763590, "lat": 40.8230831, "lon": -73.9375251, "tags": {"addr:housenumber": "2541", "addr:postcode": "10039", "addr:street": "Adam Clayton Powell Jr. Boulevard", "name": "The Food Emporium", "name:pl": "Pioneer", "shop": "supermarket"}}, {"type": "node", "id": 4397706291, "lat": 40.7100561, "lon": -74.0119204, "tags": {"addr:housenumber": "101", "addr:postcode": "10007", "addr:street": "Liberty Street", "brand": "Eataly", "brand:wikidata": "Q3046645", "level": "3", "name": "Eataly", "name:en": "Eataly", "opening_hours": "Mo-Su 07:00-23:00", "phone": "2128972895", "shop": "supermarket", "website": "http://eataly.com/", "wheelchair": "yes"}}, {"type": "node", "id": 4407036591, "lat": 40.7246361, "lon": -73.9786539, "tags": {"addr:housenumber": "123", "addr:postcode": "10009", "addr:street": "Avenue C", "name": "Associated Supermarket", "name:en": "Associated Supermarket", "opening_hours": "Mo-Su 08:00-22:00", "phone": "+1-212-260-3159", "shop": "supermarket", "website": "http://www.shopassociated.con"}}, {"type": "node", "id": 4407040193, "lat": 40.7940399, "lon": -73.9494404, "tags": {"addr:housenumber": "1588", "addr:postcode": "10029", "addr:street": "Madison Avenue", "delivery": "yes", "name": "Associated Fresh Supermarket", "phone": "+1 646-449-8780", "shop": "supermarket", "website": "https://www.shopassociated.com/", "wheelchair": "yes"}}, {"type": "node", "id": 4412152258, "lat": 40.7506484, "lon": -74.0022692, "tags": {"name": "Hudson Market", "shop": "supermarket", "wheelchair": "yes"}}, {"type": "node", "id": 4483244489, "lat": 40.7123705, "lon": -74.01569, "tags": {"addr:postcode": "10281", "name": "Le District", "opening_hours": "Mo-Sa 08:30-23:00; Su 08:30-22:00", "phone": "+12129818588", "shop": "supermarket", "website": "https://www.ledistrict.com/", "wheelchair": "yes"}}, {"type": "node", "id": 4483244589, "lat": 40.7129846, "lon": -74.0150822, "tags": {"name": "Brookfield Place", "name:en": "Brookfield Place", "shop": "supermarket", "wheelchair": "yes"}}, {"type": "node", "id": 4618507904, "lat": 40.7796967, "lon": -73.9529487, "tags": {"addr:city": "New York", "addr:housenumber": "1551", "addr:postcode": "10128", "addr:state": "NY", "addr:street": "3rd Avenue", "branch": "Upper East Side", "brand": "Whole Foods Market", "brand:wikidata": "Q1809448", "check_date": "2024-10-03", "check_date:opening_hours": "2024-10-03", "delivery": "yes", "drink:beer": "yes", "internet_access": "wlan", "internet_access:fee": "no", "name": "Whole Foods Market", "opening_hours": "Mo-Su 07:00-22:00", "organic": "yes", "payment:american_express": "yes", "payment:cash": "yes", "payment:discover_card": "yes", "payment:mastercard": "yes", "payment:unionpay": "yes", "payment:visa": "yes", "phone": "+1 646-891-3888", "ref": "uppereastside", "shop": "supermarket", "website": "https://www.wholefoodsmarket.com/stores/uppereastside", "wheelchair": "yes"}}, {"type": "node", "id": 4642517458, "lat": 40.8195859, "lon": -73.9130582, "tags": {"addr:city": "Bronx", "addr:housenumber": "3006", "addr:postcode": "10455-1201", "addr:state": "NY", "addr:street": "3rd Avenue", "brand": "ALDI", "brand:wikidata": "Q41171672", "name": "ALDI", "name:fa": "\u0622\u0644\u062f\u06cc", "opening_hours": "Mo-Su 10:00-21:00", "phone": "+1 833-473-7008", "shop": "supermarket", "website": "https://stores.aldi.us/ny/bronx/3006-3rd-avenue"}}, {"type": "node", "id": 4665840837, "lat": 40.7546279, "lon": -73.9845292, "tags": {"addr:city": "New York", "addr:housenumber": "1095", "addr:postcode": "10036", "addr:state": "NY", "addr:street": "Avenue of the Americas", "air_conditioning": "yes", "branch": "Bryant Park", "brand": "Whole Foods Market", "brand:wikidata": "Q1809448", "check_date": "2024-10-03", "check_date:opening_hours": "2024-10-03", "name": "Whole Foods Market", "opening_hours": "Mo-Su 08:00-22:00", "operator": "Whole Foods Market", "organic": "yes", "payment:american_express": "yes", "payment:cash": "yes", "payment:contactless": "yes", "payment:discover_card": "yes", "payment:mastercard": "yes", "payment:visa": "yes", "phone": "+1 917-728-5700", "ref": "bryantpark", "shop": "supermarket", "website": "https://www.wholefoodsmarket.com/stores/bryantpark", "wheelchair": "yes"}}, {"type": "node", "id": 4687199389, "lat": 40.7522636, "lon": -73.9921578, "tags": {"brand": "Target", "brand:wikidata": "Q1046951", "name": "Target", "name:en": "Target", "name:fa": "\u062a\u0627\u0631\u06af\u062a", "shop": "supermarket"}}, {"type": "node", "id": 4707297289, "lat": 40.8094157, "lon": -73.9589337, "tags": {"addr:housenumber": "1225", "addr:postcode": "10027", "addr:street": "Amsterdam Avenue", "name": "Apple Tree Supermarket", "opening_hours": "24/7", "opening_hours:covid19": "Mo-Su 06:00-22:00", "phone": "+1-212-865-8840", "shop": "supermarket"}}, {"type": "node", "id": 4746747125, "lat": 40.762941, "lon": -73.9763126, "tags": {"addr:housenumber": "36", "addr:postcode": "10019", "addr:street": "West 56th Street", "air_conditioning": "yes", "branch": "West 56th", "check_date": "2025-03-10", "name": "Dainobu", "opening_hours": "09:00-22:00", "organic": "yes", "payment:cash": "yes", "payment:contactless": "yes", "payment:credit_cards": "yes", "payment:debit_cards": "yes", "phone": "+1-212-707-8525", "shop": "supermarket", "website": "https://dainobunyc.com/pages/store-location", "wheelchair": "yes"}}, {"type": "node", "id": 4746777521, "lat": 40.742213, "lon": -73.9895802, "tags": {"addr:city": "New York", "addr:housenumber": "200", "addr:postcode": "10010", "addr:state": "NY", "addr:street": "5th Avenue", "amenity": "cafe", "branch": "Flatiron", "brand": "Eataly", "brand:wikidata": "Q3046645", "check_date": "2023-03-19", "cocktails": "yes", "craft": "caterer", "cuisine": "italian", "diet:vegetarian": "yes", "drink:beer": "yes", "drink:coffee": "yes", "drink:tea": "yes", "internet_access": "wlan", "internet_access:fee": "no", "name": "Eataly", "opening_hours": "Mo-Su 09:00-23:00", "organic": "yes", "outdoor_seating": "yes", "payment:debit_cards": "yes", "phone": "+1-212-229-2560", "reservation": "yes", "shop": "supermarket", "takeaway": "yes", "toilets": "yes", "toilets:access": "public", "toilets:wheelchair": "yes", "website": "https://www.eataly.com/us_en/stores/nyc-flatiron//", "wheelchair": "yes"}}, {"type": "node", "id": 4747736325, "lat": 40.8466157, "lon": -73.9359507, "tags": {"brand": "Bravo", "brand:wikidata": "Q16985159", "name": "Bravo", "name:en": "Bravo", "shop": "supermarket"}}, {"type": "node", "id": 4760421657, "lat": 40.7466075, "lon": -73.9777324, "tags": {"addr:housenumber": "528", "addr:postcode": "10016", "addr:street": "3rd Avenue", "brand": "D'Agostino", "brand:wikidata": "Q20656844", "name": "D'Agostino", "opening_hours": "07:00-22:00", "shop": "supermarket", "website": "https://www.dagnyc.com/stores/dagostino-at-35th-street"}}, {"type": "node", "id": 4767635214, "lat": 40.7437208, "lon": -73.9510083, "tags": {"name": "Natural Frontier Market", "shop": "supermarket"}}, {"type": "node", "id": 4768145262, "lat": 40.7444616, "lon": -73.9533362, "tags": {"name": "Yee's Vernon Market", "shop": "supermarket"}}, {"type": "node", "id": 4810099622, "lat": 40.7632547, "lon": -73.9621838, "tags": {"addr:housenumber": "1208", "addr:street": "2nd Avenue", "branch": "East Side - Uptown", "check_date": "2025-01-30", "email": "store1@thehealthnutsny.com", "level": "0", "name": "Health Nuts Store", "name:en": "Health Nuts Store", "opening_hours": "Mo-Fr 08:00-21:00; Sa, Su 09:00-20:00", "shop": "supermarket", "website": "https://www.manhattanhealthfoodstore.com/", "wheelchair": "yes"}}, {"type": "node", "id": 4884280321, "lat": 40.7643891, "lon": -73.9647628, "tags": {"addr:housenumber": "1066", "addr:street": "3rd Avenue", "check_date": "2025-01-30", "name": "Morton Williams", "name:en": "Morton Williams", "opening_hours": "Mo-Su 07:00-24:00", "phone": "+1 212-935-9551", "shop": "supermarket"}}, {"type": "node", "id": 4928962213, "lat": 40.8266906, "lon": -73.9499492, "tags": {"addr:city": "New York", "addr:housenumber": "3550", "addr:postcode": "10031", "addr:state": "NY", "addr:street": "Broadway", "brand": "Key Food", "brand:wikidata": "Q6398037", "name": "Key Food", "opening_hours": "Mo-Sa 08:00-21:00; Su 08:00-19:00", "phone": "+1 212-926-6756", "ref": "1736", "shop": "supermarket"}}, {"type": "node", "id": 4995839492, "lat": 40.7488008, "lon": -73.9397272, "tags": {"addr:housenumber": "28-02", "addr:street": "42nd Road", "cuisine": "japanese", "name": "Koufuku Mart", "opening_hours": "Mo-Su 09:00-21:00", "shop": "supermarket"}}, {"type": "node", "id": 5019124323, "lat": 40.727713, "lon": -73.9987374, "tags": {"addr:city": "New York", "addr:housenumber": "130", "addr:postcode": "10012", "addr:state": "NY", "addr:street": "Bleecker Street", "brand": "Morton Williams", "brand:wikidata": "Q28227933", "name": "Morton Williams", "opening_hours": "24/7", "phone": "+1-212-358-9597", "shop": "supermarket", "website": "https://www.mortonwilliams.com/", "wheelchair": "yes"}}, {"type": "node", "id": 5105183344, "lat": 40.7594206, "lon": -73.9660348, "tags": {"addr:city": "New York", "addr:housenumber": "226", "addr:postcode": "10022", "addr:state": "NY", "addr:street": "East 57th Street", "branch": "Midtown East (East 57th Street)", "brand": "Whole Foods Market", "brand:wikidata": "Q1809448", "check_date": "2024-10-03", "check_date:opening_hours": "2024-10-03", "drink:beer": "yes", "fax": "+1 646-697-1220", "name": "Whole Foods Market", "opening_hours": "Mo-Su 07:00-22:00", "organic": "yes", "phone": "+1 646-497-1222", "ref": "midtown-east", "shop": "supermarket", "website": "https://www.wholefoodsmarket.com/stores/midtown-east", "wheelchair": "yes"}}, {"type": "node", "id": 5172261165, "lat": 40.8210149, "lon": -73.9152722, "tags": {"addr:city": "Bronx", "addr:housenumber": "470", "addr:postcode": "10451-4457", "addr:state": "NY", "addr:street": "Melrose Avenue", "brand": "Key Food", "brand:wikidata": "Q6398037", "name": "Key Food", "opening_hours": "Mo-Sa 08:00-21:00; Su 08:00-20:00", "phone": "+1 718-292-5549", "ref": "2198", "shop": "supermarket"}}, {"type": "node", "id": 5213993821, "lat": 40.736327, "lon": -73.9973226, "tags": {"addr:housenumber": "498", "addr:postcode": "10011", "addr:street": "6th Avenue", "air_conditioning": "yes", "branch": "Greenwich Village", "check_date": "2025-03-10", "name": "Dainobu", "opening_hours": "09:00-22:00", "organic": "yes", "payment:cash": "yes", "payment:contactless": "yes", "payment:credit_cards": "yes", "payment:debit_cards": "yes", "phone": "+1-212645-0237", "shop": "supermarket", "website": "https://dainobunyc.com/pages/store-location", "wheelchair": "yes"}}, {"type": "node", "id": 5243570939, "lat": 40.7330516, "lon": -74.0024047, "tags": {"addr:housenumber": "3", "addr:street": "Sheridan Square", "name": "Gristedes", "shop": "supermarket"}}, {"type": "node", "id": 5288048394, "lat": 40.7481843, "lon": -73.942996, "tags": {"addr:city": "Long Island City", "addr:housenumber": "43-18", "addr:postcode": "11101", "addr:state": "NY", "addr:street": "Crescent Street", "demolished:shop": "supermarket", "name": "Foodcellar Market", "opening_hours": "Mo-Fr 07:30-21:00; Sa, Su 08:00-21:00", "phone": "+1 718-606-1888", "shop": "supermarket", "website": "https://www.foodcellarandco.com/market/"}}, {"type": "node", "id": 5317574169, "lat": 40.8077449, "lon": -73.9459069, "tags": {"addr:city": "New York", "addr:housenumber": "100", "addr:postcode": "10027", "addr:state": "NY", "addr:street": "West 125th Street", "branch": "Harlem", "brand": "Whole Foods Market", "brand:wikidata": "Q1809448", "check_date": "2024-10-03", "check_date:opening_hours": "2024-10-03", "delivery": "yes", "drink:beer": "yes", "name": "Whole Foods Market", "opening_hours": "Mo-Su 08:00-21:00", "phone": "+1 212-678-1940", "ref": "harlem", "shop": "supermarket", "website": "https://www.wholefoodsmarket.com/stores/harlem"}}, {"type": "node", "id": 5365066124, "lat": 40.7377761, "lon": -73.9800976, "tags": {"addr:housenumber": "311", "addr:postcode": "10010", "addr:street": "East 23rd Street", "brand": "Morton Williams", "brand:wikidata": "Q28227933", "name": "Morton Williams", "opening_hours": "Mo-Su 07:00-01:00", "phone": "+1-212-689-6192\u202c", "shop": "supermarket", "website": "https://www.mortonwilliams.com"}}, {"type": "node", "id": 5385441221, "lat": 40.7319233, "lon": -74.0063654, "tags": {"name": "Health and Harmony", "shop": "supermarket", "wheelchair": "yes"}}, {"type": "node", "id": 5397297073, "lat": 40.7609679, "lon": -73.9654894, "tags": {"addr:housenumber": "224", "addr:postcode": "10022", "addr:street": "East 59th Street", "branch": "59th Street", "delivery": "yes", "fax": "+1 212-752-4197", "name": "Katagiri Japanese Grocery", "opening_hours": "Mo-Su 10:00-20:00", "payment:american_express": "yes", "payment:discover_card": "yes", "payment:mastercard": "yes", "payment:visa": "yes", "phone": "+1 212-755-3566", "shop": "supermarket", "website": "https://www.katagiri.com/"}}, {"type": "node", "id": 5397303473, "lat": 40.7524184, "lon": -73.9807341, "tags": {"addr:housenumber": "12", "addr:postcode": "10017", "addr:street": "East 41st Street", "air_conditioning": "yes", "branch": "Midtown", "check_date": "2024-07-21", "name": "Sunrise Mart", "opening_hours": "10:00-20:00", "organic": "yes", "payment:cash": "yes", "payment:contactless": "yes", "payment:credit_cards": "yes", "payment:debit_cards": "yes", "phone": "+1-646-380-9280", "shop": "supermarket", "toilets": "yes", "website": "https://sunrisemart.com/", "wheelchair": "yes"}}, {"type": "node", "id": 5397315859, "lat": 40.7167954, "lon": -73.9989061, "tags": {"addr:housenumber": "91", "addr:street": "Mulberry Street", "name": "Tokyo Mart", "phone": "+1-212-962-66222", "shop": "supermarket", "wheelchair": "no"}}, {"type": "node", "id": 5402540708, "lat": 40.7168494, "lon": -73.9983694, "tags": {"addr:housenumber": "200", "addr:postcode": "10013", "addr:street": "Canal Street", "alt_name": "New Kam Man", "cuisine": "chinese", "description": "Asian groceries, housewares, herbs, gifts, snack bar", "name": "Kam Man", "opening_hours": "Mo-Su 10:00-17:50", "phone": "+1-212-571-0330", "shop": "supermarket", "website": "https://www.kamman.com"}}, {"type": "node", "id": 5414599813, "lat": 40.8508655, "lon": -73.9386101, "tags": {"addr:housenumber": "804", "addr:street": "West 181st Street", "delivery": "yes", "name": "Jin's Superette", "opening_hours": "Mo-Su 08:00-00:00", "payment:cash": "yes", "payment:credit_cards": "yes", "phone": "(212) 923-4937", "shop": "supermarket", "toilets": "no"}}, {"type": "node", "id": 5415640407, "lat": 40.7790791, "lon": -73.948009, "tags": {"addr:housenumber": "1721", "addr:postcode": "10128", "addr:street": "1st Avenue", "atm": "yes", "brand": "C-Town Supermarkets", "brand:wikidata": "Q5005929", "delivery": "yes", "drink:beer": "yes", "name": "C-Town", "opening_hours": "Mo-Su 10:00-20:00", "payment:american_express": "yes", "payment:cash": "yes", "payment:debit_cards": "yes", "payment:discover_card": "yes", "payment:ebt": "yes", "payment:mastercard": "yes", "payment:visa": "yes", "phone": "+1 212-360-5849", "shop": "supermarket", "website": "https://locations.ctownsupermarkets.com/ny-new-york-s41_029"}}, {"type": "node", "id": 5415641551, "lat": 40.7579561, "lon": -73.9633889, "tags": {"addr:city": "New York", "addr:housenumber": "1031", "addr:postcode": "10022", "addr:state": "NY", "addr:street": "1st Avenue", "brand": "Morton Williams", "brand:wikidata": "Q28227933", "check_date": "2025-01-30", "name": "Morton Williams", "opening_hours": "Mo-Su 07:00-24:00", "phone": "+1-212-486-0340", "shop": "supermarket", "wheelchair": "yes"}}, {"type": "node", "id": 5432411389, "lat": 40.7555471, "lon": -73.9450908, "tags": {"addr:housenumber": "10-11", "addr:street": "41st Avenue", "name": "Fine Fare", "shop": "supermarket"}}, {"type": "node", "id": 5520364133, "lat": 40.7105762, "lon": -74.0163998, "tags": {"addr:housenumber": "325", "addr:street": "South End Avenue", "name": "Gristedes", "opening_hours": "Mo-Su 06:00-00:00", "shop": "supermarket", "wheelchair": "yes"}}, {"type": "node", "id": 5520369062, "lat": 40.7072236, "lon": -74.0170631, "tags": {"addr:street": "Battery Place", "check_date": "2023-04-06", "name": "Battery Place Market", "shop": "supermarket"}}, {"type": "node", "id": 5520375419, "lat": 40.7084281, "lon": -74.0176079, "tags": {"addr:street": "South End Avenue", "name": "Gristedes", "opening_hours": "Mo-Sa 07:00-22:00; Su 08:00-22:00", "shop": "supermarket", "wheelchair": "yes"}}, {"type": "node", "id": 5543332791, "lat": 40.8383254, "lon": -73.9132098, "tags": {"addr:city": "Bronx", "addr:postcode": "10456", "addr:state": "NY", "addr:street": "East 170th Street", "brand": "Bravo", "brand:wikidata": "Q16985159", "name": "Bravo", "shop": "supermarket"}}, {"type": "node", "id": 5552548843, "lat": 40.7819292, "lon": -73.9490546, "tags": {"addr:city": "New York", "addr:housenumber": "1769", "addr:postcode": "10128", "addr:state": "NY", "addr:street": "2nd Avenue", "atm": "yes", "brand": "Key Food", "brand:wikidata": "Q6398037", "delivery": "yes", "name": "Key Food", "opening_hours": "Mo-Sa 07:00-21:30; Su 07:00-21:00", "operator": "1769 Central Foods, LLC", "phone": "+1 212-860-1903", "ref": "1750", "shop": "supermarket", "website": "https://www.keyfood.com/store/store/1750"}}, {"type": "node", "id": 5599500370, "lat": 40.7908664, "lon": -73.9692378, "tags": {"addr:city": "New York", "addr:housenumber": "670", "addr:postcode": "10025", "addr:state": "NY", "addr:street": "Columbus Avenue", "branch": "Upper West Side", "brand": "Trader Joe's", "brand:wikidata": "Q688825", "diet:kosher": "yes", "drink:beer": "yes", "name": "Trader Joe's", "opening_hours": "Mo-Su 08:00-21:00", "phone": "+1 212-678-1680", "ref": "545", "shop": "supermarket", "website": "https://locations.traderjoes.com/ny/new-york/545/"}}, {"type": "node", "id": 5604018198, "lat": 40.714915, "lon": -73.9826397, "tags": {"addr:city": "New York", "addr:housenumber": "500", "addr:postcode": "10002", "addr:state": "NY", "addr:street": "Grand Street", "description": "Kosher butcher and grocery store.", "name": "East Side Glatt", "opening_hours": "Mo-Th 08:00-20:00", "payment:cash": "yes", "payment:credit_cards": "yes", "phone": "+1-212-254-3335", "shop": "supermarket", "website": "https://www.eastsideglatt.com/", "wheelchair": "yes"}}, {"type": "node", "id": 5649452021, "lat": 40.7910824, "lon": -73.9430148, "tags": {"addr:housenumber": "235", "addr:street": "East 106th Street", "level": "0", "name": "City Fresh Market", "opening_hours": "24/7", "phone": "+1 212-369-8444", "shop": "supermarket", "website": "http://mycityfreshmarket.com/235/"}}, {"type": "node", "id": 5655040288, "lat": 40.7725856, "lon": -73.9527862, "tags": {"addr:housenumber": "1513", "addr:postcode": "10075", "addr:street": "1st Avenue", "check_date": "2024-01-27", "name": "Agatha & Valentina", "shop": "supermarket"}}, {"type": "node", "id": 5706764142, "lat": 40.7779827, "lon": -73.9529424}, {"type": "node", "id": 5730762892, "lat": 40.7561414, "lon": -73.9965044, "tags": {"addr:housenumber": "431", "addr:postcode": "10018", "addr:street": "West 37th Street", "branch": "Hudson Yards", "delivery": "yes", "name": "Brooklyn Fare", "opening_hours": "Mo-Su 07:00-23:00", "phone": "+1 212-216-9700", "shop": "supermarket", "website": "https://www.brooklynfare.com/", "wheelchair": "yes"}}, {"type": "node", "id": 5754838687, "lat": 40.7805152, "lon": -73.9464822, "tags": {"addr:housenumber": "1770", "addr:postcode": "10128", "addr:street": "1st Avenue", "name": "Prime Gourmet Market", "opening_hours": "Mo-Su 07:00-21:55", "phone": "+1 212-831-1777", "shop": "supermarket"}}, {"type": "node", "id": 5781374053, "lat": 40.8210794, "lon": -73.9547411, "tags": {"name": "Golden Deli", "shop": "supermarket"}}, {"type": "node", "id": 5781387953, "lat": 40.8194853, "lon": -73.955164, "tags": {"brand": "C-Town Supermarkets", "brand:wikidata": "Q5005929", "name": "C-Town", "opening_hours": "Mo-Sa 08:00-20:45; Su 08:00-17:45", "shop": "supermarket"}}, {"type": "node", "id": 5782502991, "lat": 40.7961593, "lon": -73.9376078, "tags": {"addr:housenumber": "309", "addr:street": "East 115th Street", "name": "Cherry Valley", "shop": "supermarket"}}, {"type": "node", "id": 5808069477, "lat": 40.7674168, "lon": -73.9620503, "tags": {"addr:housenumber": "1175", "addr:postcode": "10021", "addr:street": "3rd Avenue", "brand": "Whole Foods Market", "brand:wikidata": "Q1809448", "check_date": "2024-10-03", "check_date:opening_hours": "2024-10-03", "name": "Whole Foods Market", "opening_hours": "Mo-Su 07:00-22:00", "phone": "+1-646-690-6880", "shop": "supermarket", "website": "https://www.wholefoodsmarket.com/stores/lenoxhill"}}, {"type": "node", "id": 5827921175, "lat": 40.8487301, "lon": -73.93293}, {"type": "node", "id": 5827921176, "lat": 40.8485962, "lon": -73.932609}, {"type": "node", "id": 5871200557, "lat": 40.7955019, "lon": -73.931771, "tags": {"addr:city": "New York", "addr:housenumber": "517", "addr:postcode": "10035", "addr:state": "NY", "addr:street": "East 117th Street", "brand": "ALDI", "brand:wikidata": "Q41171672", "level": "1", "name": "ALDI", "name:fa": "\u0622\u0644\u062f\u06cc", "opening_hours": "Mo-Su 09:00-21:00", "payment:american_express": "yes", "payment:discover_card": "yes", "payment:mastercard": "yes", "payment:visa": "yes", "phone": "+1 844-473-1002", "shop": "supermarket", "website": "https://stores.aldi.us/ny/new-york/517-east-117th-street"}}, {"type": "node", "id": 5952881385, "lat": 40.7980295, "lon": -73.9406496, "tags": {"addr:housenumber": "178", "addr:street": "East 116th Street", "name": "Shop Fair", "shop": "supermarket"}}, {"type": "node", "id": 5978792498, "lat": 40.7943732, "lon": -73.9438395, "tags": {"addr:city": "New York", "addr:housenumber": "160", "addr:state": "NY", "addr:street": "East 110th Street", "brand": "Key Food", "brand:wikidata": "Q6398037", "name": "Key Food", "shop": "supermarket"}}, {"type": "node", "id": 5978792515, "lat": 40.7781642, "lon": -73.9878316, "tags": {"name": "Jubilee Market Place", "shop": "supermarket"}}, {"type": "node", "id": 5978868288, "lat": 40.713697, "lon": -73.9928838, "tags": {"addr:housenumber": "109", "addr:postcode": "10002", "addr:street": "East Broadway", "alt_name": "Chinatown Supermarket", "name": "Chinatown Supermarket of Manhattan", "name:zh": "\u65b0\u4e2d\u83ef\u8d85\u5e02", "shop": "supermarket"}}, {"type": "node", "id": 6001375861, "lat": 40.7966947, "lon": -73.9474859, "tags": {"addr:housenumber": "1660", "addr:street": "Madison Avenue", "air_conditioning": "yes", "internet_access": "no", "name": "C-Town", "organic": "yes", "payment:cash": "yes", "payment:credit_cards": "yes", "shop": "supermarket", "wheelchair": "yes"}}, {"type": "node", "id": 6006148885, "lat": 40.7612915, "lon": -73.9310155, "tags": {"addr:housenumber": "24-18", "addr:street": "34th Avenue", "brand": "Bravo", "brand:wikidata": "Q16985159", "name": "Bravo", "shop": "supermarket"}}, {"type": "node", "id": 6055243196, "lat": 40.7834237, "lon": -73.9525136, "tags": {"addr:housenumber": "1407", "addr:postcode": "10128", "addr:street": "Lexington Avenue", "delivery": "yes", "drink:beer": "yes", "drink:coffee": "yes", "drink:wine": "no", "email": "wm1407@wmarketnyc.com", "fax": "+1 212-722-3205", "name": "Westside Market", "opening_hours": "Mo-Su 07:00-23:00", "organic": "yes", "phone": "+1 212-348-2382", "shop": "supermarket", "website": "https://www.wmarketnyc.com/1407-lexington-avenue/"}}, {"type": "node", "id": 6058065731, "lat": 40.8151934, "lon": -73.9151417, "tags": {"name": "Fine Fare", "shop": "supermarket"}}, {"type": "node", "id": 6124317996, "lat": 40.7163077, "lon": -73.9992157, "tags": {"name": "Sun Vin Grocery", "opening_hours": "Mo-Su 09:30-19:30", "phone": "+1-212-962-0382", "shop": "supermarket"}}, {"type": "node", "id": 6138666778, "lat": 40.7188032, "lon": -73.9974238, "tags": {"addr:city": "New York", "addr:housenumber": "142", "addr:postcode": "10013", "addr:state": "NY", "addr:street": "Mulberry Street", "name": "Christmas in New York", "shop": "supermarket"}}, {"type": "node", "id": 6149230723, "lat": 40.7193602, "lon": -73.9604276, "tags": {"addr:city": "Brooklyn", "addr:housenumber": "145", "addr:postcode": "11249", "addr:state": "NY", "addr:street": "Wythe Avenue", "name": "Bulletin", "shop": "supermarket"}}, {"type": "node", "id": 6149267163, "lat": 40.7229886, "lon": -73.994558, "tags": {"addr:city": "New York", "addr:housenumber": "27", "addr:postcode": "10012", "addr:state": "NY", "addr:street": "Prince Street", "name": "Bulletin Nolita", "shop": "supermarket"}}, {"type": "node", "id": 6210240538, "lat": 40.74712, "lon": -74.0011738, "tags": {"addr:housenumber": "225", "addr:postcode": "10011", "addr:street": "9th Avenue", "delivery": "yes", "fax": "+1 212-229-3898", "name": "Gristedes", "opening_hours": "Mo-Sa 06:00-24:00; Su 07:00-23:00", "phone": "+1 212-229-3896", "ref": "545", "shop": "supermarket"}}, {"type": "node", "id": 6230655385, "lat": 40.724017, "lon": -73.9847775, "tags": {"addr:city": "New York", "addr:housenumber": "52", "addr:postcode": "10009-7301", "addr:state": "NY", "addr:street": "Avenue A", "brand": "Key Food", "brand:wikidata": "Q6398037", "name": "Key Food", "opening_hours": "Mo-Su 00:00-24:00", "phone": "+1 212-477-9063", "ref": "566", "shop": "supermarket"}}, {"type": "node", "id": 6231502056, "lat": 40.7127859, "lon": -73.9946936, "tags": {"addr:city": "New York", "addr:housenumber": "60", "addr:postcode": "10002", "addr:state": "NY", "addr:street": "Henry Street", "operator": "Chinatown Henry Street", "shop": "supermarket"}}, {"type": "node", "id": 6231502057, "lat": 40.7129206, "lon": -73.9942901, "tags": {"addr:city": "New York", "addr:housenumber": "24", "addr:postcode": "10002", "addr:state": "NY", "addr:street": "Market Street", "operator": "Chinese Grocery", "shop": "supermarket"}}, {"type": "node", "id": 6231502059, "lat": 40.7125532, "lon": -73.9942216, "tags": {"addr:city": "New York", "addr:housenumber": "36", "addr:postcode": "10002", "addr:state": "NY", "addr:street": "Market Street", "addr:unit": "A", "operator": "36 Market Grocery Store", "phone": "(212) 766-8888", "shop": "supermarket"}}, {"type": "node", "id": 6233725912, "lat": 40.7195194, "lon": -73.9887677, "tags": {"addr:city": "New York", "addr:housenumber": "117", "addr:postcode": "10002", "addr:state": "NY", "addr:street": "Ludlow Street", "name": "Food Stop", "opening_hours": "Mo-Su 10:00-20:00", "operator": "Food Stop", "phone": "(212) 253-0595", "shop": "supermarket"}}, {"type": "node", "id": 6250764193, "lat": 40.7135422, "lon": -73.9947251, "tags": {"addr:city": "New York", "addr:housenumber": "9", "addr:postcode": "10002", "addr:state": "NY", "addr:street": "Market Street", "name": "Chao Hui Grocery Store", "operator": "Chao Hui Grocery Store", "shop": "supermarket"}}, {"type": "node", "id": 6256357203, "lat": 40.7994428, "lon": -73.9519115, "tags": {"addr:street": "Malcolm X Boulevard", "name": "Fine Fare", "shop": "supermarket"}}, {"type": "node", "id": 6256567177, "lat": 40.7450411, "lon": -73.9952796, "tags": {"addr:city": "New York", "addr:housenumber": "250", "addr:postcode": "10001", "addr:state": "NY", "addr:street": "7th Avenue", "branch": "Chelsea", "brand": "Whole Foods Market", "brand:wikidata": "Q1809448", "check_date": "2024-10-03", "check_date:opening_hours": "2024-10-03", "delivery": "yes", "internet_access": "wlan", "internet_access:fee": "no", "name": "Whole Foods Market", "opening_hours": "Mo-Su 07:00-22:00", "payment:cheque": "yes", "payment:contactless": "yes", "payment:debit_cards": "yes", "phone": "+1 212-924-5969", "ref": "chelsea", "shop": "supermarket", "toilets": "yes", "toilets:access": "public", "toilets:unisex": "yes", "website": "https://www.wholefoodsmarket.com/stores/chelsea", "wheelchair": "yes"}}, {"type": "node", "id": 6404984626, "lat": 40.8126916, "lon": -73.9264242, "tags": {"addr:city": "Bronx", "addr:housenumber": "301", "addr:postcode": "10451", "addr:state": "NY", "addr:street": "Morris Avenue", "name": "Western Beef", "opening_hours": "Mo-Sa 07:00-22:00; Su 06:30-21:00", "payment:cash": "yes", "payment:credit_cards": "yes", "payment:debit_cards": "yes", "payment:snap": "yes", "phone": "(718) 402-7500", "shop": "supermarket", "website": "http://www.westernbeef.com/western-beef---morris-avenue.html"}}, {"type": "node", "id": 6460276232, "lat": 40.8127657, "lon": -73.9264102}, {"type": "node", "id": 6460276233, "lat": 40.8127804, "lon": -73.9263997}, {"type": "node", "id": 6495270311, "lat": 40.7416143, "lon": -73.980878, "tags": {"name": "Little India Market", "opening_hours": "Mo-Sa 10:00-21:00; Su 10:00-20:30", "shop": "supermarket"}}, {"type": "node", "id": 6540025385, "lat": 40.7257088, "lon": -74.0048369, "tags": {"addr:city": "New York", "addr:housenumber": "233", "addr:postcode": "10013", "addr:state": "NY", "addr:street": "Spring Street", "branch": "SoHo", "brand": "Trader Joe's", "brand:wikidata": "Q688825", "name": "Trader Joe's", "opening_hours": "Mo-Su 08:00-21:00", "phone": "+1 212-691-2721", "ref": "539", "shop": "supermarket", "toilets:wheelchair": "yes", "website": "https://locations.traderjoes.com/ny/new-york/539/", "wheelchair": "yes"}}, {"type": "node", "id": 6566728985, "lat": 40.7161587, "lon": -73.9867257, "tags": {"addr:city": "New York", "addr:housenumber": "400", "addr:postcode": "10002", "addr:state": "NY", "addr:street": "Grand Street", "branch": "Essex Crossing", "brand": "Trader Joe's", "brand:wikidata": "Q688825", "drink:beer": "yes", "level": "-1", "name": "Trader Joe's", "opening_hours": "Mo-Su 08:00-21:00", "payment:cash": "yes", "payment:credit_cards": "yes", "phone": "+1 212-477-8340", "ref": "538", "shop": "supermarket", "website": "https://locations.traderjoes.com/ny/new-york/538/"}}, {"type": "node", "id": 6605093307, "lat": 40.7024275, "lon": -73.9902714, "tags": {"atm": "yes", "check_date": "2024-10-10", "drink:beer": "yes", "name": "Dumbo Market", "phone": "+1-718-422-7550", "shop": "supermarket"}}, {"type": "node", "id": 6684049778, "lat": 40.7293421, "lon": -73.9576439, "tags": {"addr:city": "Brooklyn", "addr:housenumber": "99", "addr:postcode": "11222", "addr:state": "NY", "addr:street": "Franklin Street", "name": "Fresh My Day", "payment:cash": "yes", "payment:credit_cards": "yes", "shop": "supermarket"}}, {"type": "node", "id": 6720579382, "lat": 40.8434076, "lon": -73.9382743, "tags": {"addr:city": "New York", "addr:housenumber": "1239", "addr:postcode": "10032-1903", "addr:state": "NY", "addr:street": "Saint Nicholas Avenue", "brand": "Key Food", "brand:wikidata": "Q6398037", "name": "Key Food", "opening_hours": "Mo-Sa 07:00-22:00, Su 08:00-21:00", "payment:cash": "yes", "payment:credit_cards": "yes", "phone": "+1 212-781-4476", "ref": "1782", "shop": "supermarket"}}, {"type": "node", "id": 6939934108, "lat": 40.7180786, "lon": -73.994794, "tags": {"name": "Tan Tin Hung Supermarket", "phone": "+1-212-274-8811", "shop": "supermarket"}}, {"type": "node", "id": 7099018972, "lat": 40.769816, "lon": -73.9602841, "tags": {"addr:housenumber": "1251", "addr:street": "3rd Avenue", "brand": "Morton Williams", "brand:wikidata": "Q28227933", "check_date": "2024-06-16", "drink:beer": "yes", "email": "platinum@mortonwilliams.com", "level": "0;-1", "name": "Morton Williams", "opening_hours": "Mo-Su 07:00-24:00", "phone": "+1 917-472-7611", "shop": "supermarket", "toilets": "no", "website": "https://www.mortonwilliams.com/1251-3rd-avenue", "wheelchair": "yes"}}, {"type": "node", "id": 7137281953, "lat": 40.7373308, "lon": -73.9734116, "tags": {"addr:housenumber": "25", "addr:street": "Waterside Plaza", "name": "Gristedes", "shop": "supermarket"}}, {"type": "node", "id": 7140439804, "lat": 40.7305095, "lon": -73.9810994, "tags": {"addr:city": "New York", "addr:housenumber": "436", "addr:postcode": "10009", "addr:state": "NY", "addr:street": "East 14th Street", "branch": "East Village", "brand": "Trader Joe's", "brand:wikidata": "Q688825", "drink:beer": "yes", "level": "-1", "name": "Trader Joe's", "opening_hours": "08:00-22:00", "phone": "+1 212-777-9412", "ref": "546", "shop": "supermarket", "website": "https://locations.traderjoes.com/ny/new-york/546/"}}, {"type": "node", "id": 7212968106, "lat": 40.8220705, "lon": -73.9302848, "tags": {"addr:city": "Bronx", "addr:housenumber": "610", "addr:postcode": "10451", "addr:state": "NY", "addr:street": "Exterior Street", "addr:unit": "Level 4", "level": "3", "name": "Food Bazaar", "opening_hours": "Mo-Su 07:00-22:30", "payment:cash": "yes", "payment:credit_cards": "yes", "payment:debit_cards": "yes", "payment:ebt": "yes", "payment:snap": "yes", "phone": "+1-347-717-4305", "shop": "supermarket", "stroller": "yes", "website": "https://www.foodbazaar.com/", "wheelchair": "yes"}}, {"type": "node", "id": 7322799428, "lat": 40.7728495, "lon": -73.9606178, "tags": {"addr:street": "Lexington Avenue", "brand": "D'Agostino", "brand:wikidata": "Q20656844", "check_date": "2024-03-13", "name": "D'Agostino", "shop": "supermarket"}}, {"type": "node", "id": 7581249112, "lat": 40.7737017, "lon": -73.9892353, "tags": {"addr:city": "New York", "addr:housenumber": "75", "addr:postcode": "10023", "addr:state": "NY", "addr:street": "West End Avenue", "branch": "Lincoln Square", "brand": "Brooklyn Fare", "construction:shop": "supermarket", "name": "Brooklyn Fare", "opening_hours": "Mo-Su,PH 07:00-22:00", "payment:cards": "yes", "payment:cash": "yes", "shop": "supermarket", "website": "https://www.brooklynfare.com/"}}, {"type": "node", "id": 7591060168, "lat": 40.7722534, "lon": -73.9904013, "tags": {"addr:city": "New York", "addr:housenumber": "15", "addr:state": "NY", "addr:street": "West End Avenue", "air_conditioning": "yes", "brand": "Morton Williams", "brand:wikidata": "Q28227933", "internet_access": "no", "level": "0", "name": "Morton Williams", "opening_hours": "Mo-Su,PH 07:00-00:00; Nov Th[4] 07:00-18:00", "organic": "yes", "payment:american_express": "yes", "payment:apple_pay": "yes", "payment:cash": "yes", "payment:contactless": "yes", "payment:mastercard": "yes", "payment:visa": "yes", "phone": "+1-917-388-3310", "shop": "supermarket", "smoking": "no", "stroller": "yes", "toilets": "yes", "wheelchair": "yes"}}, {"type": "node", "id": 7598923198, "lat": 40.8146913, "lon": -73.9577661, "tags": {"brand": "C-Town Supermarkets", "brand:wikidata": "Q5005929", "name": "C-Town", "opening_hours": "Mo-Sa 07:00-21:00; Su 07:30-20:00", "shop": "supermarket"}}, {"type": "node", "id": 7620039829, "lat": 40.7984216, "lon": -73.9462446, "tags": {"addr:housenumber": "1718", "addr:street": "Madison Avenue", "delivery": "yes", "name": "Fine Fare", "opening_hours": "07:00-22:00", "payment:cash": "yes", "payment:credit_cards": "yes", "payment:ebt": "yes", "phone": "+1 212-360-7608", "shop": "supermarket", "website": "http://www.finefaresupermarkets.com"}}, {"type": "node", "id": 7633814600, "lat": 40.7132052, "lon": -73.9899625, "tags": {"shop": "supermarket"}}, {"type": "node", "id": 7674767841, "lat": 40.7527404, "lon": -73.999786, "tags": {"addr:city": "New York", "addr:housenumber": "368", "addr:postcode": "10001", "addr:state": "NY", "addr:street": "10th Avenue", "air_conditioning": "yes", "branch": "Manhattan West", "brand": "Whole Foods Market", "brand:wikidata": "Q1809448", "check_date": "2024-10-03", "check_date:opening_hours": "2024-10-03", "diet:gluten_free": "yes", "diet:lactose_free": "yes", "diet:vegan": "yes", "diet:vegetarian": "yes", "internet_access": "wlan", "internet_access:fee": "no", "level": "0;-1", "name": "Whole Foods Market", "opening_hours": "Mo-Su 07:30-22:00", "organic": "yes", "payment:american_express": "yes", "payment:cash": "yes", "payment:contactless": "yes", "payment:credit_cards": "yes", "payment:mastercard": "yes", "payment:visa": "yes", "phone": "+1 646-540-1104", "ref": "manhattanwest", "shop": "supermarket", "stroller": "yes", "toilets": "yes", "website": "https://www.wholefoodsmarket.com/stores/manhattanwest", "wheelchair": "yes"}}, {"type": "node", "id": 7689251249, "lat": 40.7511226, "lon": -73.9402935, "tags": {"name": "Gormet Market", "shop": "supermarket"}}, {"type": "node", "id": 7732048438, "lat": 40.7302306, "lon": -73.9890875, "tags": {"addr:housenumber": "39", "addr:postcode": "10003", "addr:street": "3rd Avenue", "alt_name:ko": "H \ub9c8\ud2b8", "brand": "H Mart", "brand:wikidata": "Q5636306", "cuisine": "asian", "description": "Korean supermarket with prepared foods and housewares", "drink:beer": "yes", "name": "H Mart", "name:en": "H Mart", "name:ko": "\ud55c\uc544\ub984", "name:zh-Hans": "\u97e9\u4e9a\u9f99", "name:zh-Hant": "\u97d3\u4e9e\u9f8d", "opening_hours": "Su-We 08:00-23:00; Th-Sa 08:00-23:30", "phone": "+1-646-596-7755", "shop": "supermarket"}}, {"type": "node", "id": 7747684354, "lat": 40.7763552, "lon": -73.934908, "tags": {"atm": "yes", "name": "Brooklyn Harvest Market", "shop": "supermarket"}}, {"type": "node", "id": 7828003895, "lat": 40.784984, "lon": -73.9555954, "tags": {"addr:housenumber": "1307", "addr:postcode": "10128", "addr:street": "Madison Avenue", "delivery": "yes", "name": "Patrick Murphy Market", "opening_hours": "Mo-Fr 07:00-20:00; Sa, Su 08:00-20:00", "phone": "+1 212-831-2696", "shop": "supermarket", "wheelchair": "yes"}}, {"type": "node", "id": 8233591512, "lat": 40.7738531, "lon": -73.9518461, "tags": {"addr:housenumber": "1565", "addr:street": "1st Avenue", "branch": "1565 First Avenue", "brand": "Morton Williams", "brand:wikidata": "Q28227933", "level": "0", "name": "Morton Williams", "opening_hours": "07:00-24:00", "phone": "+1 212-249-2851", "shop": "supermarket", "website": "https://www.mortonwilliams.com"}}, {"type": "node", "id": 8233628437, "lat": 40.7763648, "lon": -73.9465288, "tags": {"addr:housenumber": "1644", "addr:postcode": "10028", "addr:street": "York Avenue", "fax": "+1 212-647-6857", "name": "Gristedes", "opening_hours": "07:00-22:00", "phone": "+1 212-628-6769", "ref": "053", "shop": "supermarket", "website": "https://www.gristedessupermarkets.com"}}, {"type": "node", "id": 8233635086, "lat": 40.7634504, "lon": -73.9588858, "tags": {"addr:housenumber": "1208", "addr:postcode": "10021", "addr:street": "1st Avenue", "check_date": "2025-01-30", "fax": "+1 212-535-7644", "name": "Gristedes", "opening_hours": "07:00-23:00", "phone": "+1 212-535-2047", "ref": "512", "shop": "supermarket", "website": "https://gristedessupermarkets.com"}}, {"type": "node", "id": 8233635087, "lat": 40.7816171, "lon": -73.9580323, "tags": {"addr:housenumber": "1211", "addr:street": "Madison Avenue", "brand": "Morton Williams", "brand:wikidata": "Q28227933", "name": "Morton Williams", "opening_hours": "07:00-23:00", "phone": "+1 212-722-0229", "shop": "supermarket", "website": "https://www.mortonwilliams.com"}}, {"type": "node", "id": 8233642900, "lat": 40.7538189, "lon": -73.969016, "tags": {"addr:housenumber": "908", "addr:street": "2nd Avenue", "brand": "Morton Williams", "brand:wikidata": "Q28227933", "check_date": "2024-03-07", "name": "Morton Williams", "opening_hours": "24/7", "phone": "+1 212-308-6922", "shop": "supermarket", "website": "https://www.mortonwilliams.com"}}, {"type": "node", "id": 8233681547, "lat": 40.764824, "lon": -73.9789137, "tags": {"addr:housenumber": "140", "addr:street": "West 57th Street", "brand": "Morton Williams", "brand:wikidata": "Q28227933", "name": "Morton Williams", "opening_hours": "24/7", "phone": "+1 212-586-7750", "shop": "supermarket", "website": "https://www.mortonwilliams.com"}}, {"type": "node", "id": 8238256287, "lat": 40.7364654, "lon": -73.9782629, "tags": {"check_date:opening_hours": "2022-08-25", "name": "Gracefully", "opening_hours": "Mo-Fr 06:00-18:00; Sa,Su 08:00-16:00", "shop": "supermarket"}}, {"type": "node", "id": 8279418774, "lat": 40.7224555, "lon": -73.9771378, "tags": {"addr:city": "New York", "addr:housenumber": "71", "addr:postcode": "10009", "addr:state": "NY", "addr:street": "Avenue D", "contact:instagram": "https://www.instagram.com/comparefoodmkt/", "name": "Food Emporium", "opening_hours": "7:00-19:00", "phone": "+1 212-475-3960", "shop": "supermarket", "website": "https://www.shopcomparefoods.com"}}, {"type": "node", "id": 8375950593, "lat": 40.8123847, "lon": -73.9572358, "tags": {"addr:city": "New York", "addr:housenumber": "1316", "addr:postcode": "10027", "addr:state": "NY", "addr:street": "Amsterdam Avenue", "name": "Foodtown", "opening_hours": "Mo-Su 07:00-22:00", "phone": "+1-212-662-1644", "shop": "supermarket", "website": "https://www.foodtown.com/stores/foodtown-of-morningside-heights"}}, {"type": "node", "id": 8537319189, "lat": 40.7062836, "lon": -74.0074184, "tags": {"addr:housenumber": "70", "addr:postcode": "10005", "addr:street": "Pine Street", "branch": "No 70 Pine", "delivery": "yes", "email": "info@cityacresmarket.com", "level": "0;-1", "name": "City Acres Market", "opening_hours": "07:00-24:00", "phone": "+1 917-261-4530", "shop": "supermarket", "website": "https://www.cityacresmarket.com/"}}, {"type": "node", "id": 8617534012, "lat": 40.7681384, "lon": -73.9559953, "tags": {"addr:housenumber": "1347", "addr:street": "1st Avenue", "check_date": "2024-09-01", "description": "Organic food store", "level": "0", "name": "A Matter of Health", "opening_hours": "Mo-Sa 08:00-21:00; Su 09:00-20:00", "organic": "yes", "phone": "+1 212-288-8280", "shop": "supermarket", "wheelchair": "yes"}}, {"type": "node", "id": 8907715019, "lat": 40.7174565, "lon": -74.0033287, "tags": {"addr:city": "New York", "addr:housenumber": "366", "addr:postcode": "10013", "addr:state": "NY", "addr:street": "Broadway", "email": "sr0838olsh@wakefern.com", "name": "Gourmet Garage", "opening_hours": "Mo-Su 07:00-21:00", "operator": "Wakefern Food Corporation", "payment:cash": "yes", "payment:contactless": "yes", "payment:credit_cards": "yes", "payment:debit_cards": "yes", "phone": "+1-212-571-5850", "shop": "supermarket", "website": "https://www.gourmetgarage.com/"}}, {"type": "node", "id": 8999611994, "lat": 40.7131415, "lon": -73.9941334, "tags": {"barrier": "gate"}}, {"type": "node", "id": 9121440011, "lat": 40.7360448, "lon": -73.9592699, "tags": {"addr:city": "Brooklyn", "addr:housenumber": "5", "addr:postcode": "11222", "addr:state": "NY", "addr:street": "Commercial Street", "name": "Prestige Organic Market", "organic": "only", "shop": "supermarket"}}, {"type": "node", "id": 9121467317, "lat": 40.7362244, "lon": -73.9588787, "tags": {"addr:city": "Brooklyn", "addr:housenumber": "7", "addr:postcode": "11222", "addr:state": "NY", "addr:street": "Blue Slip", "name": "Riverside Market", "phone": "+1-347-916-0821", "shop": "supermarket"}}, {"type": "node", "id": 9133127778, "lat": 40.7371469, "lon": -73.9556033, "tags": {"name": "Lincoln Market", "shop": "supermarket"}}, {"type": "node", "id": 9330433962, "lat": 40.6939822, "lon": -73.9919641, "tags": {"drink:beer": "yes", "fax": "+1-718-222-9970", "name": "Fresh Start Marketplace", "opening_hours": "Mo-Fr 07:00-22:00; Sa-Su 07:00-21:00", "phone": "+1-718-222-1515", "shop": "supermarket", "website": "http://freshstartmarketplace.com"}}, {"type": "node", "id": 9371560490, "lat": 40.7458731, "lon": -73.9459681, "tags": {"addr:city": "Long Island City", "addr:housenumber": "22-43", "addr:postcode": "11101", "addr:state": "NY", "addr:street": "Jackson Avenue", "branch": "Long Island City", "brand": "Trader Joe's", "brand:wikidata": "Q688825", "drink:beer": "yes", "level": "0", "name": "Trader Joe's", "opening_hours": "08:00-21:00", "phone": "+1 718-472-2672", "ref": "565", "shop": "supermarket", "website": "https://locations.traderjoes.com/ny/long-island-city/565", "wheelchair": "yes"}}, {"type": "node", "id": 9448043072, "lat": 40.7810035, "lon": -73.9816301, "tags": {"addr:city": "New York", "addr:housenumber": "2135", "addr:postcode": "10023", "addr:state": "NY", "addr:street": "Broadway", "air_conditioning": "yes", "level": "0;1", "name": "Citarella", "shop": "supermarket", "website": "https://www.citarella.com/"}}, {"type": "node", "id": 9470281843, "lat": 40.7596586, "lon": -73.9613341, "tags": {"addr:city": "New York", "addr:housenumber": "405", "addr:postcode": "10022", "addr:state": "NY", "addr:street": "East 59th Street", "branch": "Upper East Side - Bridgemarket", "brand": "Trader Joe's", "brand:wikidata": "Q688825", "check_date": "2024-09-25", "drink:beer": "yes", "level": "0", "name": "Trader Joe's", "opening_hours": "08:00-21:00", "phone": "+1 212-935-3870", "ref": "571", "shop": "supermarket", "website": "https://locations.traderjoes.com/ny/new-york/571", "wheelchair": "yes"}}, {"type": "node", "id": 9520799017, "lat": 40.7865976, "lon": -73.9521915, "tags": {"addr:postcode": "10128", "check_date": "2024-02-29", "email": "info@carnegiemarket.com", "name": "Carnegie Market", "opening_hours": "Mo-Su 07:00-23:00", "phone": "+1 6466092122", "shop": "supermarket", "website": "http://carnegiemarket.com"}}, {"type": "node", "id": 9734956918, "lat": 40.7147826, "lon": -74.0347817, "tags": {"name": "Hudson Greene Market", "shop": "supermarket"}}, {"type": "node", "id": 9744940009, "lat": 40.7897185, "lon": -73.9406863, "tags": {"addr:city": "New York", "addr:housenumber": "346", "addr:postcode": "10029", "addr:state": "NY", "addr:street": "East 106th Street", "name": "East 106 Deli & Grocery", "opening_hours": "Mo-Su 07:00-00:00", "shop": "supermarket"}}, {"type": "node", "id": 9780828103, "lat": 40.7991783, "lon": -73.9681732, "tags": {"addr:city": "New York", "addr:housenumber": "2704", "addr:postcode": "10025", "addr:state": "NY", "addr:street": "Broadway", "branch": "Store 601", "name": "Gristedes", "opening_hours": "Mo-Su 07:00-22:00", "phone": "+1-646-352-4690", "shop": "supermarket"}}, {"type": "node", "id": 9828589989, "lat": 40.6931375, "lon": -74.0007385, "tags": {"addr:housenumber": "121", "addr:postcode": "11201", "addr:street": "Bridge Park Drive", "name": "Town Market", "opening_hours": "Mo-Su 07:00-21:00", "shop": "supermarket", "website": "https://townmarketnyc.com"}}, {"type": "node", "id": 9900957258, "lat": 40.7943707, "lon": -73.9399233, "tags": {"addr:housenumber": "2175", "addr:postcode": "10029", "addr:street": "2nd Avenue", "name": "La Coste\u00f1ita Grocery", "opening_hours": "08:00-23:00", "phone": "+1 212-426-5691", "shop": "supermarket", "website": "https://la-costenita-grocery.business.site"}}, {"type": "node", "id": 10067749670, "lat": 40.8227754, "lon": -73.9422037, "tags": {"addr:housenumber": "300", "addr:street": "West 145th Street", "branch": "Bradhurst", "name": "Super Foodtown", "opening_hours": "Mo-Fr 09:00-19:00; Sa 09:00-17:00", "phone": "+1 212-281-3158", "shop": "supermarket", "toilets": "yes", "website": "https://www.foodtown.com/stores/foodtown-of-bradhurst", "wheelchair": "yes"}}, {"type": "node", "id": 10119713295, "lat": 40.8491787, "lon": -73.9115463, "tags": {"shop": "supermarket"}}, {"type": "node", "id": 10119713302, "lat": 40.8390217, "lon": -73.9188578, "tags": {"shop": "supermarket"}}, {"type": "node", "id": 10177232050, "lat": 40.8673783, "lon": -73.9216244, "tags": {"addr:city": "New York", "addr:housenumber": "4918", "addr:postcode": "10034", "addr:state": "NY", "addr:street": "Broadway", "brand": "C-Town Supermarkets", "brand:wikidata": "Q5005929", "name": "C-Town", "shop": "supermarket"}}, {"type": "node", "id": 10277279088, "lat": 40.7180715, "lon": -73.9644379, "tags": {"addr:city": "Brooklyn", "addr:housenumber": "200", "addr:postcode": "11249", "addr:state": "NY", "addr:street": "Kent Avenue", "branch": "Brooklyn - Williamsburg", "brand": "Trader Joe's", "brand:wikidata": "Q688825", "name": "Trader Joe's", "opening_hours": "08:00-21:00; Dec 25 off", "phone": "+1 718-218-7315", "ref": "548", "shop": "supermarket", "website": "https://locations.traderjoes.com/ny/brooklyn/548/", "wheelchair": "yes"}}, {"type": "node", "id": 10355265205, "lat": 40.7319729, "lon": -73.9597883, "tags": {"addr:city": "Brooklyn", "addr:housenumber": "145", "addr:postcode": "11222", "addr:state": "NY", "addr:street": "West Street", "name": "Jubilee Marketplace", "opening_hours": "Mo-Su 07:00-22:00", "phone": "+1-718-383-0262", "shop": "supermarket", "website": "https://www.jubileemarketplace.com"}}, {"type": "node", "id": 10543697991, "lat": 40.7070866, "lon": -74.0119141, "tags": {"addr:city": "New York", "addr:housenumber": "66", "addr:postcode": "10005", "addr:state": "NY", "addr:street": "Broadway", "branch": "One Wall Street", "brand": "Whole Foods Market", "brand:wikidata": "Q1809448", "check_date": "2024-10-03", "check_date:opening_hours": "2024-10-03", "name": "Whole Foods Market", "opening_hours": "Mo-Su 07:00-22:00", "payment:american_express": "yes", "payment:credit_cards": "yes", "payment:debit_cards": "yes", "payment:mastercard": "yes", "payment:visa": "yes", "phone": "+1 646-779-8229", "ref": "onewallstreet", "shop": "supermarket", "website": "https://www.wholefoodsmarket.com/stores/onewallstreet"}}, {"type": "node", "id": 10570594107, "lat": 40.8170044, "lon": -73.9383736, "tags": {"addr:city": "New York", "addr:housenumber": "592", "addr:postcode": "10037-1201", "addr:state": "NY", "addr:street": "Lenox Avenue", "brand": "Key Food", "brand:wikidata": "Q6398037", "name": "Key Food", "opening_hours": "Mo-Sa 07:00-21:00; Su 08:00-19:00", "phone": "+1 212-926-5470", "ref": "1486", "shop": "supermarket", "website": "https://www.keyfood.com/store/store/1486"}}, {"type": "node", "id": 10584741964, "lat": 40.7175, "lon": -73.9950895, "tags": {"name": "Super A Mart", "opening_hours": "Mo-Su 10:00-18:00", "shop": "supermarket"}}, {"type": "node", "id": 10780125940, "lat": 40.7675733, "lon": -73.9299275, "tags": {"name": "Hortons", "shop": "supermarket"}}, {"type": "node", "id": 10966173305, "lat": 40.863982, "lon": -73.9255258, "tags": {"addr:postcode": "10034", "contact:instagram": "danssupermarket", "name": "Dan's Supermarket", "opening_hours": "Mo-Sa,Su 07:45-21:46,07:45-20:00", "phone": "212-544-8595", "shop": "supermarket"}}, {"type": "node", "id": 10969587472, "lat": 40.8017203, "lon": -73.9495714, "tags": {"name": "Fine Fare Supermarket", "shop": "supermarket"}}, {"type": "node", "id": 10972328083, "lat": 40.8656955, "lon": -73.926319, "tags": {"addr:city": "New York", "addr:housenumber": "4776", "addr:postcode": "10034", "addr:street": "Broadway", "name": "Fine Fare", "shop": "supermarket"}}, {"type": "node", "id": 10991141056, "lat": 40.7684478, "lon": -73.955766, "tags": {"addr:housenumber": "1357", "addr:postcode": "10021", "addr:street": "1st Avenue", "check_date": "2024-09-01", "level": "0", "name": "Daona Market Place", "opening_hours": "07:00-22:00", "phone": "+1 646-767-0091", "shop": "supermarket"}}, {"type": "node", "id": 11040269752, "lat": 40.8023211, "lon": -73.9490789, "tags": {"addr:housenumber": "136", "addr:street": "Malcolm X Boulevard", "name": "Fine Fare Supermarket ", "opening_hours": "Mo-Su 07:00-24:00", "phone": "+1 212-828-9951", "shop": "supermarket"}}, {"type": "node", "id": 11196340222, "lat": 40.8091818, "lon": -73.9225632, "tags": {"name": "Pioneer", "shop": "supermarket"}}, {"type": "node", "id": 11197773935, "lat": 40.8484534, "lon": -73.9328426}, {"type": "node", "id": 11255243809, "lat": 40.8037632, "lon": -73.935539, "tags": {"name": "Food Bazaar", "shop": "supermarket"}}, {"type": "node", "id": 11419259549, "lat": 40.8019641, "lon": -73.9643475, "tags": {"addr:city": "New York", "addr:housenumber": "987", "addr:postcode": "10025", "addr:state": "NY", "addr:street": "Amsterdam Avenue", "name": "Los Vecinos Meat Market & Supermarket", "phone": "+1-212-316-1968", "shop": "supermarket"}}, {"type": "node", "id": 11514786657, "lat": 40.7599524, "lon": -73.9611699, "tags": {"branch": "(2nd entrance)", "brand": "Trader Joe's", "brand:wikidata": "Q688825", "check_date": "2024-09-25", "level": "0", "name": "Trader Joe's", "payment:cash": "yes", "payment:mastercard": "yes", "payment:visa": "yes", "shop": "supermarket", "wheelchair": "yes"}}, {"type": "node", "id": 11516617069, "lat": 40.7941384, "lon": -73.9663387, "tags": {"addr:city": "New York City", "addr:housenumber": "795", "addr:postcode": "10025", "addr:state": "NY", "addr:street": "Columbus Avenue", "brand": "Target", "brand:wikidata": "Q1046951", "name": "Target", "opening_hours": "Mo-Su 08:00-22:00", "phone": "+1 646-758-8424", "shop": "supermarket", "website": "https://www.target.com/sl/upper-west-side-98th-and-columbus/3394"}}, {"type": "node", "id": 11521235344, "lat": 40.8007795, "lon": -73.9593039, "tags": {"addr:city": "New York", "addr:housenumber": "300", "addr:postcode": "10025", "addr:state": "NY", "addr:street": "West 110th Street", "name": "Central Markets", "opening_hours": "Mo-Su 08:00-22:00", "phone": "+1-212-932-1990", "shop": "supermarket", "website": "http://www.centralmarketsnyc.com"}}, {"type": "node", "id": 11624403583, "lat": 40.7437476, "lon": -73.985621, "tags": {"addr:housenumber": "63", "addr:street": "Madison Avenue", "branch": "NoMad", "brand": "Whole Foods Market", "brand:wikidata": "Q1809448", "check_date": "2024-10-03", "check_date:opening_hours": "2024-10-03", "name": "Whole Foods Market", "opening_hours": "Mo-Su 07:00-22:00", "phone": "+1 646-779-2848", "shop": "supermarket", "website": "https://www.wholefoodsmarket.com/stores/nomad"}}, {"type": "node", "id": 11638917869, "lat": 40.7134172, "lon": -73.9938473}, {"type": "node", "id": 11638917870, "lat": 40.713175, "lon": -73.9937179}, {"type": "node", "id": 11638917871, "lat": 40.7131396, "lon": -73.9941596}, {"type": "node", "id": 11638917872, "lat": 40.7132946, "lon": -73.9942489}, {"type": "node", "id": 11638917906, "lat": 40.7135703, "lon": -73.9944007}, {"type": "node", "id": 11638917907, "lat": 40.7133877, "lon": -73.9942995}, {"type": "node", "id": 11638917908, "lat": 40.7135098, "lon": -73.9938986}, {"type": "node", "id": 11638917909, "lat": 40.7136465, "lon": -73.993976}, {"type": "node", "id": 11638917910, "lat": 40.7136157, "lon": -73.9943661}, {"type": "node", "id": 11638918034, "lat": 40.7134777, "lon": -73.9943494}, {"type": "node", "id": 11638918045, "lat": 40.713141, "lon": -73.9941396}, {"type": "node", "id": 11638918047, "lat": 40.713585, "lon": -73.9943895}, {"type": "node", "id": 11638918072, "lat": 40.7133005, "lon": -73.9942297}, {"type": "node", "id": 11851377532, "lat": 40.7436689, "lon": -73.995123, "tags": {"check_date": "2024-04-26", "name": "Westside Market", "shop": "supermarket", "wheelchair": "yes"}}, {"type": "node", "id": 11854027863, "lat": 40.7220934, "lon": -73.9800987, "tags": {"addr:city": "New York", "addr:housenumber": "42", "addr:postcode": "10009", "addr:state": "NY", "addr:street": "Avenue C", "name": "Shop Fair", "phone": "+1-212-614-8401", "shop": "supermarket"}}, {"type": "node", "id": 11940452884, "lat": 40.8104444, "lon": -73.9431569, "tags": {"addr:city": "New York", "addr:housenumber": "380", "addr:postcode": "10027", "addr:state": "NY", "addr:street": "Malcolm X Boulevard", "name": "Pioneer Supermarket", "shop": "supermarket"}}, {"type": "node", "id": 11984361757, "lat": 40.8080665, "lon": -73.9531637, "tags": {"name": "Lincoln Market", "shop": "supermarket"}}, {"type": "node", "id": 12023195569, "lat": 40.7153268, "lon": -73.9978815, "tags": {"name": "Bayard Market", "shop": "supermarket"}}, {"type": "node", "id": 12209829460, "lat": 40.7670166, "lon": -73.9628431, "tags": {"addr:city": "New York", "addr:housenumber": "1160", "addr:postcode": "10065", "addr:state": "NY", "addr:street": "3rd Avenue", "name": "Ouri's Market", "phone": "+1-212-794-9500", "shop": "supermarket", "website": "https://ourismarket.com/"}}, {"type": "node", "id": 12365495490, "lat": 40.7220123, "lon": -73.9966638, "tags": {"addr:city": "New York", "addr:housenumber": "54", "addr:street": "Spring Street", "check_date": "2024-11-22", "description": "Japanese grocery store.", "name": "Genkiya Mart", "shop": "supermarket"}}, {"type": "node", "id": 12378952440, "lat": 40.7558756, "lon": -73.9701486, "tags": {"addr:city": "New York", "addr:housenumber": "825", "addr:postcode": "10022", "addr:state": "NY", "addr:street": "3rd Avenue", "contact:facebook": "https://www.facebook.com/starkofficesuites/", "description": "A unique office experience in a premier building that sets new standards in elegance, customer service and sustainability.", "name": "Excelsior by Stark Office Suites", "phone": "212-601-9280", "shop": "supermarket", "website": "https://starkofficesuites.com/825-third-avenue/"}}, {"type": "node", "id": 12488376017, "lat": 40.7232089, "lon": -73.9958812, "tags": {"addr:housenumber": "251", "addr:postcode": "10012", "addr:street": "Mulberry Street", "name": "Mulberry Market", "shop": "supermarket", "website": "https://www.mulberrymarketnyc.com"}}, {"type": "node", "id": 12550855288, "lat": 40.8095106, "lon": -73.948298, "tags": {"addr:housenumber": "2110", "addr:postcode": "10027", "addr:street": "Adam Clayton Powell Jr. Boulevard", "check_date": "2025-02-01", "name": "Shop Fair", "phone": "+1-646-476-5799", "shop": "supermarket"}}, {"type": "way", "id": 241833055, "nodes": [2494152884, 2494153816, 2494153936, 2494153899, 2494153788, 2494152884], "tags": {"addr:city": "Brooklyn", "addr:housenumber": "102", "addr:postcode": "11201", "addr:state": "NY", "addr:street": "Montague Street", "alt_name": "Key Montague", "brand": "Key Food", "brand:wikidata": "Q6398037", "building": "retail", "delivery": "yes", "height": "6", "name": "Key Food", "nycdoitt:bin": "3002055;3002056;3002057", "opening_hours": "Mo-Sa 07:00-21:00; Su 08:00-20:00", "phone": "+1 718-875-8121", "ref": "1072", "shop": "supermarket", "website": "https://keyfoodmontague.com"}}, {"type": "way", "id": 250264474, "nodes": [2567527088, 2567527087, 2567527084, 2567527086, 2567527091, 2567527089, 2567527088], "tags": {"addr:city": "New York", "addr:country": "US", "addr:housenumber": "188", "addr:postcode": "10009", "addr:state": "NY", "addr:street": "Avenue C", "brand": "C-Town Supermarkets", "brand:wikidata": "Q5005929", "building": "retail", "building:colour": "#CABB90", "building:levels": "1", "building:material": "brick", "building:part": "yes", "height": "4.8", "name": "C-Town", "nycdoitt:bin": "1083146", "opening_hours": "Su 08:30-18:00; Mo-Th 08:00-20:00; Fr 08:00-20:30; Sa 08:00-20:00; Dec 25 08:00-17:00", "phone": "+1-212-505-7577", "roof:colour": "#C9C6B3", "roof:material": "concrete", "roof:shape": "flat", "shop": "supermarket", "website": "https://locations.ctownsupermarkets.com/ctown-supermarkets-699f7b07a969"}}, {"type": "way", "id": 265796841, "nodes": [2714217135, 2714217215, 2714217224, 2714217302, 2714217245, 2714217135], "tags": {"addr:housenumber": "125", "addr:postcode": "10035", "addr:street": "East 116th Street", "building": "yes", "height": "9.5", "name": "City Fresh Market", "nycdoitt:bin": "1052286", "shop": "supermarket"}}, {"type": "way", "id": 266910936, "nodes": [2724083626, 2724083623, 2724083613, 2724083611, 2724083596, 2724083599, 2724083588, 2724083580, 2724083612, 2724083624, 5706764142, 2724083714, 2724083700, 2724083695, 2724083688, 2724083690, 2724083683, 2724083677, 2724083673, 2724083675, 2724083637, 2724083626], "tags": {"addr:housenumber": "240", "addr:postcode": "10028", "addr:street": "East 86th Street", "branch": "Upper East Side", "building": "yes", "building:levels": "5", "building:min_level": "16", "height": "70.5", "name": "Fairway Market", "nycdoitt:bin": "1048773", "opening_hours": "Mo-Su 07:00-24:00; Dec 25 off", "phone": "+1 718-569-4511", "shop": "supermarket", "website": "https://www.fairwaymarket.com/sm/planning/rsid/4000/store", "wheelchair": "yes"}}, {"type": "way", "id": 269318166, "nodes": [2745620978, 2745620984, 2745620989, 2745620981, 2745620978], "tags": {"addr:city": "New York", "addr:country": "US", "addr:housenumber": "2245", "addr:postcode": "10024", "addr:state": "NY", "addr:street": "Broadway", "brand:wikidata": "Q14707831", "brand:wikipedia": "en:Zabar's", "building": "yes", "email": "info@zabars.com", "height": "15.1", "name": "Zabar's", "nycdoitt:bin": "1081046", "opening_hours": "Su 09:00-18:00; Mo-Sa 08:00-19:30", "phone": "(212) 787-2000", "shop": "supermarket", "toilets:wheelchair": "no", "website": "https://zabars.com", "wheelchair": "limited"}}, {"type": "way", "id": 271597127, "nodes": [2765492587, 2765492499, 2765492505, 2765492597, 2765492720, 2765492700, 2765492675, 2765492666, 2765492587], "tags": {"addr:housenumber": "2330", "addr:postcode": "10035", "addr:street": "1st Avenue", "building": "retail", "building:levels": "2", "contact:instagram": "https://www.instagram.com/2330_finefaresupermarket", "height": "7.4", "name": "Fine Fare Supermarket", "nycdoitt:bin": "1054882", "opening_hours": "06:00-24:00", "payment:cash": "yes", "payment:discover_card": "yes", "payment:mastercard": "yes", "payment:visa": "yes", "phone": "+1 212-410-1640", "shop": "supermarket", "website": "https://www.finefaresupermarkets.com"}}, {"type": "way", "id": 271813871, "nodes": [2767532160, 2767532086, 2767532135, 2767532162, 2767532232, 2767532199, 2767532160], "tags": {"addr:housenumber": "2463", "addr:street": "Frederick Douglass Boulevard", "building": "yes", "height": "7.1", "name": "Foodtown of Frederick Douglas Blvd", "nycdoitt:bin": "1089116", "opening_hours": "Mo-Sa 07:30-21:00", "shop": "supermarket"}}, {"type": "way", "id": 271877839, "nodes": [2768125946, 2768125910, 2768125912, 2768125950, 2768126001, 2768125994, 2768125953, 2768125946], "tags": {"addr:city": "New York", "addr:housenumber": "756", "addr:postcode": "10031", "addr:state": "NY", "addr:street": "Saint Nicholas Avenue", "brand": "Foodtown", "brand:wikidata": "Q5465575", "building": "yes", "fixme": "Opening hours were posted but picture is blurry. Hours \"Mo-Fr 07:00-22:00; Sa-Su 07:00-21:00\" taken from website, resurvey to confirm", "height": "9.3", "name": "Foodtown", "nycdoitt:bin": "1061160", "opening_hours": "Mo-Fr 07:00-22:00; Sa-Su 07:00-21:00", "phone": "+1-212-368-6464", "shop": "supermarket", "website": "https://www.foodtown.com/stores/foodtown-of-st-nicholas-ave"}}, {"type": "way", "id": 271893713, "nodes": [2768245956, 2768245960, 2768245954, 2768245951, 2768245943, 2768245968, 2768245998, 2768246004, 2768246001, 2768246010, 2768246023, 2768246035, 2768246032, 2768246078, 2768246050, 2768245995, 2768245964, 2768245956], "tags": {"addr:city": "New York", "addr:housenumber": "421", "addr:postcode": "10027", "addr:state": "NY", "addr:street": "West 125th Street", "brand": "Key Food", "brand:wikidata": "Q6398037", "building": "yes", "height": "17.7", "name": "Key Food", "nycdoitt:bin": "1059546", "opening_hours": "Mo-Sa 07:00-21:00; Su 08:00-20:00", "phone": "+1 212-749-0200", "ref": "1778", "shop": "supermarket"}}, {"type": "way", "id": 275085242, "nodes": [2797469919, 11197773935, 2797469938, 5827921175, 5827921176, 2797469919], "tags": {"addr:housenumber": "312", "addr:postcode": "10033", "addr:street": "Audubon Avenue", "building": "yes", "height": "11.1", "level": "0", "name": "Extra Jumbo by Antillana", "nycdoitt:bin": "1081873", "opening_hours": "07:00-22:00", "operator": "Associated Supermarket Group", "phone": "+1 646-590-0408", "shop": "supermarket", "start_date": "2021", "wheelchair": "yes"}}, {"type": "way", "id": 275123829, "nodes": [2797803027, 2797803011, 2797803025, 2797803026, 2797803034, 2797803036, 2797803046, 2797803028, 2797803027], "tags": {"addr:city": "New York", "addr:housenumber": "5069", "addr:postcode": "10034", "addr:state": "NY", "addr:street": "Broadway", "brand": "Food Universe", "building": "yes", "delivery": "yes", "height": "3", "name": "Food Universe Marketplace", "nycdoitt:bin": "1065013", "opening_hours": "Mo-Sa 07:30-22:00; Su 08:00-22:00", "operator": "Key Food", "phone": "+1 212-304-1200", "ref": "1932", "shop": "supermarket", "website": "https://fooduniverse.keyfood.com/store/foodUniverse/en/store/1932", "wheelchair": "yes"}}, {"type": "way", "id": 275269310, "nodes": [2799050212, 2799049873, 2799049877, 2799049872, 2799049874, 2799049881, 2799050201, 2799050220, 6460276233, 6460276232, 2799050212]}, {"type": "way", "id": 275327553, "nodes": [2799684000, 2799684202, 2799684216, 2799684244, 2799684227, 2799684223, 2799684207, 2799684000], "tags": {"addr:housenumber": "1040", "addr:postcode": "10456", "addr:street": "Sherman Avenue", "brand": "C-Town Supermarkets", "brand:wikidata": "Q5005929", "building": "yes", "height": "9.0", "name": "C-Town", "nycdoitt:bin": "2115819", "shop": "supermarket"}}, {"type": "way", "id": 276018077, "nodes": [2806616286, 2806616274, 2806616188, 2806616238, 2806616249, 2806616266, 2806616276, 2806616286], "tags": {"addr:city": "Bronx", "addr:housenumber": "306", "addr:postcode": "10456", "addr:state": "NY", "addr:street": "East 170th Street", "building": "yes", "height": "4.6", "name": "Trade Fair", "nycdoitt:bin": "2007197", "shop": "supermarket"}}, {"type": "way", "id": 763330785, "nodes": [2761716799, 2761716826, 2761716871, 2761716851, 2761716799], "tags": {"addr:housenumber": "1968", "addr:street": "2nd Avenue", "atm": "yes", "delivery": "yes", "email": "1968@cherryvalleymarketplace.com", "level": "0", "name": "Cherry Valley Marketplace", "opening_hours": "24/7", "phone": "+1 212-369-2974", "ref": "1968", "shop": "supermarket", "website": "https://cherryvalleymarketplace.com/1968/", "wheelchair": "yes"}}, {"type": "way", "id": 1252123687, "nodes": [11638917869, 11638917870, 8999611994, 11638918045, 11638917871, 11638917872, 11638918072, 11638917869]}, {"type": "way", "id": 1252123694, "nodes": [11638917907, 11638917908, 11638917909, 11638917910, 11638918047, 11638917906, 11638918034, 11638917907]}, {"type": "relation", "id": 9485912, "members": [{"type": "way", "ref": 275269310, "role": "outer"}], "tags": {"addr:housenumber": "301", "addr:postcode": "10451", "addr:street": "Morris Avenue", "building": "retail", "height": "6.0;4.7", "name": "Western Beef", "nycdoitt:bin": "2000953;2000956", "opening_hours": "Mo-Sa 07:00-22:00; Su 07:00-21:00", "shop": "supermarket", "type": "multipolygon"}}, {"type": "relation", "id": 17233745, "members": [{"type": "way", "ref": 1252123694, "role": "outer"}, {"type": "way", "ref": 1252123687, "role": "outer"}], "tags": {"addr:city": "New York", "addr:housenumber": "75", "addr:postcode": "10002", "addr:state": "NY", "addr:street": "East Broadway", "building": "commercial", "building:levels": "2", "layer": "1", "name": "New York Mart", "shop": "supermarket", "type": "multipolygon"}}]}