{"version": 0.6, "generator": "Overpass API 0.7.62.5 1bd436f1", "osm3s": {"timestamp_osm_base": "2025-03-17T20:26:51Z", "copyright": "The data included in this document is from www.openstreetmap.org. The data is made available under ODbL."}, "elements": [{"type": "node", "id": 2562438638, "lat": 40.8071119, "lon": -73.9463524, "tags": {"addr:city": "New York", "addr:country": "US", "addr:housenumber": "100", "addr:postcode": "10027", "addr:state": "NY", "addr:street": "West 124th Street", "amenity": "fast_food", "cuisine": "burger", "name": "Harlem Shake", "name:fr": "Diner ann\u00e9es 50", "website": "http://www.harlemshakenyc.com/"}}, {"type": "node", "id": 2562438642, "lat": 40.8077525, "lon": -73.9449111, "tags": {"addr:housenumber": "77", "addr:street": "West 125th Street", "amenity": "fast_food", "brand": "Checkers", "brand:wikidata": "Q63919315", "cuisine": "burger", "internet_access": "wlan", "internet_access:fee": "yes", "name": "Checkers", "takeaway": "yes"}}, {"type": "node", "id": 2765578703, "lat": 40.8048109, "lon": -73.9369268, "tags": {"addr:city": "Bronx", "addr:housenumber": "2085", "addr:postcode": "10035", "addr:state": "NY", "addr:street": "Lexington Avenue", "amenity": "fast_food", "branch": "Caribbean Restaurant", "brand": "Golden Krust Caribbean Bakery & Grill", "brand:wikidata": "Q5579615", "cuisine": "caribbean", "name": "Golden Krust", "phone": "212-722-5253", "takeaway": "yes"}}, {"type": "node", "id": 2765765931, "lat": 40.8074341, "lon": -73.9491277, "tags": {"addr:city": "New York", "addr:housenumber": "2057", "addr:postcode": "10027", "addr:state": "NY", "addr:street": "Adam C Powell Boulevard", "amenity": "fast_food", "brand": "Texas Chicken & Burgers", "brand:wikidata": "Q107303396", "cuisine": "burger;chicken", "diet:halal": "yes", "name": "Texas Chicken & Burgers", "opening_hours": "11:30-24:00; Fr,Sa 11:30-01:00", "phone": "+1-646-892-3202", "takeaway": "yes", "website": "https://www.texaschickenandburgers.com/location/manhattan/2057-adam-clayton-powell-jr-blvd-7th-ave-new-york-ny-10027_4"}}, {"type": "node", "id": 2767369780, "lat": 40.8066911, "lon": -73.9424929, "tags": {"addr:city": "New York", "addr:housenumber": "1", "addr:postcode": "10027", "addr:state": "NY", "addr:street": "West 125th Street", "amenity": "fast_food", "brand": "Shake Shack", "brand:wikidata": "Q1058722", "cuisine": "burger", "name": "Shake Shack", "takeaway": "yes"}}, {"type": "node", "id": 2883793061, "lat": 40.805029, "lon": -73.9385081, "tags": {"addr:city": "New York", "addr:housenumber": "122", "addr:postcode": "10035", "addr:state": "NY", "addr:street": "East 125 Street", "amenity": "fast_food", "brand": "Popeyes", "brand:wikidata": "Q1330910", "cuisine": "chicken", "delivery": "yes", "fixme:atp": "no ATP match, check if still exists", "indoor_seating": "yes", "name": "Popeyes", "official_name": "Popeyes Louisiana Kitchen", "opening_hours": "10:30-24:00", "phone": "+1 646-669-7282", "takeaway": "yes", "website": "https://www.popeyes.com/store-locator/store/restaurant_86576"}}, {"type": "node", "id": 3661038127, "lat": 40.8042966, "lon": -73.9376552, "tags": {"amenity": "fast_food", "cuisine": "pizza", "opening_hours": "24/7"}}, {"type": "node", "id": 3661038129, "lat": 40.8044651, "lon": -73.9380441, "tags": {"addr:city": "New York", "addr:housenumber": "122", "addr:postcode": "10035", "addr:state": "NY", "addr:street": "East 125 Street", "amenity": "fast_food", "brand": "Popeyes", "brand:wikidata": "Q1330910", "cuisine": "chicken", "delivery": "yes", "indoor_seating": "yes", "name": "Popeyes", "official_name": "Popeyes Louisiana Kitchen", "opening_hours": "10:30-24:00", "phone": "+1 646-669-7282", "takeaway": "yes", "website": "https://www.popeyes.com/store-locator/store/restaurant_86576"}}, {"type": "node", "id": 3661038147, "lat": 40.8060573, "lon": -73.9418046, "tags": {"amenity": "fast_food", "brand": "Taco Bell", "brand:wikidata": "Q752941", "cuisine": "tex-mex", "name": "Taco Bell", "takeaway": "yes"}}, {"type": "node", "id": 5266902651, "lat": 40.80756, "lon": -73.9445108, "tags": {"addr:city": "New York", "addr:housenumber": "63", "addr:postcode": "10027", "addr:state": "NY", "addr:street": "West 125th Street", "amenity": "fast_food", "branch": "New York 125th St", "brand": "Wingstop", "brand:wikidata": "Q8025339", "cuisine": "wings", "name": "Wingstop", "phone": "+1 212-987-9464", "takeaway": "yes"}}, {"type": "node", "id": 5799683086, "lat": 40.8048767, "lon": -73.9381538, "tags": {"addr:housenumber": "113", "addr:postcode": "10035", "addr:street": "East 125th Street", "amenity": "fast_food", "branch": "Harlem", "name": "2 Bros. Pizza", "opening_hours": "Mo-Su 10:00-02:00", "takeaway": "yes", "website": "https://www.2brospizza.com/location/113-east-125th-street-new-york-ny-10035/"}}, {"type": "node", "id": 5972697822, "lat": 40.8035481, "lon": -73.9378506, "tags": {"addr:housenumber": "2027", "addr:street": "Lexington Avenue", "amenity": "fast_food", "name": "Dallas Chicken & Biscuits"}}, {"type": "node", "id": 5972697836, "lat": 40.8053986, "lon": -73.9394664, "tags": {"addr:housenumber": "79", "addr:street": "East 125th Street", "amenity": "fast_food", "brand": "Wendy's", "brand:wikidata": "Q550258", "cuisine": "burger", "fixme:atp": "no ATP match, check if still exists", "name": "Wendy's", "takeaway": "yes"}}, {"type": "node", "id": 5981262800, "lat": 40.8034524, "lon": -73.9357042, "tags": {"addr:city": "New York", "addr:housenumber": "200", "addr:postcode": "10035", "addr:state": "NY", "addr:street": "East 125th Street", "amenity": "fast_food", "branch": "200 East 125th Street", "brand": "Burger King", "brand:wikidata": "Q177054", "cuisine": "burger", "delivery": "yes", "internet_access": "wlan", "name": "Burger King", "opening_hours": "Mo-Fr 07:00-22:00; Sa, Su 08:00-22:00", "phone": "+1 917-261-7611", "ref": "23934", "takeaway": "yes", "website": "https://www.bk.com/store-locator/store/restaurant_65221", "wheelchair": "yes"}}, {"type": "node", "id": 6314496485, "lat": 40.8104354, "lon": -73.9469283, "tags": {"addr:city": "New York", "addr:housenumber": "2143", "addr:postcode": "10027", "addr:state": "NY", "addr:street": "Adam Clayton Powell Jr. Boulevard", "amenity": "fast_food", "cuisine": "dominican", "drive_through": "no", "name": "Tropical Grill", "phone": "+1-212-531-0233"}}, {"type": "node", "id": 6680394972, "lat": 40.8089411, "lon": -73.9486836, "tags": {"amenity": "fast_food", "cuisine": "burger;american;chicken;milkshake", "name": "Kennedy Chicken", "shop": "optician"}}, {"type": "node", "id": 6680604278, "lat": 40.8073872, "lon": -73.9449972, "tags": {"addr:city": "New York", "addr:housenumber": "72", "addr:postcode": "10027", "addr:state": "NY", "addr:street": "West 125th Street", "amenity": "fast_food", "brand": "Chipotle", "brand:wikidata": "Q465751", "cuisine": "mexican", "name": "Chipotle", "official_name": "Chipotle Mexican Grill", "phone": "+1 212-722-0746", "takeaway": "yes", "website": "https://locations.chipotle.com/ny/new-york/72-w-125th-st"}}, {"type": "node", "id": 6680604281, "lat": 40.805705, "lon": -73.9401762, "tags": {"addr:city": "New York", "addr:housenumber": "2083", "addr:postcode": "10035", "addr:state": "NY", "addr:street": "Lexington Avenue", "alt_name": "Dunkin' Donuts", "amenity": "fast_food", "brand": "Dunkin'", "brand:wikidata": "Q847743", "cuisine": "donut;coffee_shop", "drive_through": "no", "level": "0", "name": "Dunkin'", "opening_hours": "24/7", "phone": "+1 646-368-5906", "ref": "337513", "takeaway": "yes", "website": "https://locations.dunkindonuts.com/en/ny/new-york/2083-lexington-ave/337513"}}, {"type": "node", "id": 8333828578, "lat": 40.808729, "lon": -73.9488499, "tags": {"amenity": "fast_food", "brand": "White Castle", "brand:wikidata": "Q1244034", "cuisine": "burger", "name": "White Castle", "takeaway": "yes"}}, {"type": "node", "id": 10742609217, "lat": 40.8095139, "lon": -73.9445738, "tags": {"addr:city": "New York", "addr:housenumber": "349", "addr:postcode": "10027", "addr:state": "NY", "addr:street": "Malcolm X Boulevard", "amenity": "fast_food", "contact:instagram": "https://www.instagram.com/uptownvegnyc/", "diet:vegan": "yes", "diet:vegetarian": "yes", "drive_through": "no", "name": "Uptown Veg 2", "opening_hours": "10:00-20:00", "phone": "+1-646-590-0308", "website": "https://uptownvegnyc.com/"}}, {"type": "node", "id": 10969584343, "lat": 40.8074502, "lon": -73.9453853, "tags": {"addr:housenumber": "292", "addr:street": "Malcolm X Boulevard", "amenity": "fast_food", "name": "Chopped Cheese"}}, {"type": "node", "id": 11255243799, "lat": 40.8042085, "lon": -73.9365826, "tags": {"addr:city": "New York", "addr:housenumber": "161", "addr:postcode": "10035", "addr:state": "NY", "addr:street": "East 125th ST", "amenity": "fast_food", "brand": "Taco Bell", "brand:wikidata": "Q752941", "cuisine": "tex-mex", "name": "Taco Bell", "phone": "+1 646-475-0090", "takeaway": "yes", "website": "https://locations.tacobell.com/ny/new-york/161-east-125th-st.html"}}]}