{"version": 0.6, "generator": "Overpass API 0.7.62.5 1bd436f1", "osm3s": {"timestamp_osm_base": "2025-03-17T20:35:02Z", "copyright": "The data included in this document is from www.openstreetmap.org. The data is made available under ODbL."}, "elements": [{"type": "node", "id": 2765640305, "lat": 40.8063427, "lon": -73.9407018}, {"type": "node", "id": 2765640315, "lat": 40.8063506, "lon": -73.9406751}, {"type": "node", "id": 2765640318, "lat": 40.8063509, "lon": -73.9406879}, {"type": "node", "id": 2765640320, "lat": 40.8063514, "lon": -73.9407225}, {"type": "node", "id": 2765640324, "lat": 40.8063548, "lon": -73.940685}, {"type": "node", "id": 2765640332, "lat": 40.8063654, "lon": -73.9407225}, {"type": "node", "id": 2765640339, "lat": 40.8063693, "lon": -73.9407196}, {"type": "node", "id": 2765640345, "lat": 40.8063748, "lon": -73.9407327}, {"type": "node", "id": 2765640510, "lat": 40.8064773, "lon": -73.940583}, {"type": "node", "id": 2765640564, "lat": 40.8065015, "lon": -73.9406406}, {"type": "node", "id": 2767371753, "lat": 40.8076047, "lon": -73.9437767}, {"type": "node", "id": 2767371783, "lat": 40.8076246, "lon": -73.943824}, {"type": "node", "id": 2767371811, "lat": 40.8076488, "lon": -73.9437446}, {"type": "node", "id": 2767371835, "lat": 40.8076664, "lon": -73.9437935}, {"type": "node", "id": 2767371842, "lat": 40.8076698, "lon": -73.9438015}, {"type": "node", "id": 2767371981, "lat": 40.8077652, "lon": -73.9436597}, {"type": "node", "id": 2767372017, "lat": 40.8077884, "lon": -73.943715}, {"type": "node", "id": 2767372105, "lat": 40.8078438, "lon": -73.9442541}, {"type": "node", "id": 2767372118, "lat": 40.807857, "lon": -73.9442447}, {"type": "node", "id": 2767372120, "lat": 40.8078608, "lon": -73.9442947}, {"type": "node", "id": 2767372123, "lat": 40.8078778, "lon": -73.944335}, {"type": "node", "id": 2767372147, "lat": 40.8079776, "lon": -73.9441562}, {"type": "node", "id": 2767372155, "lat": 40.807995, "lon": -73.9441969}, {"type": "node", "id": 2767372158, "lat": 40.8080119, "lon": -73.9442372}, {"type": "node", "id": 2767466091, "lat": 40.807782, "lon": -73.9431621}, {"type": "node", "id": 2767466104, "lat": 40.8078112, "lon": -73.943231}, {"type": "node", "id": 2767466116, "lat": 40.807839, "lon": -73.9432967}, {"type": "node", "id": 2767466144, "lat": 40.8078605, "lon": -73.9431046}, {"type": "node", "id": 2767466155, "lat": 40.8078665, "lon": -73.9433617}, {"type": "node", "id": 2767466159, "lat": 40.8078702, "lon": -73.9430975}, {"type": "node", "id": 2767466169, "lat": 40.8078796, "lon": -73.9430905}, {"type": "node", "id": 2767466181, "lat": 40.8078938, "lon": -73.9434263}, {"type": "node", "id": 2767466200, "lat": 40.8079088, "lon": -73.9431594}, {"type": "node", "id": 2767466217, "lat": 40.8079218, "lon": -73.9434924}, {"type": "node", "id": 2767466234, "lat": 40.8079366, "lon": -73.9432251}, {"type": "node", "id": 2767466251, "lat": 40.8079497, "lon": -73.9435582}, {"type": "node", "id": 2767466265, "lat": 40.8079641, "lon": -73.9432901}, {"type": "node", "id": 2767466271, "lat": 40.8079741, "lon": -73.9436158}, {"type": "node", "id": 2767466281, "lat": 40.8079915, "lon": -73.9433547}, {"type": "node", "id": 2767466293, "lat": 40.8080195, "lon": -73.9434208}, {"type": "node", "id": 2767466295, "lat": 40.808025, "lon": -73.9437362}, {"type": "node", "id": 2767466304, "lat": 40.8080473, "lon": -73.9434866}, {"type": "node", "id": 2767466306, "lat": 40.8080504, "lon": -73.943796}, {"type": "node", "id": 2767466315, "lat": 40.8080723, "lon": -73.9434682}, {"type": "node", "id": 2767466316, "lat": 40.8080731, "lon": -73.9438496}, {"type": "node", "id": 2767466330, "lat": 40.8080967, "lon": -73.9435259}, {"type": "node", "id": 2767466331, "lat": 40.8080974, "lon": -73.9439071}, {"type": "node", "id": 2767466338, "lat": 40.8081213, "lon": -73.9439635}, {"type": "node", "id": 2767466341, "lat": 40.8081225, "lon": -73.9435868}, {"type": "node", "id": 2767466354, "lat": 40.8081444, "lon": -73.9440181}, {"type": "node", "id": 2767466355, "lat": 40.8081483, "lon": -73.943647}, {"type": "node", "id": 2767466366, "lat": 40.8081609, "lon": -73.943715}, {"type": "node", "id": 2767466369, "lat": 40.8081686, "lon": -73.9440752}, {"type": "node", "id": 2767466379, "lat": 40.808173, "lon": -73.9437061}, {"type": "node", "id": 2767466386, "lat": 40.8081836, "lon": -73.9437686}, {"type": "node", "id": 2767466390, "lat": 40.8081933, "lon": -73.9441335}, {"type": "node", "id": 2767466399, "lat": 40.8082079, "lon": -73.9438261}, {"type": "node", "id": 2767466407, "lat": 40.808217, "lon": -73.9441895}, {"type": "node", "id": 2767466424, "lat": 40.8082318, "lon": -73.9438824}, {"type": "node", "id": 2767466438, "lat": 40.8082549, "lon": -73.9439371}, {"type": "node", "id": 2767466464, "lat": 40.8082791, "lon": -73.9439941}, {"type": "node", "id": 2767466481, "lat": 40.8083038, "lon": -73.9440524}, {"type": "node", "id": 2767466511, "lat": 40.8083275, "lon": -73.9441085}, {"type": "node", "id": 3845422061, "lat": 40.8080028, "lon": -73.9442155}, {"type": "node", "id": 3845706657, "lat": 40.8081663, "lon": -73.943634}, {"type": "node", "id": 3845706658, "lat": 40.8081405, "lon": -73.9435738}, {"type": "node", "id": 3845706659, "lat": 40.8079999, "lon": -73.9436767}, {"type": "node", "id": 3845730528, "lat": 40.807897, "lon": -73.943424}, {"type": "node", "id": 3845730529, "lat": 40.807871, "lon": -73.9433584}, {"type": "way", "id": 271610723, "nodes": [2765640315, 2765640324, 2765640318, 2765640305, 2765640320, 2765640332, 2765640339, 2765640345, 2765640564, 2765640510, 2765640315], "tags": {"addr:housenumber": "32", "addr:postcode": "10035", "addr:street": "East 126th Street", "building": "house", "height": "14.3", "nycdoitt:bin": "1054061"}}, {"type": "way", "id": 271798810, "nodes": [2767371753, 2767371783, 2767371835, 2767371842, 2767372017, 2767371981, 2767371811, 2767371753], "tags": {"addr:housenumber": "52", "addr:postcode": "10027", "addr:street": "West 126th Street", "building": "house", "height": "13.5", "nycdoitt:bin": "1053536"}}, {"type": "way", "id": 271798834, "nodes": [2767372105, 2767372120, 2767372155, 2767372147, 2767372118, 2767372105], "tags": {"addr:housenumber": "70", "addr:postcode": "10027", "addr:street": "West 126th Street", "building": "house", "height": "13.7", "nycdoitt:bin": "1053525"}}, {"type": "way", "id": 271798836, "nodes": [2767372120, 2767372123, 2767372158, 3845422061, 2767372155, 2767372120], "tags": {"addr:housenumber": "72", "addr:postcode": "10027", "addr:street": "West 126th Street", "building": "house", "height": "13.3", "nycdoitt:bin": "1053538"}}, {"type": "way", "id": 271807653, "nodes": [2767466091, 2767466104, 2767466200, 2767466169, 2767466159, 2767466144, 2767466091], "tags": {"addr:housenumber": "37", "addr:postcode": "10027", "addr:street": "West 126th Street", "building": "house", "height": "12.3", "nycdoitt:bin": "1053555"}}, {"type": "way", "id": 271807678, "nodes": [2767466116, 2767466155, 3845730529, 2767466265, 2767466234, 2767466116], "tags": {"addr:housenumber": "41", "addr:postcode": "10027", "addr:street": "West 126th Street", "building": "house", "height": "12.6", "nycdoitt:bin": "1053553"}}, {"type": "way", "id": 271807692, "nodes": [2767466293, 2767466281, 3845730528, 2767466181, 2767466217, 2767466293], "tags": {"addr:housenumber": "45", "addr:postcode": "10027", "addr:street": "West 126th Street", "building": "house", "height": "12.1", "nycdoitt:bin": "1053552"}}, {"type": "way", "id": 271807712, "nodes": [2767466217, 2767466251, 2767466304, 2767466293, 2767466217], "tags": {"addr:housenumber": "47", "addr:postcode": "10027", "addr:street": "West 126th Street", "building": "house", "height": "12.5", "nycdoitt:bin": "1053551"}}, {"type": "way", "id": 271807720, "nodes": [2767466251, 2767466271, 2767466330, 2767466315, 2767466304, 2767466251], "tags": {"addr:housenumber": "49", "addr:postcode": "10027", "addr:street": "West 126th Street", "building": "house", "height": "14.9", "nycdoitt:bin": "1053550"}}, {"type": "way", "id": 271807738, "nodes": [2767466271, 3845706659, 2767466341, 2767466330, 2767466271], "tags": {"addr:housenumber": "51", "addr:postcode": "10027", "addr:street": "West 126th Street", "building": "house", "height": "14.5", "nycdoitt:bin": "1053599"}}, {"type": "way", "id": 271807759, "nodes": [2767466295, 2767466306, 2767466366, 2767466379, 2767466355, 2767466295], "tags": {"addr:housenumber": "55", "addr:postcode": "10027", "addr:street": "West 126th Street", "building": "house", "height": "13.9", "nycdoitt:bin": "1053548"}}, {"type": "way", "id": 271807774, "nodes": [2767466306, 2767466316, 2767466386, 2767466366, 2767466306], "tags": {"addr:housenumber": "57", "addr:postcode": "10027", "addr:street": "West 126th Street", "building": "house", "height": "12.9", "nycdoitt:bin": "1053598"}}, {"type": "way", "id": 271807794, "nodes": [2767466316, 2767466331, 2767466399, 2767466386, 2767466316], "tags": {"addr:housenumber": "59", "addr:postcode": "10027", "addr:street": "West 126th Street", "building": "house", "height": "13.5", "nycdoitt:bin": "1053547"}}, {"type": "way", "id": 271807836, "nodes": [2767466338, 2767466354, 2767466438, 2767466424, 2767466338], "tags": {"addr:housenumber": "63", "addr:postcode": "10027", "addr:street": "West 126th Street", "amenity": "place_of_worship", "building": "house", "height": "13.2", "nycdoitt:bin": "1053545"}}, {"type": "way", "id": 271807850, "nodes": [2767466354, 2767466369, 2767466464, 2767466438, 2767466354], "tags": {"addr:housenumber": "65", "addr:postcode": "10027", "addr:street": "West 126th Street", "building": "house", "height": "13.7", "nycdoitt:bin": "1053597"}}, {"type": "way", "id": 271807867, "nodes": [2767466369, 2767466390, 2767466481, 2767466464, 2767466369], "tags": {"addr:housenumber": "67", "addr:postcode": "10027", "addr:street": "West 126th Street", "building": "house", "height": "13.1", "nycdoitt:bin": "1053544"}}, {"type": "way", "id": 271807878, "nodes": [2767466390, 2767466407, 2767466511, 2767466481, 2767466390], "tags": {"addr:housenumber": "69", "addr:postcode": "10027", "addr:street": "West 126th Street", "building": "house", "height": "12.7", "nycdoitt:bin": "1053543"}}, {"type": "way", "id": 381354542, "nodes": [3845706657, 3845706658, 3845706659, 2767466295, 2767466355, 3845706657], "tags": {"building": "house"}}]}