{"version": 0.6, "generator": "Overpass API 0.7.62.5 1bd436f1", "osm3s": {"timestamp_osm_base": "2025-03-17T20:51:13Z", "copyright": "The data included in this document is from www.openstreetmap.org. The data is made available under ODbL."}, "elements": [{"type": "node", "id": 2765578587, "lat": 40.8043147, "lon": -73.9368122, "tags": {"addr:city": "New York", "addr:housenumber": "153", "addr:postcode": "10035", "addr:state": "NY", "addr:street": "East 125th Street", "alt_name": "Children's Place", "brand": "The Children's Place", "brand:wikidata": "Q3520257", "clothes": "children;babies", "name": "The Children's Place", "opening_hours": "Mo-We 09:00-20:00; Th-Sa 09:00-21:00; Su 11:00-18:00", "phone": "+1-212-348-3607", "shop": "clothes", "website": "https://www.childrensplace.com/us/store/gothamplaza-newyork-NY-111410"}}, {"type": "node", "id": 3898776096, "lat": 40.808619, "lon": -73.9468979, "tags": {"brand": "H&M", "brand:wikidata": "Q188326", "name": "H&M", "shop": "clothes"}}, {"type": "node", "id": 5186870455, "lat": 40.8061428, "lon": -73.9470016, "tags": {"addr:city": "New York", "addr:housenumber": "245", "addr:postcode": "10027", "addr:state": "NY", "addr:street": "Malcolm X Boulevard", "clothes": "men", "name": "Harlem Haberdashery", "shop": "clothes"}}, {"type": "node", "id": 5317574172, "lat": 40.8078374, "lon": -73.9460878, "tags": {"brand": "American Eagle Outfitters", "brand:wikidata": "Q2842931", "clothes": "men;women", "name": "American Eagle Outfitters", "shop": "clothes", "short_name": "American Eagle"}}, {"type": "node", "id": 6680394967, "lat": 40.8094281, "lon": -73.9498531, "tags": {"alt_name": "Children's Place", "brand": "The Children's Place", "brand:wikidata": "Q3520257", "name": "The Children's Place", "shop": "clothes"}}, {"type": "node", "id": 6680394971, "lat": 40.808987, "lon": -73.9488349, "tags": {"name": "MAC", "shop": "clothes"}}, {"type": "node", "id": 6680394973, "lat": 40.8079884, "lon": -73.9464511, "tags": {"brand": "Victoria's Secret", "brand:wikidata": "Q332477", "clothes": "underwear;women", "name": "Victoria's Secret", "shop": "clothes"}}, {"type": "node", "id": 7620039822, "lat": 40.8057966, "lon": -73.9411982, "tags": {"addr:housenumber": "24", "addr:street": "East 125th Street", "name": "The Brownstone", "shop": "clothes"}}, {"type": "node", "id": 9049400015, "lat": 40.810012, "lon": -73.9503144, "tags": {"brand": "Banana Republic", "brand:wikidata": "Q806085", "clothes": "men;women", "name": "Banana Republic (Factory Store)", "shop": "clothes"}}, {"type": "node", "id": 9966728418, "lat": 40.8105595, "lon": -73.9516922, "tags": {"addr:housenumber": "307", "addr:postcode": "10027", "addr:street": "West 125th Street", "name": "House of Angels Uniform Store", "opening_hours": "Mo-Sa 10:00-20:00; Su 11:00-19:00", "shop": "clothes"}}, {"type": "node", "id": 11980400026, "lat": 40.8102576, "lon": -73.9469818, "tags": {"addr:city": "New York", "addr:floor": "2", "addr:housenumber": "2143", "addr:postcode": "10027", "addr:state": "NY", "addr:street": "Adam Clayton Powell Jr. Boulevard", "name": "Marseille Fashion", "phone": "+1-718-855-2442", "shop": "clothes"}}]}