{"version": 0.6, "generator": "Overpass API 0.7.62.5 1bd436f1", "osm3s": {"timestamp_osm_base": "2025-03-17T20:38:05Z", "copyright": "The data included in this document is from www.openstreetmap.org. The data is made available under ODbL."}, "elements": [{"type": "node", "id": 2765578597, "lat": 40.8042398, "lon": -73.9366149, "tags": {"addr:housenumber": "159", "addr:postcode": "10035", "addr:street": "East 125th Street", "admin_level": "4", "branch": "Harlem", "government": "transportation", "name": "New York State Department of Motor Vehicles", "office": "government", "opening_hours": "Mo-We, Fr 08:30-16:00; Th 10:00-18:00", "operator": "New York State Department of Motor Vehicles", "operator:short": "New York DMV", "operator:wikidata": "Q17109616", "operator:wikipedia": "en:New York State Department of Motor Vehicles", "phone": "+1 212-645-5550", "short_name": "DMV", "website": "https://dmv.ny.gov/office/harlem"}}, {"type": "node", "id": 2765639279, "lat": 40.8067413, "lon": -73.9426052, "tags": {"addr:city": "New York", "addr:housenumber": "5", "addr:postcode": "10035", "addr:state": "NY", "addr:street": "West 125th Street", "branch": "Harlem", "government": "transportation", "name": "Dept Motor Vehicles NY State", "office": "government", "opening_hours": "Mo-Fr 07:30-17:00", "operator": "New York State Department of Motor Vehicles", "operator:short": "New York DMV", "operator:wikidata": "Q17109616", "website": "https://dmv.ny.gov/"}}, {"type": "node", "id": 2767372242, "lat": 40.8090091, "lon": -73.9472187}, {"type": "node", "id": 2767372245, "lat": 40.8090148, "lon": -73.9471456}, {"type": "node", "id": 2767372247, "lat": 40.8090148, "lon": -73.9471839}, {"type": "node", "id": 2767372249, "lat": 40.809018, "lon": -73.94724}, {"type": "node", "id": 2767372252, "lat": 40.8090246, "lon": -73.9472074}, {"type": "node", "id": 2767372253, "lat": 40.8090271, "lon": -73.947175}, {"type": "node", "id": 2767372254, "lat": 40.8090281, "lon": -73.9472575}, {"type": "node", "id": 2767372256, "lat": 40.8090305, "lon": -73.947231}, {"type": "node", "id": 2767372259, "lat": 40.8090385, "lon": -73.94725}, {"type": "node", "id": 2767372261, "lat": 40.8090459, "lon": -73.9473}, {"type": "node", "id": 2767372263, "lat": 40.8090544, "lon": -73.9472938}, {"type": "node", "id": 2767372264, "lat": 40.8090564, "lon": -73.9473204}, {"type": "node", "id": 2767372265, "lat": 40.8090634, "lon": -73.9473153}, {"type": "node", "id": 2767372266, "lat": 40.8090672, "lon": -73.9473462}, {"type": "node", "id": 2767372267, "lat": 40.8090689, "lon": -73.947373}, {"type": "node", "id": 2767372268, "lat": 40.8090753, "lon": -73.9473403}, {"type": "node", "id": 2767372269, "lat": 40.8090843, "lon": -73.9473618}, {"type": "node", "id": 2767372270, "lat": 40.8091457, "lon": -73.9470505}, {"type": "node", "id": 2767372272, "lat": 40.8091572, "lon": -73.9470779}, {"type": "node", "id": 2767372273, "lat": 40.8091663, "lon": -73.9476054}, {"type": "node", "id": 2767372275, "lat": 40.8091708, "lon": -73.947068}, {"type": "node", "id": 2767372278, "lat": 40.8091808, "lon": -73.947092}, {"type": "node", "id": 2767372279, "lat": 40.8091817, "lon": -73.9475942}, {"type": "node", "id": 2767372281, "lat": 40.8091827, "lon": -73.9476224}, {"type": "node", "id": 2767372283, "lat": 40.809191, "lon": -73.9476164}, {"type": "node", "id": 2767372284, "lat": 40.8091929, "lon": -73.947114}, {"type": "node", "id": 2767372285, "lat": 40.8091931, "lon": -73.9476473}, {"type": "node", "id": 2767372287, "lat": 40.8091961, "lon": -73.947081}, {"type": "node", "id": 2767372289, "lat": 40.8092007, "lon": -73.9471325}, {"type": "node", "id": 2767372290, "lat": 40.8092014, "lon": -73.9476413}, {"type": "node", "id": 2767372292, "lat": 40.8092014, "lon": -73.9476664}, {"type": "node", "id": 2767372293, "lat": 40.809206, "lon": -73.9471045}, {"type": "node", "id": 2767372294, "lat": 40.8092095, "lon": -73.9476605}, {"type": "node", "id": 2767372295, "lat": 40.8092152, "lon": -73.947122}, {"type": "node", "id": 2767372297, "lat": 40.8092198, "lon": -73.9471741}, {"type": "node", "id": 2767372298, "lat": 40.8092208, "lon": -73.9477127}, {"type": "node", "id": 2767372299, "lat": 40.8092247, "lon": -73.9477312}, {"type": "node", "id": 2767372300, "lat": 40.8092274, "lon": -73.9471921}, {"type": "node", "id": 2767372302, "lat": 40.8092324, "lon": -73.9477043}, {"type": "node", "id": 2767372303, "lat": 40.809233, "lon": -73.9471646}, {"type": "node", "id": 2767372306, "lat": 40.8092349, "lon": -73.9477555}, {"type": "node", "id": 2767372307, "lat": 40.8092364, "lon": -73.9471855}, {"type": "node", "id": 2767372308, "lat": 40.8092392, "lon": -73.9477206}, {"type": "node", "id": 2767372311, "lat": 40.8092483, "lon": -73.9477458}, {"type": "node", "id": 2767372312, "lat": 40.8092577, "lon": -73.9477682}, {"type": "node", "id": 2767372315, "lat": 40.8092728, "lon": -73.9477572}, {"type": "node", "id": 2767372316, "lat": 40.8092762, "lon": -73.9472804}, {"type": "node", "id": 2767372317, "lat": 40.80928, "lon": -73.9472777}, {"type": "node", "id": 2767372318, "lat": 40.8092847, "lon": -73.9477854}, {"type": "node", "id": 2767372324, "lat": 40.8093322, "lon": -73.9474199}, {"type": "node", "id": 2767372325, "lat": 40.8093379, "lon": -73.9474158}, {"type": "node", "id": 2767372327, "lat": 40.8093409, "lon": -73.9474406}, {"type": "node", "id": 2767372328, "lat": 40.809344, "lon": -73.9474383}, {"type": "node", "id": 2767372330, "lat": 40.8093666, "lon": -73.9475234}, {"type": "node", "id": 2767372332, "lat": 40.8093739, "lon": -73.9475409}, {"type": "node", "id": 2767372334, "lat": 40.8093766, "lon": -73.9475161}, {"type": "node", "id": 2767372337, "lat": 40.8093868, "lon": -73.9475316}, {"type": "node", "id": 2767372339, "lat": 40.8093944, "lon": -73.947584}, {"type": "node", "id": 2767372342, "lat": 40.8094018, "lon": -73.9476018}, {"type": "node", "id": 2767372344, "lat": 40.8094054, "lon": -73.947576}, {"type": "node", "id": 2767372346, "lat": 40.8094056, "lon": -73.9476612}, {"type": "node", "id": 2767372348, "lat": 40.8094093, "lon": -73.9476272}, {"type": "node", "id": 2767372350, "lat": 40.8094149, "lon": -73.9475923}, {"type": "node", "id": 2767372353, "lat": 40.8094173, "lon": -73.9476891}, {"type": "node", "id": 2767372354, "lat": 40.8094193, "lon": -73.9476512}, {"type": "node", "id": 2767372356, "lat": 40.8094248, "lon": -73.9476159}, {"type": "node", "id": 2883793318, "lat": 40.8039697, "lon": -73.9360191, "tags": {"addr:city": "New York", "addr:housenumber": "175", "addr:postcode": "10035", "addr:state": "NY", "addr:street": "East 125th Street", "name": "The Salvation Army Corps Community Center", "office": "ngo"}}, {"type": "node", "id": 3661038142, "lat": 40.8056675, "lon": -73.9409175, "tags": {"name": "R&G Brenner Income Tax", "office": "accountant"}}, {"type": "node", "id": 5186830447, "lat": 40.8063573, "lon": -73.9478277, "tags": {"addr:city": "New York", "addr:housenumber": "119", "addr:postcode": "10027", "addr:state": "NY", "addr:street": "West 122nd Street", "name": "Independent Order of Mechanics", "office": "ngo"}}, {"type": "node", "id": 6680630085, "lat": 40.8055541, "lon": -73.939802, "tags": {"addr:housenumber": "69", "addr:street": "West 125th Street", "government": "yes", "name": "2nd Avenue Subway Community Office", "office": "government"}}, {"type": "node", "id": 11610701050, "lat": 40.8053513, "lon": -73.9379238, "tags": {"addr:city": "New York", "addr:housenumber": "106", "addr:postcode": "10035", "addr:state": "NY", "addr:street": "East 126th Street", "alt_name": "OnPoint NYC", "email": "info@onpointnyc.org", "name": "OnPoint NYC East Harlem Drop-In Center", "office": "association", "opening_hours": "Mo-Fr 07:30-20:00; Sa-Su 10:30-18:00", "operator": "OnPoint NYC", "phone": "+1-212-828-8464", "website": "https://onpointnyc.org/"}}, {"type": "node", "id": 11871273548, "lat": 40.8072545, "lon": -73.942467, "tags": {"addr:city": "New York", "addr:housenumber": "8", "addr:postcode": "10027", "addr:state": "NY", "addr:street": "West 126th Street", "brand": "WeWork", "brand:wikidata": "Q19995004", "fee": "yes", "name": "WeWork", "office": "coworking"}}, {"type": "node", "id": 11981765082, "lat": 40.8105639, "lon": -73.9468317, "tags": {"addr:city": "New York", "addr:housenumber": "2155", "addr:postcode": "10027", "addr:state": "NY", "addr:street": "Adam Clayton Powell Jr. Boulevard", "name": "Tax DRx", "office": "tax_advisor", "phone": "+1-718-550-1040"}}, {"type": "way", "id": 271798907, "nodes": [2767372342, 2767372339, 2767372344, 2767372337, 2767372332, 2767372330, 2767372334, 2767372328, 2767372327, 2767372324, 2767372325, 2767372317, 2767372316, 2767372307, 2767372300, 2767372297, 2767372303, 2767372295, 2767372289, 2767372284, 2767372293, 2767372287, 2767372278, 2767372275, 2767372272, 2767372270, 2767372245, 2767372253, 2767372247, 2767372252, 2767372242, 2767372249, 2767372256, 2767372259, 2767372254, 2767372261, 2767372263, 2767372265, 2767372264, 2767372266, 2767372268, 2767372269, 2767372267, 2767372273, 2767372279, 2767372283, 2767372281, 2767372285, 2767372290, 2767372294, 2767372292, 2767372298, 2767372302, 2767372308, 2767372299, 2767372306, 2767372311, 2767372312, 2767372315, 2767372318, 2767372353, 2767372346, 2767372354, 2767372348, 2767372356, 2767372350, 2767372342], "tags": {"addr:city": "New York", "addr:housenumber": "163", "addr:postcode": "10027", "addr:street": "West 126th Street", "building": "yes", "height": "88.9", "name": "Adam Clayton Powell Jr. State Office Building", "nycdoitt:bin": "1081602", "office": "government", "wikidata": "Q4678869", "wikipedia": "en:Adam Clayton Powell Jr. State Office Building"}}]}