{"version": 0.6, "generator": "Overpass API 0.7.62.5 1bd436f1", "osm3s": {"timestamp_osm_base": "2025-03-16T23:30:24Z", "copyright": "The data included in this document is from www.openstreetmap.org. The data is made available under ODbL."}, "elements": [{"type": "node", "id": 351963628, "lat": 37.7866169, "lon": -122.414982, "tags": {"addr:city": "San Francisco", "addr:country": "US", "addr:housenumber": "700", "addr:state": "CA", "addr:street": "Geary Street", "amenity": "cafe", "check_date": "2023-02-14", "name": "Angel Cafe & Deli", "opening_hours": "Mo,We-Sa 06:00-14:00; Tu off; Su 07:00-14:00", "outdoor_seating": "yes", "phone": "+1 415 931 3467", "wheelchair": "yes"}}, {"type": "node", "id": 725100826, "lat": 37.7871616, "lon": -122.410725, "tags": {"addr:city": "San Francisco", "addr:housenumber": "442", "addr:state": "CA", "addr:street": "Geary Street", "amenity": "cafe", "brand": "Starbucks", "brand:wikidata": "Q37158", "contact:website": "https://www.starbucks.com/store-locator/store/12071/geary-taylor-san-francisco-442-geary-street-san-francisco-ca-941021223-us", "cuisine": "coffee_shop", "internet_access": "wlan", "name": "Starbucks", "official_name": "Starbucks Coffee", "takeaway": "yes"}}, {"type": "node", "id": 732005606, "lat": 37.7861325, "lon": -122.4188458, "tags": {"addr:city": "San Francisco", "addr:country": "US", "addr:housenumber": "930", "addr:postcode": "94109", "addr:state": "CA", "addr:street": "Geary Street", "amenity": "cafe", "name": "Hoang Dat"}}, {"type": "node", "id": 819445015, "lat": 37.7881282, "lon": -122.4200791, "tags": {"addr:housenumber": "1220", "addr:street": "Polk Street", "amenity": "cafe", "check_date": "2023-08-09", "name": "Crepes Ooh La La", "opening_hours": "Mo-Sa 08:00-22:00; Su 08:00-21:00", "wheelchair": "yes"}}, {"type": "node", "id": 819447654, "lat": 37.7889803, "lon": -122.4171394, "tags": {"addr:city": "San Francisco", "addr:housenumber": "899", "addr:postcode": "94109", "addr:state": "CA", "addr:street": "Hyde Street", "amenity": "cafe", "check_date": "2021-08-11", "contact:facebook": "crostiniandjava", "contact:instagram": "crostiniandjava", "cuisine": "coffee_shop;sandwich", "drink:espresso": "yes", "email": "info@crostiniandjava.com", "name": "Crostini & Java", "opening_hours": "Mo-Fr 06:30-15:00; Sa-Su 07:30-15:00", "phone": "+1 415 8729226", "website": "https://www.crostiniandjava.com/"}}, {"type": "node", "id": 1975916973, "lat": 37.7821173, "lon": -122.4171746, "tags": {"addr:city": "San Francisco", "addr:housenumber": "455", "addr:state": "CA", "addr:street": "Larkin Street", "amenity": "cafe", "check_date": "2023-05-18", "cuisine": "arab;deli;ice_cream;sandwich", "disused:amenity": "restaurant", "name": "DeliShack", "old_name": "Burmese Kitchen", "opening_hours": "Mo-Fr 07:00-21:00; Sa-Su 09:00-20:00"}}, {"type": "node", "id": 2689861324, "lat": 37.7885138, "lon": -122.4150968, "tags": {"addr:housenumber": "896", "addr:street": "Sutter Street", "amenity": "cafe", "check_date": "2024-05-04", "cuisine": "coffee_shop;sandwich", "diet:vegetarian": "yes", "drink:beer": "yes", "indoor_seating": "yes", "name": "Cup of Joy", "old_name": "Cup A Joe", "opening_hours": "Mo-Sa 07:00-19:00; Su 07:00-17:00", "outdoor_seating": "yes", "phone": "+1 415 5637745", "takeaway": "yes", "toilets": "yes", "toilets:access": "permissive", "toilets:unisex": "yes", "toilets:wheelchair": "yes", "wheelchair": "yes"}}, {"type": "node", "id": 2698381301, "lat": 37.7864812, "lon": -122.4183401, "tags": {"addr:city": "San Francisco", "addr:housenumber": "925", "addr:postcode": "94109", "addr:street": "Larkin Street", "amenity": "cafe", "contact:facebook": "janeonlarkin", "contact:instagram": "janeonlarkin", "cuisine": "coffee_shop", "name": "Jane On Larkin", "opening_hours": "Mo-Fr 07:00-16:00; Sa,Su 08:00-16:00", "opening_hours:url": "https://www.itsjane.com/location/jane-on-larkin/", "phone": "+1 415 8759532", "website": "https://www.itsjane.com/location/jane-on-larkin/"}}, {"type": "node", "id": 3489808695, "lat": 37.7897377, "lon": -122.420689, "tags": {"addr:city": "San Francisco", "addr:housenumber": "1401", "addr:postcode": "94164", "addr:state": "CA", "addr:street": "Polk Street", "amenity": "cafe", "check_date": "2023-02-09", "name": "Juniper", "opening_hours": "Mo-Tu off; We-Su 08:00-16:00", "wheelchair": "yes"}}, {"type": "node", "id": 3660306838, "lat": 37.7817167, "lon": -122.4186499, "tags": {"addr:city": "San Francisco", "addr:country": "US", "addr:housenumber": "450", "addr:postcode": "94102", "addr:state": "CA", "addr:street": "Golden Gate Avenue", "amenity": "cafe", "name": "Cafe 450 Eurest Dining", "phone": "+1 415 621 0874"}}, {"type": "node", "id": 4004801813, "lat": 37.7887695, "lon": -122.4206788, "tags": {"addr:city": "San Francisco", "addr:housenumber": "1416", "addr:state": "CA", "addr:street": "Bush Street", "amenity": "cafe", "check_date": "2023-07-10", "name": "Sammy's Cafe", "opening_hours": "Mo-Fr 08:30-15:00; Sa 08:30-14:30; Su off", "outdoor_seating": "no", "phone": "+1 415-749-1938"}}, {"type": "node", "id": 4004802370, "lat": 37.7885809, "lon": -122.4222054, "tags": {"addr:city": "San Francisco", "addr:housenumber": "1401", "addr:state": "CA", "addr:street": "Van Ness Avenue", "amenity": "cafe", "brand": "Starbucks", "brand:wikidata": "Q37158", "check_date": "2023-07-10", "contact:website": "https://www.starbucks.com/store-locator/store/11766/bush-van-ness-s-f-1401-van-ness-avenue-san-francisco-ca-941094607-us", "cuisine": "coffee_shop", "indoor_seating": "yes", "name": "Starbucks", "official_name": "Starbucks Coffee", "opening_hours": "Mo-Fr 06:00-19:00; Sa,Su 06:00-17:00", "outdoor_seating": "no", "takeaway": "yes", "wheelchair": "yes"}}, {"type": "node", "id": 4259754689, "lat": 37.7898887, "lon": -122.4118038, "tags": {"addr:housenumber": "882", "addr:street": "Bush Street", "amenity": "cafe", "cuisine": "coffee_shop;sandwich;bubble_tea", "name": "Fresh Brew Coffee", "opening_hours": "Mo-Fr 07:00-15:00; Sa-Su 08:00-16:00", "phone": "+1 415 5670915"}}, {"type": "node", "id": 4567603390, "lat": 37.7817834, "lon": -122.420859, "tags": {"addr:city": "San Francisco", "addr:housenumber": "601", "addr:postcode": "94102", "addr:state": "CA", "addr:street": "Van Ness Avenue", "amenity": "cafe", "brand": "Peet's Coffee", "brand:wikidata": "Q1094101", "check_date:opening_hours": "2024-03-30", "cuisine": "coffee_shop", "indoor_seating": "yes", "name": "Peet's Coffee", "opening_hours": "Mo-Fr 05:30-18:00; Sa,Su 06:00-17:00", "opening_hours:url": "https://locations.peets.com/ll/US/CA/San-Francisco/601-Van-Ness", "outdoor_seating": "no", "phone": "+1 415 593 2661", "takeaway": "yes", "website": "https://locations.peets.com/ll/US/CA/San-Francisco/601-Van-Ness", "wheelchair": "yes"}}, {"type": "node", "id": 4624952481, "lat": 37.7813048, "lon": -122.4172998, "tags": {"addr:city": "San Francisco", "addr:housenumber": "401", "addr:state": "CA", "addr:street": "Golden Gate Avenue", "amenity": "cafe", "contact:yelp": "https://www.yelp.com/biz/the-coffee-smith-san-francisco-2", "cuisine": "coffee_shop;sandwich", "email": "thecoffeesmithsf@gmail.com", "name": "The Coffee Smith", "opening_hours": "Mo-Fr 06:15-15:15", "website": "https://www.thecoffeesmithsf.com/"}}, {"type": "node", "id": 4625221570, "lat": 37.783539, "lon": -122.4177347, "tags": {"addr:city": "San Francisco", "addr:housenumber": "611", "addr:state": "CA", "addr:street": "Larkin Street", "amenity": "cafe", "cuisine": "vietnamese", "indoor_seating": "yes", "name": "Lafayette Coffee Shop", "outdoor_seating": "no", "wheelchair": "yes"}}, {"type": "node", "id": 4628442792, "lat": 37.7838049, "lon": -122.4160942, "tags": {"addr:city": "San Francisco", "addr:housenumber": "309", "addr:state": "CA", "addr:street": "Hyde Street", "amenity": "cafe", "cuisine": "sandwich;vietnamese", "name": "Sing Sing", "name:zh": "\u661f\u661f\u5496\u5561\u5ba4", "opening_hours:signed": "no"}}, {"type": "node", "id": 4637571919, "lat": 37.7845601, "lon": -122.4142515, "tags": {"amenity": "cafe", "name": "Cafe Ellis"}}, {"type": "node", "id": 4637572294, "lat": 37.784101, "lon": -122.4144684, "tags": {"addr:housenumber": "325", "addr:street": "Leavenworth Street", "amenity": "cafe", "cafe": "yes", "check_date": "2023-07-05", "name": "Kim Huong"}}, {"type": "node", "id": 4637773270, "lat": 37.7847337, "lon": -122.4130515, "tags": {"addr:city": "San Francisco", "addr:housenumber": "411", "addr:state": "CA", "addr:street": "Ellis Street", "amenity": "cafe", "check_date": "2023-02-15", "cuisine": "vietnamese;sandwich", "description": "Vietnamese sandwiches and coffee", "drink:coffee": "yes", "name": "Mom Banh Mi", "outdoor_seating": "no", "phone": "+1 415-796-2492"}}, {"type": "node", "id": 4765984643, "lat": 37.7861306, "lon": -122.4170995, "tags": {"addr:city": "San Francisco", "addr:housenumber": "835", "addr:postcode": "94109", "addr:state": "CA", "addr:street": "Geary Street", "amenity": "cafe", "check_date": "2022-08-15", "name": "Caf\u00e9 Gourmand"}}, {"type": "node", "id": 4806805086, "lat": 37.7817366, "lon": -122.410617, "tags": {"addr:city": "San Francisco", "addr:housenumber": "1019", "addr:postcode": "94103", "addr:state": "CA", "addr:street": "Market Street", "amenity": "cafe", "check_date": "2025-03-04", "check_date:opening_hours": "2024-12-03", "contact:facebook": "chaibarsf", "contact:instagram": "chaibarsf", "contact:yelp": "https://www.yelp.com/biz/chai-bar-by-david-rio-san-francisco-4", "cuisine": "coffee_shop", "diet:vegetarian": "yes", "drink:coffee": "yes", "drink:espresso": "yes", "drink:tea": "yes", "email": "info@chaibarsf.com", "food": "yes", "indoor_seating": "yes", "internet_access": "wlan", "internet_access:fee": "no", "name": "Chai Bar by David Rio", "opening_hours": "Mo-Fr 07:30-15:30; Sa 09:00-14:00; Su off", "opening_hours:signed": "no", "opening_hours:url": "https://www.chaibarsf.com/", "outdoor_seating": "yes", "phone": "+1 415 8650677", "smoking": "no", "website": "https://www.chaibarsf.com/", "website:menu": "https://www.chaibarsf.com/s/HangingMenu-web-2022-08.pdf", "wheelchair": "yes"}}, {"type": "node", "id": 5008465322, "lat": 37.7842017, "lon": -122.4169845, "tags": {"amenity": "cafe", "name": "Mom's Soul Groove", "name:en": "Mom's Soul Groove"}}, {"type": "node", "id": 6188160959, "lat": 37.7876848, "lon": -122.4143208, "tags": {"addr:housenumber": "754", "addr:street": "Post Street", "amenity": "cafe", "description": "Local San Francisco micro-cafe specializing in mostly local, sustainable, and homemade ingredients.", "name": "Farm:Table", "opening_hours": "Mo-Fr 07:30-13:00; Sa, Su 08:00-14:00", "website": "https://www.farmtablesf.com/"}}, {"type": "node", "id": 9194418334, "lat": 37.7862881, "lon": -122.4102178, "tags": {"addr:housenumber": "320", "addr:street": "O'Farrell Street", "amenity": "cafe", "check_date": "2023-08-27", "cuisine": "bubble_tea", "email": "blacksugarboba@gmail.com", "name": "Black Sugar", "opening_hours": "Mo off; Tu-Su 12:00-17:00", "outdoor_seating": "no", "payment:cash": "yes", "payment:credit_cards": "yes", "phone": "+1 415 5212022", "takeaway": "yes", "website": "https://www.blacksugarboba.com/", "wheelchair": "yes"}}, {"type": "node", "id": 9339818287, "lat": 37.7877353, "lon": -122.4120028, "tags": {"addr:city": "San Francisco", "addr:housenumber": "611", "addr:state": "CA", "addr:street": "Post Street", "amenity": "cafe", "check_date": "2023-07-25", "cuisine": "coffee_shop", "email": "joysplacecafe@gmail.com", "internet_access": "wlan", "internet_access:fee": "customers", "name": "Joy's Place", "opening_hours": "Mo-Fr 08:00-20:00; Sa-Su 08:00-18:00", "outdoor_seating": "no", "payment:credit_cards": "yes", "phone": "+1 415 8171391", "website": "https://joysplacecafe.com/", "wheelchair": "yes"}}, {"type": "node", "id": 9397915518, "lat": 37.7886956, "lon": -122.4137168, "tags": {"addr:housenumber": "800", "addr:street": "Sutter Street", "amenity": "cafe", "check_date": "2023-07-27", "drink:beer": "yes", "name": "Cafe Bean", "outdoor_seating": "yes", "phone": "+1 415-928-0888"}}, {"type": "node", "id": 9408415652, "lat": 37.7882886, "lon": -122.4153113, "tags": {"addr:city": "San Francisco", "addr:housenumber": "901", "addr:postcode": "94109", "addr:state": "CA", "addr:street": "Sutter Street", "amenity": "cafe", "check_date": "2024-05-04", "cuisine": "turkish;kebab", "diet:vegan": "no", "diet:vegetarian": "yes", "indoor_seating": "yes", "name": "Berlin D\u00f6ner & Kebab House", "old_name": "SF Breakfast Cafe", "outdoor_seating": "no", "phone": "+1-415-914-5598", "takeaway": "yes", "website": "https://www.berlindonerkebabhouse.com/", "wheelchair": "yes"}}, {"type": "node", "id": 9426889457, "lat": 37.7896132, "lon": -122.4140215, "tags": {"addr:city": "San Francisco", "addr:housenumber": "1008", "addr:state": "CA", "addr:street": "Bush Street", "amenity": "cafe", "check_date": "2023-02-03", "cuisine": "sandwich;breakfast", "internet_access": "no", "name": "Morning Fix Cafe", "opening_hours": "Mo-Sa 07:00-14:00; Su off", "payment:cash": "yes", "payment:credit_cards": "yes", "phone": "+1 415-875-9598", "takeaway": "yes", "wheelchair": "no"}}, {"type": "node", "id": 9434341039, "lat": 37.7871832, "lon": -122.4163205, "tags": {"addr:city": "San Francisco", "addr:housenumber": "881", "addr:state": "CA", "addr:street": "Post Street", "amenity": "cafe", "check_date": "2023-06-29", "contact:facebook": "https://www.facebook.com/sammiecafe", "contact:instagram": "https://www.instagram.com/sammiecafe", "cuisine": "coffee_shop;sandwich", "email": "sammiecafe@gmail.com", "internet_access": "wlan", "internet_access:fee": "customers", "name": "Sammie Cafe", "old_name": "milkbean", "opening_hours": "08:00-14:00", "outdoor_seating": "no", "payment:credit_cards": "yes", "phone": "+1 415-866-8811", "website": "https://www.sammiecafe.com/", "wheelchair": "yes"}}, {"type": "node", "id": 9579899926, "lat": 37.7858111, "lon": -122.4288927, "tags": {"amenity": "cafe", "contact:instagram": "yakiniqcafe", "name": "YakiniQ Cafe"}}, {"type": "node", "id": 9589058972, "lat": 37.7815953, "lon": -122.4170675, "tags": {"addr:city": "San Francisco", "addr:housenumber": "390", "addr:state": "CA", "addr:street": "Golden Gate Avenue", "amenity": "cafe", "check_date": "2021-08-11", "cuisine": "croissant;donut", "name": "Philz Coffee", "opening_hours": "Mo-Su 06:00-17:00"}}, {"type": "node", "id": 9589058980, "lat": 37.7813468, "lon": -122.4169904, "tags": {"amenity": "cafe", "brand": "Philz Coffee", "brand:wikidata": "Q18156812", "cuisine": "coffee_shop", "indoor_seating": "yes", "name": "Philz Coffee", "opening_hours": "Mo-Fr 06:30-18:00; Sa,Su 07:00-18:00", "outdoor_seating": "no", "takeaway": "yes", "wheelchair": "yes"}}, {"type": "node", "id": 9649588765, "lat": 37.7817533, "lon": -122.4160101, "tags": {"amenity": "cafe", "check_date": "2023-01-03", "contact:facebook": "fluidcoopsf", "contact:instagram": "wearefluidsf", "cuisine": "coffee_shop", "drink:beer": "yes", "drink:wine": "yes", "email": "info@fluidcoopsf.com", "indoor": "yes", "name": "Fluid Cooperative Cafe", "opening_hours": "Mo-Fr 8:00-14:30", "website": "https://www.fluidcoopsf.com/", "website:menu": "https://www.fluidcoopsf.com/menu", "wheelchair": "yes"}}, {"type": "node", "id": 9659806955, "lat": 37.7879961, "lon": -122.4191375, "tags": {"addr:city": "San Francisco", "addr:housenumber": "1138", "addr:state": "CA", "addr:street": "Sutter Street", "amenity": "cafe", "contact:facebook": "LeMaraisBakery", "contact:instagram": "lemaraisbakery", "contact:twitter": "LeMaraisBakery", "email": "info@lemaraisbakery.com", "name": "Le Marais Bakery Market Cafe", "phone": "+1 415 8729694", "website": "https://www.lemaraisbakery.com/"}}, {"type": "node", "id": 9704672158, "lat": 37.7833267, "lon": -122.420665, "tags": {"addr:city": "San Francisco", "addr:housenumber": "826", "addr:postcode": "94109", "addr:state": "CA", "addr:street": "Van Ness Avenue", "amenity": "cafe", "check_date": "2023-01-09", "contact:facebook": "VanNessCafe", "contact:foursquare": "https://foursquare.com/v/van-ness-cafe-and-gyros/5b68e44c286fda002c22548f", "contact:instagram": "vannesscafe", "contact:tripadvisor": "https://www.tripadvisor.com/Restaurant_Review-g60713-d15175194-Reviews-Van_Ness_Cafe_and_Gyros-San_Francisco_California.html", "contact:yelp": "https://www.yelp.com/biz/van-ness-cafe-and-gyros-san-francisco-3", "cuisine": "mediterranean", "indoor_seating": "yes", "name": "Van Ness Cafe & Gyros", "opening_hours": "Mo-Fr 10:00-21:50; Sa 10:00-26:00; Su 10:00-21:50", "opening_hours:url": "https://www.ordervannesscafe.com/", "outdoor_seating": "no", "phone": "+1 415 5897900", "website": "https://www.ordervannesscafe.com/", "wheelchair": "yes"}}, {"type": "node", "id": 9735505781, "lat": 37.784526, "lon": -122.4179285, "tags": {"addr:city": "San Francisco", "addr:housenumber": "721", "addr:postcode": "94109", "addr:state": "CA", "addr:street": "Larkin Street", "amenity": "cafe", "check_date": "2023-01-08", "contact:instagram": "sweetglorysf", "cuisine": "dessert", "description": "Dessert cafe", "email": "sweetglorysf@hotmail.com", "name": "Sweet Glory", "opening_hours": "Mo,We-Su 10:30-18:00; Tu off", "opening_hours:url": "https://www.sweetglorysf.com/", "outdoor_seating": "no", "phone": "+1 415 7430724", "website": "https://www.sweetglorysf.com/", "wheelchair": "yes"}}, {"type": "node", "id": 9735505803, "lat": 37.7844434, "lon": -122.4179158, "tags": {"addr:city": "San Francisco", "addr:housenumber": "709", "addr:state": "CA", "addr:street": "Larkin Street", "amenity": "cafe", "brand": "Quickly", "brand:en": "Quickly", "brand:wikidata": "Q3771463", "brand:zh": "\u5feb\u53ef\u7acb", "cuisine": "bubble_tea", "name": "Quickly", "name:en": "Quickly", "name:zh": "\u5feb\u53ef\u7acb", "note": "Alleged front", "outdoor_seating": "no", "takeaway": "yes", "url": "https://www.sfchronicle.com/crime/article/S-F-boba-shop-was-a-front-for-an-international-17162814.php"}}, {"type": "node", "id": 9849528033, "lat": 37.7886617, "lon": -122.4139387, "tags": {"addr:city": "San Francisco", "addr:housenumber": "816", "addr:state": "CA", "addr:street": "Sutter Street", "amenity": "cafe", "check_date": "2024-08-06", "contact:instagram": "https://www.instagram.com/thebirdcagesf", "cuisine": "coffee_shop", "description": "Caf\u00e9, art gallery, gifts, event space rental", "internet_access": "wlan", "internet_access:fee": "customers", "name": "The Bird Cage", "payment:cash": "yes", "payment:credit_cards": "yes", "website": "https://thebirdcagesf.com/", "wheelchair": "yes"}}, {"type": "node", "id": 9863236237, "lat": 37.7881683, "lon": -122.423429, "tags": {"addr:housenumber": "1452", "addr:street": "Franklin Street", "amenity": "cafe", "check_date": "2024-03-05", "cuisine": "coffee_shop", "internet_access": "wlan", "internet_access:fee": "customers", "name": "Haraz Coffee House", "outdoor_seating": "no", "takeaway": "yes", "wheelchair": "yes"}}, {"type": "node", "id": 9918161615, "lat": 37.78505, "lon": -122.4291218}, {"type": "node", "id": 9938473372, "lat": 37.7851474, "lon": -122.4291731, "tags": {"entrance": "yes", "indoor": "yes", "level": "2"}}, {"type": "node", "id": 9938473388, "lat": 37.7851514, "lon": -122.4291431}, {"type": "node", "id": 9938473391, "lat": 37.7851432, "lon": -122.4292055}, {"type": "node", "id": 9938473392, "lat": 37.7850418, "lon": -122.4291842}, {"type": "node", "id": 9956019832, "lat": 37.7863289, "lon": -122.4172114, "tags": {"amenity": "cafe", "cuisine": "mongolian", "name": "Mongol Cafe", "website": "http://mongol.cafe/"}}, {"type": "node", "id": 9956029007, "lat": 37.7869905, "lon": -122.4231846, "tags": {"amenity": "cafe", "name": "Cafe Pacific Plaza"}}, {"type": "node", "id": 9989511335, "lat": 37.7856461, "lon": -122.4133687, "tags": {"addr:city": "San Francisco", "addr:housenumber": "517", "addr:state": "CA", "addr:street": "O'Farrell Street", "amenity": "cafe", "check_date": "2023-01-17", "name": "The TL Cafe and Laundromat", "opening_hours": "09:15-19:00", "shop": "laundry"}}, {"type": "node", "id": 10005629583, "lat": 37.7858499, "lon": -122.4211811, "tags": {"addr:city": "San Francisco", "addr:floor": "0", "addr:housenumber": "1100", "addr:postcode": "94109", "addr:state": "CA", "addr:street": "Van Ness Avenue", "addr:unit": "2B", "amenity": "cafe", "branch": "1100 Van Ness Avenue", "brand": "Starbucks", "brand:wikidata": "Q37158", "check_date": "2024-03-04", "cuisine": "coffee_shop", "indoor_seating": "yes", "name": "Starbucks", "official_name": "Starbucks Coffee", "opening_hours": "Mo-Su 06:00-18:00", "outdoor_seating": "no", "payment:mastercard": "yes", "payment:visa": "yes", "phone": "+1 415-683-3204", "ref": "1036765", "takeaway": "yes", "website": "https://www.starbucks.com/store-locator/store/1036765/1100-van-ness-avenue-1100-van-ness-ave-2-b-san-francisco-ca-941096978-u", "wheelchair": "yes"}}, {"type": "node", "id": 10007662660, "lat": 37.7824205, "lon": -122.4189193, "tags": {"addr:housenumber": "614", "addr:street": "Polk Street", "amenity": "cafe", "name": "Unexpected Era Cafe"}}, {"type": "node", "id": 10023428673, "lat": 37.784952, "lon": -122.4130574, "tags": {"addr:city": "San Francisco", "addr:housenumber": "406", "addr:state": "CA", "addr:street": "Ellis Street", "amenity": "cafe", "name": "Cafecito", "outdoor_seating": "no"}}, {"type": "node", "id": 10039959914, "lat": 37.7893574, "lon": -122.4135672, "tags": {"addr:city": "San Francisco", "addr:housenumber": "850", "addr:postcode": "94109", "addr:state": "CA", "addr:street": "Jones Street", "amenity": "cafe", "cuisine": "smoothie;a\u00e7a\u00ed", "diet:vegetarian": "yes", "drink:coffee": "yes", "drink:espresso": "yes", "drink:hot_chocolate": "yes", "food": "yes", "ice_cream": "yes", "indoor_seating": "yes", "internet_access": "wlan", "internet_access:fee": "customers", "name": "Hideaway Cafe", "note": "Part of Hideaway Cafe and Laundry", "opening_hours": "Mo-Su 8:00-14:00", "opening_hours:url": "https://hide-awaycafe.com/", "outdoor_seating": "no", "payment:credit_cards": "yes", "phone": "+1 415 4566786", "takeaway": "yes", "website": "https://hide-awaycafe.com/", "website:menu": "https://hide-awaycafe.com/menu/", "wheelchair": "yes"}}, {"type": "node", "id": 10076204406, "lat": 37.78511, "lon": -122.4176623, "tags": {"addr:city": "San Francisco", "addr:housenumber": "791", "addr:state": "CA", "addr:street": "O'Farrell Street", "amenity": "cafe", "check_date": "2023-01-22", "name": "Cafe la Rosa", "note": "Sign above still says The Lucky Pig. Chalk sign says it's a cafe", "opening_hours": "Mo-Th,Su 07:00-22:00; Fr-Sa 07:00-24:00"}}, {"type": "node", "id": 10682058859, "lat": 37.7881709, "lon": -122.4159863, "tags": {"amenity": "cafe", "check_date": "2023-02-20", "cuisine": "american;bagel;breakfast;coffee_shop;diner", "name": "Cozy Cafe", "opening_hours": "Su off,Mo-Fr 07:00-14:00,Sa 06:30-14:00"}}, {"type": "node", "id": 10907092559, "lat": 37.7875068, "lon": -122.4229446, "tags": {"addr:housenumber": "1380", "addr:street": "Sutter Street", "alt_name": "Not Latte", "amenity": "cafe", "check_date": "2023-06-18", "cuisine": "bubble_tea", "indoor_seating": "no", "level": "0", "name": "Cool Bar", "opening_hours": "Mo-Fr 09:00-18:00; Sa-Su 09:00-15:00", "outdoor_seating": "no", "payment:credit_cards": "yes", "takeaway": "only", "wheelchair": "yes"}}, {"type": "node", "id": 11401506169, "lat": 37.7800668, "lon": -122.4160528, "tags": {"amenity": "cafe", "check_date": "2025-01-14", "name": "Asian Art Museum Cafe"}}, {"type": "node", "id": 11752501602, "lat": 37.780939, "lon": -122.4189945, "tags": {"addr:city": "San Francisco", "addr:housenumber": "525", "addr:postcode": "94102", "addr:state": "CA", "addr:street": "Golden Gate Avenue", "amenity": "cafe", "cuisine": "coffee_shop", "name": "SPRO", "opening_hours": "Mo-Fr 07:00-17:00", "outdoor_seating": "no", "phone": "(415) 844-0650", "website": "https://www.sprocoffeelab.com/"}}, {"type": "way", "id": 1084548882, "nodes": [9938473391, 9938473372, 9938473388, 9918161615, 9938473392, 9938473391], "tags": {"addr:city": "San Francisco", "addr:housenumber": "22", "addr:place": "Peace Plaza", "addr:postcode": "94115", "addr:state": "CA", "addr:unit": "511", "amenity": "cafe", "check_date": "2024-09-26", "check_date:opening_hours": "2024-09-26", "contact:instagram": "screensavor", "contact:twitter": "screensavor", "cuisine": "coffee_shop;bubble_tea", "description": "Art and coffee", "drink:beer": "no", "drink:bubble_tea": "yes", "drink:coffee": "yes", "drink:espresso": "yes", "drink:hot_chocolate": "yes", "drink:tea": "yes", "drink:wine": "no", "food": "no", "indoor": "room", "indoor_seating": "no", "level": "2", "name": "Screen Savor", "note:opening_hours": "These are soft opening hours", "opening_hours": "Mo-Fr 11:00-17:00; Sa,Su 10:00-18:00", "opening_hours:signed": "no", "outdoor_seating": "no", "ref": "511", "takeaway": "only", "website": "https://screensavor.com/", "website:menu": "https://screensavor.com/#menu"}}]}